<?xml version="1.0" encoding="UTF-8"?>
<kml xmlns="http://www.opengis.net/kml/2.2">
  <Document>
    <name>Cria 31°</name>
    <Style id="poly-000000-1200-77-normal">
      <LineStyle>
        <color>ff000000</color>
        <width>1.2</width>
      </LineStyle>
      <PolyStyle>
        <color>4d000000</color>
        <fill>1</fill>
        <outline>1</outline>
      </PolyStyle>
    </Style>
    <Style id="poly-000000-1200-77-highlight">
      <LineStyle>
        <color>ff000000</color>
        <width>1.8</width>
      </LineStyle>
      <PolyStyle>
        <color>4d000000</color>
        <fill>1</fill>
        <outline>1</outline>
      </PolyStyle>
    </Style>
    <StyleMap id="poly-000000-1200-77">
      <Pair>
        <key>normal</key>
        <styleUrl>#poly-000000-1200-77-normal</styleUrl>
      </Pair>
      <Pair>
        <key>highlight</key>
        <styleUrl>#poly-000000-1200-77-highlight</styleUrl>
      </Pair>
    </StyleMap>
    <Placemark>
      <name>Cria 31°</name>
      <description><![CDATA[Descripción: <br>nombre: Cerro Chañi<br>osm_id: 154329086<br>Georeferen: 31]]></description>
      <styleUrl>#poly-000000-1200-77</styleUrl>
      <ExtendedData>
        <Data name="Descripción">
          <value/>
        </Data>
        <Data name="nombre">
          <value>Cerro Chañi</value>
        </Data>
        <Data name="osm_id">
          <value>154329086</value>
        </Data>
        <Data name="Georeferen">
          <value>31</value>
        </Data>
      </ExtendedData>
      <Polygon>
        <outerBoundaryIs>
          <LinearRing>
            <tessellate>1</tessellate>
            <coordinates>
              -65.29815,-24.219023,0
              -65.298114,-24.219108,0
              -65.298054,-24.219191,0
              -65.298004,-24.219275,0
              -65.29795,-24.219362,0
              -65.297873,-24.219433,0
              -65.297788,-24.219491,0
              -65.29773,-24.219516,0
              -65.297544,-24.219558,0
              -65.297434,-24.219557,0
              -65.297329,-24.219533,0
              -65.297229,-24.219518,0
              -65.297126,-24.219534,0
              -65.297091,-24.219618,0
              -65.297093,-24.219711,0
              -65.297066,-24.219799,0
              -65.297028,-24.219903,0
              -65.296958,-24.219983,0
              -65.29688,-24.220054,0
              -65.296798,-24.22012,0
              -65.29669,-24.220154,0
              -65.296576,-24.220154,0
              -65.296478,-24.220127,0
              -65.296374,-24.220182,0
              -65.296304,-24.220248,0
              -65.296216,-24.22032,0
              -65.29611,-24.220338,0
              -65.296004,-24.220299,0
              -65.295905,-24.220273,0
              -65.295803,-24.220325,0
              -65.295706,-24.22036,0
              -65.295608,-24.22039,0
              -65.295542,-24.220462,0
              -65.29549,-24.220554,0
              -65.295459,-24.220647,0
              -65.295423,-24.220737,0
              -65.295373,-24.220829,0
              -65.295333,-24.220933,0
              -65.295307,-24.221021,0
              -65.295243,-24.221098,0
              -65.295158,-24.221146,0
              -65.295066,-24.221202,0
              -65.294966,-24.221194,0
              -65.29486,-24.221163,0
              -65.294752,-24.221156,0
              -65.294663,-24.221204,0
              -65.294586,-24.22127,0
              -65.294497,-24.221326,0
              -65.29443,-24.221396,0
              -65.294453,-24.221496,0
              -65.294499,-24.221588,0
              -65.294485,-24.221685,0
              -65.294441,-24.221775,0
              -65.294375,-24.221855,0
              -65.294296,-24.221934,0
              -65.294192,-24.221992,0
              -65.294084,-24.222019,0
              -65.293973,-24.222036,0
              -65.293867,-24.222002,0
              -65.293804,-24.22193,0
              -65.293755,-24.221834,0
              -65.293684,-24.221765,0
              -65.293589,-24.221727,0
              -65.293485,-24.221718,0
              -65.293414,-24.221786,0
              -65.293409,-24.221885,0
              -65.293423,-24.221978,0
              -65.29346,-24.222068,0
              -65.293467,-24.222166,0
              -65.293468,-24.222268,0
              -65.293421,-24.222361,0
              -65.293355,-24.222433,0
              -65.293276,-24.222503,0
              -65.293186,-24.222547,0
              -65.29308,-24.222551,0
              -65.292976,-24.222551,0
              -65.292876,-24.222543,0
              -65.292781,-24.222518,0
              -65.292716,-24.222586,0
              -65.292706,-24.222684,0
              -65.292636,-24.22276,0
              -65.292564,-24.222838,0
              -65.292486,-24.222895,0
              -65.292411,-24.222978,0
              -65.29238,-24.223071,0
              -65.292359,-24.223171,0
              -65.292354,-24.223267,0
              -65.292316,-24.223353,0
              -65.292241,-24.223432,0
              -65.292165,-24.223511,0
              -65.292101,-24.223586,0
              -65.291993,-24.223563,0
              -65.291902,-24.223522,0
              -65.291796,-24.223491,0
              -65.291698,-24.223471,0
              -65.291599,-24.223456,0
              -65.291495,-24.223444,0
              -65.291392,-24.22344,0
              -65.291332,-24.223535,0
              -65.291264,-24.223612,0
              -65.291177,-24.223672,0
              -65.291073,-24.223712,0
              -65.290972,-24.223724,0
              -65.29086,-24.223723,0
              -65.290757,-24.223693,0
              -65.290721,-24.223604,0
              -65.290687,-24.223507,0
              -65.29065,-24.223401,0
              -65.290599,-24.223311,0
              -65.290483,-24.223278,0
              -65.290377,-24.223278,0
              -65.290266,-24.223282,0
              -65.290163,-24.223326,0
              -65.29007,-24.223375,0
              -65.289966,-24.223407,0
              -65.289867,-24.223409,0
              -65.289765,-24.22342,0
              -65.289664,-24.223442,0
              -65.28956,-24.223446,0
              -65.289467,-24.223492,0
              -65.289381,-24.223565,0
              -65.289351,-24.223666,0
              -65.289287,-24.223754,0
              -65.289194,-24.223812,0
              -65.289095,-24.223845,0
              -65.288999,-24.223803,0
              -65.288906,-24.223772,0
              -65.288801,-24.22377,0
              -65.28869,-24.223742,0
              -65.288618,-24.223672,0
              -65.288595,-24.223581,0
              -65.288554,-24.223486,0
              -65.288452,-24.223448,0
              -65.288363,-24.2235,0
              -65.288257,-24.223505,0
              -65.288168,-24.223449,0
              -65.288073,-24.22339,0
              -65.287968,-24.223359,0
              -65.287864,-24.223368,0
              -65.287765,-24.223388,0
              -65.287658,-24.223401,0
              -65.287555,-24.223421,0
              -65.287452,-24.223406,0
              -65.28737,-24.223353,0
              -65.287286,-24.22323,0
              -65.287234,-24.222967,0
              -65.287105,-24.222728,0
              -65.286821,-24.222672,0
              -65.286166,-24.222848,0
              -65.28595,-24.222806,0
              -65.285792,-24.222795,0
              -65.285711,-24.222725,0
              -65.285612,-24.222672,0
              -65.285502,-24.222645,0
              -65.285398,-24.222656,0
              -65.2853,-24.222708,0
              -65.28519,-24.222716,0
              -65.285119,-24.222643,0
              -65.285067,-24.22256,0
              -65.285011,-24.222468,0
              -65.284925,-24.222406,0
              -65.284848,-24.222332,0
              -65.284545,-24.222221,0
              -65.284355,-24.222241,0
              -65.28426,-24.222195,0
              -65.283989,-24.22208,0
              -65.283864,-24.22207,0
              -65.283743,-24.222067,0
              -65.283626,-24.222105,0
              -65.283502,-24.222094,0
              -65.283377,-24.222091,0
              -65.283256,-24.222098,0
              -65.283131,-24.222101,0
              -65.283011,-24.222101,0
              -65.282882,-24.222091,0
              -65.282754,-24.22208,0
              -65.282663,-24.222153,0
              -65.28255,-24.222211,0
              -65.282214,-24.222256,0
              -65.282153,-24.22236,0
              -65.282051,-24.222418,0
              -65.281927,-24.222425,0
              -65.281806,-24.222394,0
              -65.281693,-24.222446,0
              -65.281398,-24.222539,0
              -65.281227,-24.222498,0
              -65.281123,-24.222462,0
              -65.28102,-24.222455,0
              -65.280946,-24.222516,0
              -65.280897,-24.222597,0
              -65.280834,-24.222678,0
              -65.28075,-24.222731,0
              -65.280651,-24.222745,0
              -65.280548,-24.222746,0
              -65.280449,-24.222734,0
              -65.280372,-24.222665,0
              -65.280283,-24.222611,0
              -65.280197,-24.222657,0
              -65.280102,-24.222699,0
              -65.280001,-24.222736,0
              -65.279914,-24.222781,0
              -65.279805,-24.222782,0
              -65.279703,-24.222762,0
              -65.279602,-24.222753,0
              -65.279495,-24.222727,0
              -65.279402,-24.222694,0
              -65.279309,-24.222658,0
              -65.279268,-24.222633,0
              -65.279226,-24.222608,0
              -65.279173,-24.222522,0
              -65.279142,-24.222432,0
              -65.279043,-24.222423,0
              -65.278941,-24.222457,0
              -65.278845,-24.222476,0
              -65.278746,-24.22245,0
              -65.278688,-24.222377,0
              -65.278618,-24.222304,0
              -65.278541,-24.222238,0
              -65.278463,-24.222179,0
              -65.277267,-24.220193,0
              -65.276599,-24.219162,0
              -65.275945,-24.218212,0
              -65.27593,-24.217805,0
              -65.27603,-24.217749,0
              -65.276439,-24.217561,0
              -65.276918,-24.215892,0
              -65.277035,-24.21576,0
              -65.27707,-24.215712,0
              -65.277133,-24.215607,0
              -65.277393,-24.215491,0
              -65.277658,-24.215334,0
              -65.277812,-24.215234,0
              -65.278088,-24.215055,0
              -65.278243,-24.21495,0
              -65.278444,-24.214813,0
              -65.278469,-24.214793,0
              -65.278844,-24.214493,0
              -65.27919,-24.214205,0
              -65.279241,-24.214162,0
              -65.27931,-24.21409,0
              -65.279606,-24.213776,0
              -65.279737,-24.213615,0
              -65.279898,-24.213419,0
              -65.28004,-24.21323,0
              -65.280169,-24.213059,0
              -65.280579,-24.212423,0
              -65.281086,-24.211586,0
              -65.281175,-24.211434,0
              -65.28165,-24.210618,0
              -65.281882,-24.210228,0
              -65.282098,-24.209867,0
              -65.282583,-24.209046,0
              -65.282617,-24.208992,0
              -65.283382,-24.207709,0
              -65.283846,-24.206909,0
              -65.284242,-24.206227,0
              -65.2845,-24.205783,0
              -65.284533,-24.205725,0
              -65.284568,-24.20567,0
              -65.284662,-24.205517,0
              -65.284795,-24.205296,0
              -65.284975,-24.205002,0
              -65.28543,-24.204256,0
              -65.285446,-24.20423,0
              -65.285857,-24.203542,0
              -65.286046,-24.203226,0
              -65.286142,-24.203071,0
              -65.286319,-24.202786,0
              -65.286525,-24.202454,0
              -65.286635,-24.202279,0
              -65.28689,-24.201871,0
              -65.287129,-24.20149,0
              -65.287358,-24.201194,0
              -65.287521,-24.200984,0
              -65.287765,-24.200634,0
              -65.288068,-24.2002,0
              -65.288104,-24.200146,0
              -65.288159,-24.200069,0
              -65.288377,-24.199776,0
              -65.288522,-24.199582,0
              -65.289207,-24.199792,0
              -65.289571,-24.200783,0
              -65.290338,-24.200559,0
              -65.291201,-24.200264,0
              -65.292087,-24.200005,0
              -65.293029,-24.199742,0
              -65.293918,-24.19947,0
              -65.293949,-24.199537,0
              -65.293975,-24.199576,0
              -65.294017,-24.199602,0
              -65.294072,-24.199618,0
              -65.294116,-24.199616,0
              -65.29489,-24.199375,0
              -65.295088,-24.199893,0
              -65.295466,-24.199797,0
              -65.29552,-24.199817,0
              -65.295639,-24.199903,0
              -65.29569,-24.199976,0
              -65.295777,-24.200016,0
              -65.295957,-24.200061,0
              -65.296109,-24.200046,0
              -65.29643,-24.200923,0
              -65.297415,-24.200627,0
              -65.297429,-24.200666,0
              -65.297585,-24.201117,0
              -65.297758,-24.20162,0
              -65.297792,-24.201711,0
              -65.297824,-24.201785,0
              -65.297815,-24.201795,0
              -65.29773,-24.201886,0
              -65.297251,-24.202363,0
              -65.297149,-24.202465,0
              -65.296696,-24.202923,0
              -65.296639,-24.202981,0
              -65.296319,-24.2033,0
              -65.295817,-24.203824,0
              -65.295755,-24.20389,0
              -65.295693,-24.203954,0
              -65.295199,-24.204447,0
              -65.295196,-24.204506,0
              -65.295346,-24.204791,0
              -65.295389,-24.204879,0
              -65.29542,-24.204924,0
              -65.295548,-24.205011,0
              -65.29564,-24.205073,0
              -65.295691,-24.20512,0
              -65.29575,-24.205174,0
              -65.295797,-24.205228,0
              -65.295816,-24.205251,0
              -65.295863,-24.205326,0
              -65.295909,-24.205433,0
              -65.295947,-24.205536,0
              -65.296009,-24.205623,0
              -65.296086,-24.205791,0
              -65.296126,-24.20588,0
              -65.296158,-24.20592,0
              -65.296194,-24.205955,0
              -65.296254,-24.206005,0
              -65.29656,-24.206216,0
              -65.297036,-24.20649,0
              -65.297052,-24.206538,0
              -65.297044,-24.20692,0
              -65.297047,-24.207033,0
              -65.297042,-24.207496,0
              -65.297051,-24.207717,0
              -65.297038,-24.208293,0
              -65.296587,-24.208504,0
              -65.296256,-24.208664,0
              -65.296007,-24.208784,0
              -65.295807,-24.208879,0
              -65.295344,-24.209096,0
              -65.294811,-24.209342,0
              -65.294333,-24.209556,0
              -65.293778,-24.209793,0
              -65.293425,-24.209947,0
              -65.293122,-24.210073,0
              -65.292855,-24.210183,0
              -65.292592,-24.210287,0
              -65.292402,-24.210406,0
              -65.291874,-24.210678,0
              -65.291214,-24.211058,0
              -65.291076,-24.211132,0
              -65.290946,-24.211238,0
              -65.290557,-24.211627,0
              -65.29053,-24.211688,0
              -65.290498,-24.211753,0
              -65.290434,-24.211851,0
              -65.291485,-24.213033,0
              -65.293175,-24.214873,0
              -65.295701,-24.216682,0
              -65.29815,-24.219023,0
            </coordinates>
          </LinearRing>
        </outerBoundaryIs>
      </Polygon>
    </Placemark>
  </Document>
</kml>
