<?xml version="1.0" encoding="UTF-8"?>
<kml xmlns="http://www.opengis.net/kml/2.2">
  <Document>
    <name>Cria 34°</name>
    <Style id="poly-000000-1200-77-normal">
      <LineStyle>
        <color>ff000000</color>
        <width>1.2</width>
      </LineStyle>
      <PolyStyle>
        <color>4d000000</color>
        <fill>1</fill>
        <outline>1</outline>
      </PolyStyle>
    </Style>
    <Style id="poly-000000-1200-77-highlight">
      <LineStyle>
        <color>ff000000</color>
        <width>1.8</width>
      </LineStyle>
      <PolyStyle>
        <color>4d000000</color>
        <fill>1</fill>
        <outline>1</outline>
      </PolyStyle>
    </Style>
    <StyleMap id="poly-000000-1200-77">
      <Pair>
        <key>normal</key>
        <styleUrl>#poly-000000-1200-77-normal</styleUrl>
      </Pair>
      <Pair>
        <key>highlight</key>
        <styleUrl>#poly-000000-1200-77-highlight</styleUrl>
      </Pair>
    </StyleMap>
    <Placemark>
      <name>Cria 34°</name>
      <description><![CDATA[Descripción: <br>nombre: Yungas<br>Georeferen: 34]]></description>
      <styleUrl>#poly-000000-1200-77</styleUrl>
      <ExtendedData>
        <Data name="Descripción">
          <value/>
        </Data>
        <Data name="nombre">
          <value>Yungas</value>
        </Data>
        <Data name="Georeferen">
          <value>34</value>
        </Data>
      </ExtendedData>
      <Polygon>
        <outerBoundaryIs>
          <LinearRing>
            <tessellate>1</tessellate>
            <coordinates>
              -65.375364,-24.1582,0
              -65.378683,-24.158328,0
              -65.380822,-24.158784,0
              -65.382413,-24.159457,0
              -65.383739,-24.158054,0
              -65.383976,-24.15781,0
              -65.384585,-24.157185,0
              -65.384906,-24.156829,0
              -65.385138,-24.156581,0
              -65.385316,-24.156388,0
              -65.385666,-24.156048,0
              -65.385744,-24.15633,0
              -65.385788,-24.156597,0
              -65.387393,-24.157674,0
              -65.387391,-24.158098,0
              -65.391503,-24.1608,0
              -65.391906,-24.160802,0
              -65.392218,-24.160898,0
              -65.392531,-24.160899,0
              -65.392842,-24.16109,0
              -65.393154,-24.161191,0
              -65.393781,-24.161383,0
              -65.394195,-24.161574,0
              -65.394612,-24.161865,0
              -65.395028,-24.161961,0
              -65.395235,-24.162251,0
              -65.395548,-24.162252,0
              -65.395756,-24.162537,0
              -65.396067,-24.162733,0
              -65.396379,-24.162829,0
              -65.39669,-24.16302,0
              -65.397108,-24.16312,0
              -65.39742,-24.163311,0
              -65.397732,-24.163407,0
              -65.398357,-24.163794,0
              -65.398669,-24.16389,0
              -65.398874,-24.164179,0
              -65.399292,-24.16437,0
              -65.399916,-24.164562,0
              -65.400228,-24.164663,0
              -65.400645,-24.16476,0
              -65.400958,-24.164761,0
              -65.401269,-24.164952,0
              -65.401581,-24.165048,0
              -65.401896,-24.165049,0
              -65.402208,-24.165149,0
              -65.403144,-24.165437,0
              -65.403456,-24.165633,0
              -65.404706,-24.166017,0
              -65.404914,-24.166306,0
              -65.405328,-24.166498,0
              -65.40564,-24.166693,0
              -65.406266,-24.167075,0
              -65.406889,-24.167461,0
              -65.407201,-24.167462,0
              -65.407513,-24.167657,0
              -65.407827,-24.167753,0
              -65.40814,-24.167754,0
              -65.408555,-24.167851,0
              -65.409285,-24.167854,0
              -65.4097,-24.168045,0
              -65.410326,-24.168431,0
              -65.41095,-24.168623,0
              -65.411261,-24.168913,0
              -65.411573,-24.168914,0
              -65.411887,-24.169105,0
              -65.412303,-24.169206,0
              -65.412614,-24.169397,0
              -65.413241,-24.169589,0
              -65.413553,-24.16959,0
              -65.413865,-24.169691,0
              -65.415113,-24.170074,0
              -65.41574,-24.170271,0
              -65.416677,-24.170275,0
              -65.416989,-24.170371,0
              -65.417303,-24.170561,0
              -65.417927,-24.170758,0
              -65.418238,-24.171044,0
              -65.418654,-24.171618,0
              -65.418964,-24.172003,0
              -65.419275,-24.172293,0
              -65.419483,-24.172578,0
              -65.419585,-24.172868,0
              -65.419897,-24.173058,0
              -65.420105,-24.173348,0
              -65.420242,-24.173475,0
              -65.421563,-24.174085,0
              -65.42271,-24.173837,0
              -65.423024,-24.173549,0
              -65.423961,-24.173552,0
              -65.424272,-24.173842,0
              -65.424584,-24.174033,0
              -65.424898,-24.174323,0
              -65.425313,-24.17442,0
              -65.428126,-24.175292,0
              -65.428331,-24.175578,0
              -65.42864,-24.176441,0
              -65.428848,-24.176731,0
              -65.428952,-24.177016,0
              -65.429155,-24.177301,0
              -65.430459,-24.177838,0
              -65.431292,-24.17822,0
              -65.431449,-24.178171,0
              -65.431762,-24.178172,0
              -65.432074,-24.178273,0
              -65.432385,-24.178464,0
              -65.432697,-24.17856,0
              -65.433012,-24.178561,0
              -65.433324,-24.178756,0
              -65.433948,-24.178948,0
              -65.43426,-24.178949,0
              -65.434572,-24.179045,0
              -65.434887,-24.179046,0
              -65.435199,-24.179142,0
              -65.435512,-24.179144,0
              -65.435824,-24.179339,0
              -65.436242,-24.17934,0
              -65.436553,-24.179626,0
              -65.436865,-24.179726,0
              -65.438113,-24.18011,0
              -65.43874,-24.180112,0
              -65.439052,-24.180308,0
              -65.439988,-24.180595,0
              -65.440894,-24.180608,0
              -65.441188,-24.180695,0
              -65.441814,-24.180507,0
              -65.442127,-24.180508,0
              -65.44244,-24.180225,0
              -65.442444,-24.179363,0
              -65.44224,-24.178789,0
              -65.442241,-24.1785,0
              -65.442035,-24.177926,0
              -65.441619,-24.177351,0
              -65.441517,-24.177062,0
              -65.441205,-24.176871,0
              -65.441101,-24.176582,0
              -65.440999,-24.176198,0
              -65.441009,-24.17381,0
              -65.441221,-24.173238,0
              -65.441222,-24.172949,0
              -65.441434,-24.172376,0
              -65.442061,-24.171805,0
              -65.442166,-24.171517,0
              -65.442479,-24.171328,0
              -65.442794,-24.17123,0
              -65.443732,-24.171233,0
              -65.444044,-24.17114,0
              -65.444464,-24.170857,0
              -65.444777,-24.170763,0
              -65.445193,-24.170665,0
              -65.44582,-24.170668,0
              -65.445864,-24.170681,0
              -65.446487,-24.169988,0
              -65.447382,-24.169586,0
              -65.448426,-24.169517,0
              -65.449094,-24.170206,0
              -65.448793,-24.171094,0
              -65.448638,-24.172186,0
              -65.448336,-24.173074,0
              -65.448182,-24.173962,0
              -65.448169,-24.177213,0
              -65.448191,-24.177181,0
              -65.448295,-24.176897,0
              -65.448609,-24.176704,0
              -65.448819,-24.17642,0
              -65.449347,-24.174987,0
              -65.449348,-24.174698,0
              -65.44956,-24.174126,0
              -65.449664,-24.173742,0
              -65.449876,-24.17317,0
              -65.44988,-24.172213,0
              -65.449985,-24.171834,0
              -65.449986,-24.171545,0
              -65.450198,-24.170972,0
              -65.450303,-24.170589,0
              -65.45041,-24.170305,0
              -65.450724,-24.170017,0
              -65.450725,-24.169728,0
              -65.451038,-24.169445,0
              -65.451249,-24.169157,0
              -65.451562,-24.168969,0
              -65.451875,-24.168875,0
              -65.452188,-24.168682,0
              -65.452606,-24.168683,0
              -65.452918,-24.168779,0
              -65.45323,-24.168975,0
              -65.453332,-24.169259,0
              -65.453436,-24.169643,0
              -65.453538,-24.169933,0
              -65.453746,-24.170218,0
              -65.453953,-24.170796,0
              -65.453928,-24.176534,0
              -65.454031,-24.176823,0
              -65.454132,-24.177202,0
              -65.454131,-24.177586,0
              -65.454445,-24.177682,0
              -65.454758,-24.177683,0
              -65.455071,-24.177495,0
              -65.455281,-24.177207,0
              -65.455386,-24.176828,0
              -65.455491,-24.176539,0
              -65.455492,-24.17625,0
              -65.455599,-24.175966,0
              -65.455602,-24.175298,0
              -65.456022,-24.174149,0
              -65.456024,-24.173864,0
              -65.456234,-24.173576,0
              -65.456341,-24.173292,0
              -65.456342,-24.173003,0
              -65.456447,-24.172715,0
              -65.45676,-24.172526,0
              -65.456971,-24.172143,0
              -65.457597,-24.171762,0
              -65.457911,-24.171384,0
              -65.458225,-24.171096,0
              -65.45854,-24.171002,0
              -65.460208,-24.171008,0
              -65.460834,-24.170821,0
              -65.461147,-24.170628,0
              -65.461326,-24.170308,0
              -65.465102,-24.176095,0
              -65.465982,-24.177498,0
              -65.46573,-24.177587,0
              -65.465298,-24.177796,0
              -65.465022,-24.177935,0
              -65.464836,-24.178057,0
              -65.464682,-24.178188,0
              -65.463664,-24.179063,0
              -65.463407,-24.179313,0
              -65.46325,-24.17942,0
              -65.463129,-24.179495,0
              -65.462943,-24.179612,0
              -65.462723,-24.179785,0
              -65.462547,-24.179979,0
              -65.462327,-24.180149,0
              -65.461832,-24.180445,0
              -65.461464,-24.180685,0
              -65.461034,-24.180889,0
              -65.46071,-24.180992,0
              -65.460369,-24.18118,0
              -65.460124,-24.181346,0
              -65.459847,-24.181502,0
              -65.459586,-24.181603,0
              -65.459369,-24.181668,0
              -65.45905,-24.181722,0
              -65.458679,-24.181752,0
              -65.458316,-24.181763,0
              -65.458028,-24.181769,0
              -65.457796,-24.181781,0
              -65.456782,-24.181926,0
              -65.456513,-24.181944,0
              -65.456219,-24.181935,0
              -65.455952,-24.181926,0
              -65.455713,-24.181942,0
              -65.455482,-24.182001,0
              -65.455189,-24.18208,0
              -65.454792,-24.182213,0
              -65.454443,-24.182374,0
              -65.454204,-24.182536,0
              -65.45404,-24.182678,0
              -65.453962,-24.182789,0
              -65.453888,-24.182989,0
              -65.453853,-24.183285,0
              -65.453771,-24.18359,0
              -65.45444,-24.184714,0
              -65.45399,-24.18751,0
              -65.453861,-24.188413,0
              -65.453872,-24.188861,0
              -65.45,-24.188607,0
              -65.44835,-24.188749,0
              -65.445442,-24.189,0
              -65.441086,-24.189827,0
              -65.437972,-24.19007,0
              -65.436992,-24.190066,0
              -65.435682,-24.19006,0
              -65.43559,-24.190059,0
              -65.433921,-24.190048,0
              -65.433254,-24.189779,0
              -65.43279,-24.190154,0
              -65.432536,-24.190473,0
              -65.432383,-24.190879,0
              -65.432311,-24.191502,0
              -65.43386,-24.194363,0
              -65.434361,-24.195383,0
              -65.434923,-24.196527,0
              -65.43545,-24.1976,0
              -65.437545,-24.201868,0
              -65.437328,-24.201996,0
              -65.437038,-24.202075,0
              -65.436663,-24.202065,0
              -65.435397,-24.20185,0
              -65.434936,-24.201801,0
              -65.434721,-24.20184,0
              -65.433948,-24.202369,0
              -65.433809,-24.202408,0
              -65.433702,-24.20226,0
              -65.433734,-24.202036,0
              -65.433906,-24.201712,0
              -65.43397,-24.201585,0
              -65.433927,-24.201448,0
              -65.433648,-24.201194,0
              -65.432146,-24.199824,0
              -65.431438,-24.199169,0
              -65.430644,-24.198503,0
              -65.43044,-24.198415,0
              -65.430204,-24.198336,0
              -65.429925,-24.1982,0
              -65.42956,-24.197867,0
              -65.428938,-24.197114,0
              -65.428714,-24.196937,0
              -65.428509,-24.196752,0
              -65.428348,-24.196517,0
              -65.428133,-24.19637,0
              -65.426547,-24.195586,0
              -65.426341,-24.19546,0
              -65.426224,-24.195489,0
              -65.42617,-24.195567,0
              -65.426278,-24.195773,0
              -65.426593,-24.196206,0
              -65.426664,-24.196369,0
              -65.426669,-24.196536,0
              -65.426643,-24.196651,0
              -65.426652,-24.19679,0
              -65.426745,-24.196969,0
              -65.426754,-24.197113,0
              -65.42676,-24.197226,0
              -65.426642,-24.197407,0
              -65.426508,-24.197515,0
              -65.426148,-24.197617,0
              -65.425773,-24.197671,0
              -65.425252,-24.197735,0
              -65.424893,-24.197779,0
              -65.424635,-24.197808,0
              -65.424351,-24.197808,0
              -65.424067,-24.197789,0
              -65.423825,-24.197696,0
              -65.42367,-24.197666,0
              -65.423477,-24.197686,0
              -65.423287,-24.197652,0
              -65.422974,-24.197589,0
              -65.422659,-24.197592,0
              -65.422332,-24.197678,0
              -65.422053,-24.197793,0
              -65.421782,-24.198013,0
              -65.421331,-24.198209,0
              -65.420859,-24.198395,0
              -65.42044,-24.198483,0
              -65.420076,-24.198512,0
              -65.419775,-24.198532,0
              -65.419447,-24.198485,0
              -65.419135,-24.198377,0
              -65.418814,-24.198232,0
              -65.418525,-24.198152,0
              -65.418261,-24.198139,0
              -65.417892,-24.198097,0
              -65.417662,-24.198092,0
              -65.417339,-24.19812,0
              -65.416996,-24.198122,0
              -65.41676,-24.198092,0
              -65.416609,-24.19813,0
              -65.416471,-24.198083,0
              -65.416431,-24.198104,0
              -65.416384,-24.198134,0
              -65.416337,-24.198078,0
              -65.416274,-24.197909,0
              -65.416395,-24.197645,0
              -65.416379,-24.197552,0
              -65.415958,-24.197537,0
              -65.415793,-24.19776,0
              -65.415594,-24.197807,0
              -65.415509,-24.197752,0
              -65.415483,-24.197472,0
              -65.415355,-24.19732,0
              -65.415175,-24.197233,0
              -65.414867,-24.197166,0
              -65.414601,-24.197013,0
              -65.41453,-24.196746,0
              -65.414586,-24.196359,0
              -65.414482,-24.196193,0
              -65.414111,-24.196014,0
              -65.413805,-24.196002,0
              -65.413721,-24.195952,0
              -65.413723,-24.195567,0
              -65.413982,-24.19515,0
              -65.413832,-24.195028,0
              -65.413626,-24.195056,0
              -65.413076,-24.194622,0
              -65.41305,-24.194531,0
              -65.413106,-24.194349,0
              -65.413061,-24.194264,0
              -65.41288,-24.194181,0
              -65.412444,-24.19442,0
              -65.412372,-24.194358,0
              -65.41237,-24.194172,0
              -65.412245,-24.194019,0
              -65.412058,-24.194095,0
              -65.411962,-24.194062,0
              -65.411863,-24.193899,0
              -65.411702,-24.19379,0
              -65.411503,-24.193799,0
              -65.411218,-24.193912,0
              -65.411158,-24.193831,0
              -65.411165,-24.193352,0
              -65.411115,-24.193173,0
              -65.411043,-24.193105,0
              -65.410579,-24.192922,0
              -65.410314,-24.193067,0
              -65.410214,-24.193037,0
              -65.409979,-24.192846,0
              -65.409685,-24.192747,0
              -65.409595,-24.192584,0
              -65.409864,-24.192457,0
              -65.409982,-24.1922,0
              -65.410289,-24.192111,0
              -65.410253,-24.192024,0
              -65.409737,-24.192017,0
              -65.40966,-24.191949,0
              -65.409569,-24.191665,0
              -65.409321,-24.191353,0
              -65.409045,-24.191202,0
              -65.408633,-24.191162,0
              -65.408716,-24.190891,0
              -65.408517,-24.190657,0
              -65.408245,-24.190497,0
              -65.40814,-24.190319,0
              -65.408143,-24.190037,0
              -65.408273,-24.189886,0
              -65.408272,-24.189794,0
              -65.408182,-24.189748,0
              -65.408024,-24.18986,0
              -65.407717,-24.189888,0
              -65.407339,-24.189726,0
              -65.407331,-24.189636,0
              -65.407416,-24.189588,0
              -65.407429,-24.18949,0
              -65.407414,-24.189091,0
              -65.407133,-24.188699,0
              -65.407041,-24.18842,0
              -65.406942,-24.188412,0
              -65.406677,-24.188554,0
              -65.406465,-24.188551,0
              -65.406381,-24.1885,0
              -65.406362,-24.188405,0
              -65.406416,-24.188323,0
              -65.406493,-24.187741,0
              -65.406484,-24.187646,0
              -65.40639,-24.187604,0
              -65.406377,-24.187509,0
              -65.406278,-24.187478,0
              -65.406141,-24.187623,0
              -65.405849,-24.18771,0
              -65.405532,-24.187651,0
              -65.405497,-24.18756,0
              -65.40562,-24.187087,0
              -65.405602,-24.186992,0
              -65.405432,-24.186894,0
              -65.405227,-24.186915,0
              -65.405144,-24.186966,0
              -65.404849,-24.187254,0
              -65.404545,-24.187326,0
              -65.404438,-24.18731,0
              -65.404423,-24.187124,0
              -65.404591,-24.187006,0
              -65.404726,-24.186443,0
              -65.40484,-24.186299,0
              -65.40485,-24.186208,0
              -65.404761,-24.186169,0
              -65.404457,-24.186256,0
              -65.404254,-24.186256,0
              -65.404243,-24.186064,0
              -65.404285,-24.185977,0
              -65.40446,-24.185863,0
              -65.404463,-24.185676,0
              -65.404341,-24.185517,0
              -65.404268,-24.185456,0
              -65.404159,-24.185468,0
              -65.403576,-24.18569,0
              -65.402738,-24.185797,0
              -65.40265,-24.18575,0
              -65.402726,-24.185186,0
              -65.402887,-24.185074,0
              -65.402937,-24.184892,0
              -65.40281,-24.184736,0
              -65.402754,-24.184558,0
              -65.40265,-24.184585,0
              -65.402406,-24.184762,0
              -65.402198,-24.184759,0
              -65.402126,-24.184685,0
              -65.402115,-24.184594,0
              -65.40236,-24.184427,0
              -65.402392,-24.18424,0
              -65.402345,-24.184148,0
              -65.402154,-24.18408,0
              -65.402033,-24.183914,0
              -65.401923,-24.183749,0
              -65.401757,-24.183294,0
              -65.401377,-24.182963,0
              -65.401201,-24.182868,0
              -65.401101,-24.182863,0
              -65.401048,-24.18294,0
              -65.401097,-24.183126,0
              -65.400977,-24.183281,0
              -65.400763,-24.18323,0
              -65.400579,-24.18312,0
              -65.400347,-24.182929,0
              -65.400193,-24.182688,0
              -65.400008,-24.182591,0
              -65.399707,-24.182596,0
              -65.399556,-24.182707,0
              -65.399346,-24.18273,0
              -65.399249,-24.182708,0
              -65.399104,-24.182574,0
              -65.399007,-24.182541,0
              -65.39869,-24.182542,0
              -65.398638,-24.182456,0
              -65.39869,-24.182264,0
              -65.398569,-24.181904,0
              -65.398417,-24.18177,0
              -65.397882,-24.181454,0
              -65.397776,-24.180976,0
              -65.397666,-24.180815,0
              -65.397562,-24.180818,0
              -65.397308,-24.181006,0
              -65.397211,-24.181023,0
              -65.396813,-24.18092,0
              -65.396486,-24.18092,0
              -65.396314,-24.180815,0
              -65.396187,-24.180661,0
              -65.396176,-24.180559,0
              -65.396408,-24.180126,0
              -65.396412,-24.180032,0
              -65.396323,-24.179975,0
              -65.395705,-24.180019,0
              -65.395642,-24.179941,0
              -65.395643,-24.179751,0
              -65.395681,-24.179657,0
              -65.395767,-24.179614,0
              -65.395787,-24.179516,0
              -65.395636,-24.179405,0
              -65.395315,-24.17942,0
              -65.39516,-24.179296,0
              -65.395118,-24.179101,0
              -65.395303,-24.178866,0
              -65.395255,-24.178687,0
              -65.395171,-24.178639,0
              -65.394782,-24.178654,0
              -65.394539,-24.178483,0
              -65.394493,-24.178398,0
              -65.394629,-24.178137,0
              -65.394639,-24.177943,0
              -65.394549,-24.177766,0
              -65.394405,-24.177631,0
              -65.394001,-24.177521,0
              -65.393678,-24.177524,0
              -65.393371,-24.177603,0
              -65.393109,-24.177768,0
              -65.392915,-24.177711,0
              -65.39277,-24.177561,0
              -65.392504,-24.177118,0
              -65.392427,-24.176751,0
              -65.392226,-24.176717,0
              -65.392032,-24.1768,0
              -65.391826,-24.176824,0
              -65.391766,-24.176747,0
              -65.391785,-24.176558,0
              -65.391742,-24.176464,0
              -65.391546,-24.17638,0
              -65.391484,-24.176297,0
              -65.391409,-24.175998,0
              -65.391297,-24.175838,0
              -65.391052,-24.175657,0
              -65.391024,-24.175368,0
              -65.390943,-24.175308,0
              -65.390736,-24.175327,0
              -65.390357,-24.175501,0
              -65.389842,-24.175419,0
              -65.38975,-24.17538,0
              -65.389694,-24.175294,0
              -65.389738,-24.175105,0
              -65.389701,-24.175011,0
              -65.389471,-24.1748,0
              -65.389376,-24.174767,0
              -65.389268,-24.174798,0
              -65.38905,-24.174991,0
              -65.388838,-24.17498,0
              -65.388492,-24.174784,0
              -65.388388,-24.17451,0
              -65.388242,-24.174371,0
              -65.388139,-24.174357,0
              -65.387948,-24.174415,0
              -65.387795,-24.174533,0
              -65.387595,-24.174583,0
              -65.387437,-24.174685,0
              -65.387034,-24.174765,0
              -65.386819,-24.174751,0
              -65.38664,-24.174665,0
              -65.386481,-24.174409,0
              -65.386456,-24.174319,0
              -65.386569,-24.174163,0
              -65.386563,-24.174066,0
              -65.386326,-24.173869,0
              -65.385892,-24.173606,0
              -65.385296,-24.173696,0
              -65.3849,-24.173555,0
              -65.384799,-24.173557,0
              -65.384418,-24.173714,0
              -65.384111,-24.173725,0
              -65.383684,-24.173564,0
              -65.383366,-24.173324,0
              -65.383392,-24.17318,0
              -65.383162,-24.173034,0
              -65.382962,-24.172954,0
              -65.382719,-24.172774,0
              -65.38254,-24.172756,0
              -65.38231,-24.172649,0
              -65.382197,-24.172576,0
              -65.382006,-24.172537,0
              -65.381835,-24.172534,0
              -65.381321,-24.172549,0
              -65.38112,-24.172613,0
              -65.380793,-24.172676,0
              -65.38041,-24.172651,0
              -65.380319,-24.172605,0
              -65.380219,-24.172524,0
              -65.380119,-24.172467,0
              -65.37987,-24.172276,0
              -65.379573,-24.172018,0
              -65.379537,-24.171932,0
              -65.378885,-24.171602,0
              -65.378647,-24.171586,0
              -65.378139,-24.171692,0
              -65.37797,-24.17163,0
              -65.377637,-24.171448,0
              -65.377503,-24.171273,0
              -65.377332,-24.171126,0
              -65.377126,-24.170989,0
              -65.376999,-24.17092,0
              -65.376794,-24.170926,0
              -65.376579,-24.170963,0
              -65.376384,-24.171004,0
              -65.375865,-24.170994,0
              -65.375656,-24.17095,0
              -65.375463,-24.170957,0
              -65.375252,-24.17088,0
              -65.374803,-24.170852,0
              -65.374505,-24.17073,0
              -65.374128,-24.170876,0
              -65.373952,-24.1709,0
              -65.373864,-24.170947,0
              -65.373778,-24.170993,0
              -65.373308,-24.171142,0
              -65.372759,-24.1712,0
              -65.372499,-24.171377,0
              -65.372109,-24.171582,0
              -65.372021,-24.171665,0
              -65.371951,-24.171761,0
              -65.371834,-24.171866,0
              -65.371625,-24.171938,0
              -65.371268,-24.172078,0
              -65.370795,-24.172202,0
              -65.370523,-24.172227,0
              -65.370371,-24.172227,0
              -65.37027,-24.172191,0
              -65.370111,-24.172191,0
              -65.370044,-24.172176,0
              -65.369508,-24.17216,0
              -65.369152,-24.172148,0
              -65.368977,-24.172048,0
              -65.368556,-24.172054,0
              -65.368214,-24.171944,0
              -65.367841,-24.171999,0
              -65.367613,-24.172067,0
              -65.367201,-24.172074,0
              -65.366986,-24.172221,0
              -65.366568,-24.172177,0
              -65.366181,-24.172081,0
              -65.365972,-24.172073,0
              -65.365747,-24.171952,0
              -65.365594,-24.171948,0
              -65.365365,-24.171875,0
              -65.365056,-24.171876,0
              -65.364811,-24.171817,0
              -65.364539,-24.171426,0
              -65.364356,-24.171288,0
              -65.364182,-24.171197,0
              -65.363888,-24.171144,0
              -65.363724,-24.171036,0
              -65.363506,-24.170889,0
              -65.363437,-24.17072,0
              -65.363392,-24.170576,0
              -65.363354,-24.170415,0
              -65.363332,-24.170256,0
              -65.36323,-24.170086,0
              -65.363047,-24.169902,0
              -65.362759,-24.169752,0
              -65.36248,-24.16965,0
              -65.362267,-24.169587,0
              -65.362042,-24.1697,0
              -65.361846,-24.169716,0
              -65.361723,-24.169672,0
              -65.361626,-24.169549,0
              -65.361474,-24.169358,0
              -65.361457,-24.169324,0
              -65.361351,-24.169102,0
              -65.361113,-24.168956,0
              -65.360772,-24.168823,0
              -65.360562,-24.16876,0
              -65.360449,-24.168516,0
              -65.360325,-24.168356,0
              -65.359974,-24.168171,0
              -65.359699,-24.168041,0
              -65.359059,-24.167784,0
              -65.358856,-24.167696,0
              -65.35869,-24.167617,0
              -65.358321,-24.167452,0
              -65.358227,-24.167427,0
              -65.358142,-24.167412,0
              -65.357981,-24.167326,0
              -65.357781,-24.167171,0
              -65.356664,-24.166572,0
              -65.357679,-24.165976,0
              -65.357886,-24.165854,0
              -65.359377,-24.164447,0
              -65.360212,-24.163722,0
              -65.361296,-24.163351,0
              -65.362445,-24.163174,0
              -65.362732,-24.16302,0
              -65.366202,-24.161109,0
              -65.366966,-24.160517,0
              -65.368425,-24.159769,0
              -65.369685,-24.15851,0
              -65.370875,-24.157339,0
              -65.37138,-24.156805,0
              -65.372151,-24.156286,0
              -65.372953,-24.155573,0
              -65.373952,-24.156954,0
              -65.375364,-24.1582,0
            </coordinates>
          </LinearRing>
        </outerBoundaryIs>
      </Polygon>
    </Placemark>
  </Document>
</kml>
