<?xml version="1.0" encoding="UTF-8"?>
<kml xmlns="http://www.opengis.net/kml/2.2">
  <Document>
    <name>Cria 2°</name>
    <Style id="poly-000000-1200-77-normal">
      <LineStyle>
        <color>ff000000</color>
        <width>1.2</width>
      </LineStyle>
      <PolyStyle>
        <color>4d000000</color>
        <fill>1</fill>
        <outline>1</outline>
      </PolyStyle>
    </Style>
    <Style id="poly-000000-1200-77-highlight">
      <LineStyle>
        <color>ff000000</color>
        <width>1.8</width>
      </LineStyle>
      <PolyStyle>
        <color>4d000000</color>
        <fill>1</fill>
        <outline>1</outline>
      </PolyStyle>
    </Style>
    <StyleMap id="poly-000000-1200-77">
      <Pair>
        <key>normal</key>
        <styleUrl>#poly-000000-1200-77-normal</styleUrl>
      </Pair>
      <Pair>
        <key>highlight</key>
        <styleUrl>#poly-000000-1200-77-highlight</styleUrl>
      </Pair>
    </StyleMap>
    <Placemark>
      <name>Cria 2°</name>
      <description><![CDATA[Descripción: <br>nombre: Cerro Chañi<br>osm_id: 154329086<br>Georeferen: 2]]></description>
      <styleUrl>#poly-000000-1200-77</styleUrl>
      <ExtendedData>
        <Data name="Descripción">
          <value/>
        </Data>
        <Data name="nombre">
          <value>Cerro Chañi</value>
        </Data>
        <Data name="osm_id">
          <value>154329086</value>
        </Data>
        <Data name="Georeferen">
          <value>2</value>
        </Data>
      </ExtendedData>
      <Polygon>
        <outerBoundaryIs>
          <LinearRing>
            <tessellate>1</tessellate>
            <coordinates>
              -65.298413,-24.201178,0
              -65.298002,-24.201596,0
              -65.297824,-24.201785,0
              -65.297792,-24.201711,0
              -65.297758,-24.20162,0
              -65.297585,-24.201117,0
              -65.297429,-24.200666,0
              -65.297415,-24.200627,0
              -65.29643,-24.200923,0
              -65.296109,-24.200046,0
              -65.295957,-24.200061,0
              -65.295777,-24.200016,0
              -65.29569,-24.199976,0
              -65.295639,-24.199903,0
              -65.29552,-24.199817,0
              -65.295466,-24.199797,0
              -65.295088,-24.199893,0
              -65.29489,-24.199375,0
              -65.294116,-24.199616,0
              -65.294072,-24.199618,0
              -65.294017,-24.199602,0
              -65.293975,-24.199576,0
              -65.293949,-24.199537,0
              -65.293918,-24.19947,0
              -65.293029,-24.199742,0
              -65.292087,-24.200005,0
              -65.291201,-24.200264,0
              -65.290338,-24.200559,0
              -65.289571,-24.200783,0
              -65.289207,-24.199792,0
              -65.288522,-24.199582,0
              -65.288748,-24.199278,0
              -65.289094,-24.198814,0
              -65.289803,-24.197861,0
              -65.29034,-24.197141,0
              -65.290403,-24.197057,0
              -65.29064,-24.196729,0
              -65.290865,-24.196418,0
              -65.291193,-24.195964,0
              -65.291982,-24.195,0
              -65.29203,-24.194932,0
              -65.292408,-24.194403,0
              -65.292519,-24.194179,0
              -65.292703,-24.193811,0
              -65.292745,-24.193698,0
              -65.292837,-24.193451,0
              -65.292868,-24.193315,0
              -65.292966,-24.192888,0
              -65.292981,-24.192748,0
              -65.293003,-24.192541,0
              -65.293006,-24.192266,0
              -65.293003,-24.192147,0
              -65.292995,-24.192037,0
              -65.292979,-24.191834,0
              -65.292944,-24.191599,0
              -65.292856,-24.191158,0
              -65.292786,-24.190878,0
              -65.292565,-24.190313,0
              -65.292596,-24.190318,0
              -65.292669,-24.190311,0
              -65.292716,-24.190295,0
              -65.292766,-24.190283,0
              -65.292788,-24.190274,0
              -65.292813,-24.19027,0
              -65.293018,-24.190304,0
              -65.293263,-24.190288,0
              -65.293395,-24.190246,0
              -65.293556,-24.19023,0
              -65.293642,-24.190134,0
              -65.293738,-24.190125,0
              -65.293839,-24.190113,0
              -65.293926,-24.190031,0
              -65.29413,-24.18998,0
              -65.294248,-24.189967,0
              -65.294384,-24.189923,0
              -65.294478,-24.189877,0
              -65.29467,-24.189907,0
              -65.294837,-24.189875,0
              -65.29491,-24.189829,0
              -65.295061,-24.189806,0
              -65.295277,-24.189746,0
              -65.29536,-24.189675,0
              -65.295732,-24.189559,0
              -65.295924,-24.189487,0
              -65.296277,-24.189355,0
              -65.296357,-24.189371,0
              -65.296526,-24.189389,0
              -65.29668,-24.189406,0
              -65.296811,-24.189388,0
              -65.296915,-24.189352,0
              -65.297038,-24.189348,0
              -65.297148,-24.189366,0
              -65.297272,-24.189339,0
              -65.297369,-24.189369,0
              -65.297516,-24.189401,0
              -65.29771,-24.189425,0
              -65.29783,-24.189441,0
              -65.297997,-24.189426,0
              -65.298301,-24.1895,0
              -65.298404,-24.189514,0
              -65.298589,-24.189498,0
              -65.298862,-24.189464,0
              -65.298959,-24.189463,0
              -65.299056,-24.189504,0
              -65.299138,-24.189486,0
              -65.299295,-24.189483,0
              -65.299398,-24.189512,0
              -65.299524,-24.189501,0
              -65.299607,-24.189521,0
              -65.29988,-24.189594,0
              -65.300136,-24.189581,0
              -65.300285,-24.189499,0
              -65.300489,-24.189451,0
              -65.300775,-24.189425,0
              -65.300989,-24.189426,0
              -65.301175,-24.189416,0
              -65.301436,-24.189473,0
              -65.301629,-24.189437,0
              -65.301795,-24.189491,0
              -65.301966,-24.189482,0
              -65.302262,-24.189501,0
              -65.302582,-24.189487,0
              -65.302611,-24.189486,0
              -65.302587,-24.189908,0
              -65.302571,-24.190089,0
              -65.302545,-24.19035,0
              -65.302532,-24.190496,0
              -65.302488,-24.191002,0
              -65.302437,-24.191847,0
              -65.302365,-24.192707,0
              -65.302356,-24.192954,0
              -65.302355,-24.193116,0
              -65.302342,-24.193395,0
              -65.302334,-24.193397,0
              -65.301383,-24.193953,0
              -65.300353,-24.194536,0
              -65.29972,-24.194943,0
              -65.299776,-24.1952,0
              -65.299858,-24.195611,0
              -65.299918,-24.195904,0
              -65.299945,-24.196042,0
              -65.299987,-24.196248,0
              -65.300033,-24.196484,0
              -65.30004,-24.196524,0
              -65.30015,-24.197028,0
              -65.300179,-24.197159,0
              -65.30029,-24.197743,0
              -65.300308,-24.197831,0
              -65.300452,-24.19842,0
              -65.300595,-24.19897,0
              -65.300586,-24.199033,0
              -65.300504,-24.199095,0
              -65.300432,-24.19916,0
              -65.300015,-24.199557,0
              -65.299983,-24.199587,0
              -65.29957,-24.200008,0
              -65.299522,-24.200055,0
              -65.299154,-24.200431,0
              -65.299094,-24.200492,0
              -65.298987,-24.200597,0
              -65.298552,-24.201032,0
              -65.298413,-24.201178,0
            </coordinates>
          </LinearRing>
        </outerBoundaryIs>
      </Polygon>
    </Placemark>
  </Document>
</kml>
