<?xml version="1.0" encoding="UTF-8"?>
<kml xmlns="http://www.opengis.net/kml/2.2">
  <Document>
    <name>Cria 4°</name>
    <Style id="poly-000000-1200-77-normal">
      <LineStyle>
        <color>ff000000</color>
        <width>1.2</width>
      </LineStyle>
      <PolyStyle>
        <color>4d000000</color>
        <fill>1</fill>
        <outline>1</outline>
      </PolyStyle>
    </Style>
    <Style id="poly-000000-1200-77-highlight">
      <LineStyle>
        <color>ff000000</color>
        <width>1.8</width>
      </LineStyle>
      <PolyStyle>
        <color>4d000000</color>
        <fill>1</fill>
        <outline>1</outline>
      </PolyStyle>
    </Style>
    <StyleMap id="poly-000000-1200-77">
      <Pair>
        <key>normal</key>
        <styleUrl>#poly-000000-1200-77-normal</styleUrl>
      </Pair>
      <Pair>
        <key>highlight</key>
        <styleUrl>#poly-000000-1200-77-highlight</styleUrl>
      </Pair>
    </StyleMap>
    <Placemark>
      <name>Cria 4°</name>
      <description><![CDATA[Descripción: <br>nombre: Puente Lavalle<br>osm_id: 122204342<br>Georeferen: 4]]></description>
      <styleUrl>#poly-000000-1200-77</styleUrl>
      <ExtendedData>
        <Data name="Descripción">
          <value/>
        </Data>
        <Data name="nombre">
          <value>Puente Lavalle</value>
        </Data>
        <Data name="osm_id">
          <value>122204342</value>
        </Data>
        <Data name="Georeferen">
          <value>4</value>
        </Data>
      </ExtendedData>
      <Polygon>
        <outerBoundaryIs>
          <LinearRing>
            <tessellate>1</tessellate>
            <coordinates>
              -65.333243,-24.258519,0
              -65.333243,-24.258517,0
              -65.333034,-24.258515,0
              -65.331879,-24.258585,0
              -65.330966,-24.258702,0
              -65.328378,-24.258544,0
              -65.327707,-24.258434,0
              -65.327869,-24.258376,0
              -65.327928,-24.258294,0
              -65.327847,-24.258123,0
              -65.327838,-24.258028,0
              -65.32794,-24.258019,0
              -65.32783,-24.25746,0
              -65.328028,-24.25741,0
              -65.328012,-24.257218,0
              -65.32816,-24.257085,0
              -65.328348,-24.257008,0
              -65.328448,-24.256856,0
              -65.328327,-24.2566,0
              -65.328188,-24.256464,0
              -65.328181,-24.256373,0
              -65.328282,-24.256354,0
              -65.328295,-24.256173,0
              -65.32803,-24.256031,0
              -65.328005,-24.255936,0
              -65.328154,-24.255812,0
              -65.328185,-24.255722,0
              -65.328375,-24.255658,0
              -65.328435,-24.255583,0
              -65.32838,-24.255401,0
              -65.328254,-24.255249,0
              -65.328256,-24.255054,0
              -65.32849,-24.254298,0
              -65.328214,-24.254006,0
              -65.328194,-24.25372,0
              -65.328029,-24.253612,0
              -65.328018,-24.253521,0
              -65.328123,-24.253498,0
              -65.328178,-24.253423,0
              -65.32795,-24.253113,0
              -65.328024,-24.252934,0
              -65.328182,-24.252892,0
              -65.32847,-24.253,0
              -65.328554,-24.252945,0
              -65.328742,-24.252697,0
              -65.328632,-24.252535,0
              -65.328576,-24.252353,0
              -65.328625,-24.252272,0
              -65.328727,-24.252232,0
              -65.328942,-24.252226,0
              -65.328974,-24.252136,0
              -65.328762,-24.251806,0
              -65.328314,-24.251576,0
              -65.328053,-24.251269,0
              -65.327958,-24.250763,0
              -65.327951,-24.250382,0
              -65.327775,-24.249746,0
              -65.327823,-24.249472,0
              -65.327934,-24.249267,0
              -65.327965,-24.248973,0
              -65.327863,-24.248611,0
              -65.328215,-24.247985,0
              -65.328392,-24.247884,0
              -65.32843,-24.247783,0
              -65.328242,-24.247536,0
              -65.328181,-24.247348,0
              -65.32823,-24.247263,0
              -65.328638,-24.247129,0
              -65.328707,-24.247057,0
              -65.328765,-24.24677,0
              -65.328736,-24.24648,0
              -65.328929,-24.246423,0
              -65.329089,-24.246306,0
              -65.329098,-24.246111,0
              -65.328985,-24.245842,0
              -65.329071,-24.24535,0
              -65.328776,-24.245073,0
              -65.328708,-24.24489,0
              -65.32929,-24.244204,0
              -65.329379,-24.244147,0
              -65.329592,-24.244137,0
              -65.329678,-24.244082,0
              -65.329694,-24.243796,0
              -65.329544,-24.243403,0
              -65.329724,-24.243317,0
              -65.329777,-24.243134,0
              -65.329936,-24.242888,0
              -65.330038,-24.242872,0
              -65.33023,-24.242651,0
              -65.330362,-24.242389,0
              -65.330342,-24.241555,0
              -65.330283,-24.241278,0
              -65.327522,-24.241368,0
              -65.327603,-24.241197,0
              -65.32765,-24.241109,0
              -65.32768,-24.241018,0
              -65.327728,-24.240929,0
              -65.327805,-24.240858,0
              -65.327869,-24.240782,0
              -65.327961,-24.240618,0
              -65.327987,-24.240527,0
              -65.32803,-24.240436,0
              -65.328106,-24.240151,0
              -65.328185,-24.240091,0
              -65.328308,-24.239938,0
              -65.328347,-24.23985,0
              -65.328445,-24.239678,0
              -65.328707,-24.238677,0
              -65.329082,-24.236857,0
              -65.329415,-24.235087,0
              -65.329718,-24.23329,0
              -65.3297,-24.23324,0
              -65.333075,-24.228122,0
              -65.334299,-24.226267,0
              -65.334332,-24.226166,0
              -65.334327,-24.225973,0
              -65.334335,-24.225878,0
              -65.334394,-24.225693,0
              -65.334399,-24.225594,0
              -65.334389,-24.225394,0
              -65.334312,-24.225324,0
              -65.334211,-24.22528,0
              -65.334111,-24.225246,0
              -65.334032,-24.225191,0
              -65.333982,-24.225008,0
              -65.333927,-24.224834,0
              -65.333885,-24.224744,0
              -65.333758,-24.224589,0
              -65.333726,-24.224496,0
              -65.333684,-24.224411,0
              -65.333626,-24.224336,0
              -65.333536,-24.224282,0
              -65.333434,-24.224249,0
              -65.333334,-24.224242,0
              -65.333252,-24.22418,0
              -65.333076,-24.224076,0
              -65.333,-24.224016,0
              -65.332899,-24.224007,0
              -65.332805,-24.223957,0
              -65.332757,-24.223872,0
              -65.332656,-24.223816,0
              -65.332559,-24.223796,0
              -65.33246,-24.223795,0
              -65.332057,-24.223731,0
              -65.331949,-24.223732,0
              -65.331855,-24.223763,0
              -65.33175,-24.223786,0
              -65.33166,-24.22374,0
              -65.331603,-24.223663,0
              -65.331518,-24.223614,0
              -65.331418,-24.223595,0
              -65.331315,-24.223597,0
              -65.331208,-24.223583,0
              -65.331112,-24.223532,0
              -65.331036,-24.223468,0
              -65.3309,-24.223309,0
              -65.330843,-24.223227,0
              -65.33077,-24.223146,0
              -65.330681,-24.223083,0
              -65.330499,-24.223,0
              -65.330407,-24.222964,0
              -65.330196,-24.222922,0
              -65.330102,-24.222883,0
              -65.329924,-24.222781,0
              -65.329716,-24.222563,0
              -65.329641,-24.222501,0
              -65.329548,-24.222447,0
              -65.329463,-24.222383,0
              -65.329394,-24.222317,0
              -65.329231,-24.22219,0
              -65.329085,-24.222043,0
              -65.328634,-24.22164,0
              -65.328572,-24.221558,0
              -65.328498,-24.221386,0
              -65.328489,-24.221294,0
              -65.328454,-24.221201,0
              -65.328353,-24.221032,0
              -65.328346,-24.220941,0
              -65.328365,-24.220844,0
              -65.32837,-24.220749,0
              -65.328404,-24.220554,0
              -65.328383,-24.220459,0
              -65.32832,-24.22039,0
              -65.328226,-24.22035,0
              -65.328018,-24.220298,0
              -65.327802,-24.220238,0
              -65.327698,-24.220235,0
              -65.327478,-24.220252,0
              -65.327036,-24.220253,0
              -65.326917,-24.220237,0
              -65.326821,-24.220209,0
              -65.326724,-24.220165,0
              -65.326617,-24.220126,0
              -65.326511,-24.220101,0
              -65.326405,-24.220095,0
              -65.326301,-24.220105,0
              -65.326205,-24.22015,0
              -65.326121,-24.220211,0
              -65.326021,-24.220246,0
              -65.325919,-24.220244,0
              -65.32581,-24.220225,0
              -65.325612,-24.220179,0
              -65.325514,-24.220197,0
              -65.32542,-24.22024,0
              -65.325324,-24.220204,0
              -65.325238,-24.220149,0
              -65.325169,-24.220074,0
              -65.325114,-24.219993,0
              -65.325024,-24.21994,0
              -65.324913,-24.219936,0
              -65.324814,-24.219981,0
              -65.324731,-24.220042,0
              -65.324621,-24.220031,0
              -65.324526,-24.219998,0
              -65.324312,-24.219899,0
              -65.324213,-24.219862,0
              -65.324005,-24.219808,0
              -65.323908,-24.21979,0
              -65.32369,-24.219791,0
              -65.323578,-24.219787,0
              -65.323251,-24.219789,0
              -65.323143,-24.219783,0
              -65.323041,-24.219751,0
              -65.322869,-24.219659,0
              -65.322769,-24.219621,0
              -65.322461,-24.219544,0
              -65.322268,-24.219458,0
              -65.322079,-24.219356,0
              -65.321987,-24.219317,0
              -65.321444,-24.219075,0
              -65.318082,-24.219227,0
              -65.317116,-24.217273,0
              -65.316427,-24.214862,0
              -65.316255,-24.211992,0
              -65.315279,-24.209581,0
              -65.314318,-24.207959,0
              -65.314677,-24.20572,0
              -65.314533,-24.205289,0
              -65.313844,-24.204328,0
              -65.313342,-24.202964,0
              -65.312883,-24.200955,0
              -65.312593,-24.199761,0
              -65.312384,-24.199868,0
              -65.312109,-24.200002,0
              -65.31184,-24.200131,0
              -65.31161,-24.200245,0
              -65.311374,-24.20036,0
              -65.31114,-24.200479,0
              -65.311062,-24.200521,0
              -65.311006,-24.20055,0
              -65.310933,-24.200587,0
              -65.310856,-24.200626,0
              -65.310713,-24.200691,0
              -65.310641,-24.200722,0
              -65.310551,-24.200764,0
              -65.310488,-24.200791,0
              -65.310408,-24.200829,0
              -65.310286,-24.200875,0
              -65.310227,-24.200771,0
              -65.310101,-24.200591,0
              -65.309982,-24.200417,0
              -65.310103,-24.200211,0
              -65.310188,-24.200126,0
              -65.3099,-24.199455,0
              -65.309934,-24.199392,0
              -65.309923,-24.199257,0
              -65.309826,-24.198857,0
              -65.309699,-24.198252,0
              -65.309662,-24.19811,0
              -65.309577,-24.197735,0
              -65.309462,-24.197256,0
              -65.309387,-24.196844,0
              -65.309336,-24.196659,0
              -65.309229,-24.196151,0
              -65.309071,-24.195451,0
              -65.308982,-24.195086,0
              -65.308841,-24.194366,0
              -65.308755,-24.194044,0
              -65.308583,-24.193507,0
              -65.308542,-24.193144,0
              -65.308402,-24.192834,0
              -65.308336,-24.192557,0
              -65.30834,-24.192474,0
              -65.308321,-24.192384,0
              -65.308254,-24.192083,0
              -65.308122,-24.191613,0
              -65.306838,-24.191836,0
              -65.306368,-24.191901,0
              -65.305814,-24.192014,0
              -65.304802,-24.192297,0
              -65.303845,-24.192588,0
              -65.303062,-24.192993,0
              -65.30261,-24.193216,0
              -65.302342,-24.193392,0
              -65.302355,-24.193116,0
              -65.302356,-24.192954,0
              -65.302365,-24.192707,0
              -65.302437,-24.191847,0
              -65.302488,-24.191002,0
              -65.302532,-24.190496,0
              -65.302545,-24.19035,0
              -65.302571,-24.190089,0
              -65.302587,-24.189908,0
              -65.302611,-24.189486,0
              -65.302783,-24.189478,0
              -65.303056,-24.189535,0
              -65.303214,-24.189497,0
              -65.30339,-24.189484,0
              -65.303527,-24.189448,0
              -65.303695,-24.189436,0
              -65.304039,-24.189416,0
              -65.304381,-24.189444,0
              -65.304669,-24.189373,0
              -65.304882,-24.189378,0
              -65.305245,-24.189306,0
              -65.305604,-24.189319,0
              -65.305868,-24.189376,0
              -65.306062,-24.189388,0
              -65.306301,-24.189434,0
              -65.306637,-24.189466,0
              -65.306954,-24.189446,0
              -65.307285,-24.189459,0
              -65.307655,-24.189378,0
              -65.308024,-24.189335,0
              -65.30833,-24.189432,0
              -65.308782,-24.189583,0
              -65.309393,-24.189769,0
              -65.309686,-24.189873,0
              -65.309895,-24.189875,0
              -65.310356,-24.18979,0
              -65.31046,-24.189808,0
              -65.310587,-24.18983,0
              -65.310703,-24.189833,0
              -65.310751,-24.18985,0
              -65.310802,-24.189858,0
              -65.310867,-24.189854,0
              -65.310942,-24.189858,0
              -65.311014,-24.189882,0
              -65.311113,-24.189946,0
              -65.311144,-24.189959,0
              -65.311188,-24.189962,0
              -65.311296,-24.189958,0
              -65.311402,-24.189957,0
              -65.311529,-24.189973,0
              -65.311648,-24.190004,0
              -65.31176,-24.190008,0
              -65.311864,-24.189983,0
              -65.311993,-24.189995,0
              -65.31207,-24.190003,0
              -65.312127,-24.19,0
              -65.312165,-24.189986,0
              -65.31221,-24.189974,0
              -65.312261,-24.189968,0
              -65.312321,-24.18997,0
              -65.312376,-24.189984,0
              -65.312406,-24.189988,0
              -65.312434,-24.189979,0
              -65.312485,-24.189971,0
              -65.312541,-24.189967,0
              -65.312593,-24.189967,0
              -65.312665,-24.189974,0
              -65.312721,-24.189986,0
              -65.312768,-24.19,0
              -65.312863,-24.189987,0
              -65.312926,-24.189982,0
              -65.312982,-24.189992,0
              -65.313061,-24.190006,0
              -65.313083,-24.190019,0
              -65.313115,-24.190033,0
              -65.313166,-24.190044,0
              -65.313227,-24.190043,0
              -65.313264,-24.190034,0
              -65.313305,-24.190027,0
              -65.313377,-24.190023,0
              -65.313457,-24.190035,0
              -65.313502,-24.19005,0
              -65.313543,-24.190069,0
              -65.313635,-24.190073,0
              -65.313778,-24.190051,0
              -65.313894,-24.190038,0
              -65.313993,-24.190032,0
              -65.314175,-24.190042,0
              -65.314228,-24.190067,0
              -65.314323,-24.190063,0
              -65.314377,-24.190048,0
              -65.314421,-24.190048,0
              -65.314472,-24.190064,0
              -65.314518,-24.190096,0
              -65.314562,-24.190133,0
              -65.314648,-24.190152,0
              -65.314732,-24.190162,0
              -65.314778,-24.190154,0
              -65.314851,-24.190154,0
              -65.314923,-24.190175,0
              -65.314987,-24.190167,0
              -65.315071,-24.190178,0
              -65.315131,-24.1902,0
              -65.315223,-24.190237,0
              -65.315263,-24.190244,0
              -65.315309,-24.190249,0
              -65.315403,-24.190249,0
              -65.315478,-24.190301,0
              -65.315512,-24.190319,0
              -65.315553,-24.190329,0
              -65.315598,-24.190336,0
              -65.315641,-24.190342,0
              -65.31569,-24.190375,0
              -65.315727,-24.190413,0
              -65.315763,-24.190428,0
              -65.315804,-24.190437,0
              -65.315851,-24.190442,0
              -65.315953,-24.190458,0
              -65.316019,-24.190472,0
              -65.316079,-24.190506,0
              -65.316143,-24.190549,0
              -65.316232,-24.190577,0
              -65.316338,-24.190613,0
              -65.316445,-24.19063,0
              -65.316533,-24.190637,0
              -65.316655,-24.190656,0
              -65.316752,-24.190686,0
              -65.316805,-24.190706,0
              -65.31683,-24.190738,0
              -65.316872,-24.190749,0
              -65.316942,-24.190746,0
              -65.316983,-24.190746,0
              -65.317023,-24.190752,0
              -65.317056,-24.190762,0
              -65.317087,-24.190776,0
              -65.317157,-24.190821,0
              -65.317233,-24.190837,0
              -65.317277,-24.190842,0
              -65.317325,-24.190835,0
              -65.317355,-24.190827,0
              -65.317392,-24.190828,0
              -65.317426,-24.190832,0
              -65.317466,-24.190837,0
              -65.317506,-24.190849,0
              -65.317544,-24.190863,0
              -65.317582,-24.190897,0
              -65.317634,-24.190914,0
              -65.317684,-24.190919,0
              -65.317732,-24.190913,0
              -65.3178,-24.190916,0
              -65.317828,-24.190921,0
              -65.317863,-24.19093,0
              -65.31792,-24.190949,0
              -65.317963,-24.19097,0
              -65.31801,-24.190998,0
              -65.31805,-24.191029,0
              -65.318114,-24.191045,0
              -65.318177,-24.191042,0
              -65.318222,-24.191044,0
              -65.318297,-24.191043,0
              -65.318359,-24.191068,0
              -65.318399,-24.1911,0
              -65.31842,-24.191127,0
              -65.318443,-24.191145,0
              -65.318476,-24.191154,0
              -65.318512,-24.19115,0
              -65.318538,-24.191144,0
              -65.318566,-24.191134,0
              -65.318594,-24.191135,0
              -65.31862,-24.191147,0
              -65.318631,-24.191156,0
              -65.318643,-24.191173,0
              -65.318645,-24.191178,0
              -65.318648,-24.191195,0
              -65.318664,-24.191218,0
              -65.318697,-24.191225,0
              -65.318716,-24.191218,0
              -65.318733,-24.191202,0
              -65.318758,-24.191196,0
              -65.318782,-24.191202,0
              -65.318821,-24.191216,0
              -65.318847,-24.191236,0
              -65.318889,-24.191246,0
              -65.318933,-24.191245,0
              -65.318983,-24.191267,0
              -65.31902,-24.191291,0
              -65.319142,-24.191315,0
              -65.319184,-24.191322,0
              -65.31923,-24.191319,0
              -65.319296,-24.191308,0
              -65.319362,-24.191308,0
              -65.319437,-24.19132,0
              -65.319511,-24.191347,0
              -65.319574,-24.191379,0
              -65.320144,-24.191544,0
              -65.320545,-24.191557,0
              -65.320849,-24.19151,0
              -65.321371,-24.191429,0
              -65.322311,-24.191553,0
              -65.323016,-24.191622,0
              -65.323373,-24.191786,0
              -65.323818,-24.191748,0
              -65.324895,-24.191251,0
              -65.325894,-24.191493,0
              -65.326619,-24.192009,0
              -65.327377,-24.192186,0
              -65.328376,-24.192524,0
              -65.328972,-24.193362,0
              -65.330801,-24.194367,0
              -65.330366,-24.195125,0
              -65.330594,-24.195134,0
              -65.331485,-24.195229,0
              -65.332199,-24.195455,0
              -65.332723,-24.195719,0
              -65.333223,-24.19618,0
              -65.333627,-24.19668,0
              -65.333912,-24.197188,0
              -65.334191,-24.197955,0
              -65.334747,-24.199844,0
              -65.335401,-24.201278,0
              -65.336596,-24.203096,0
              -65.336863,-24.203359,0
              -65.337324,-24.203663,0
              -65.338429,-24.203974,0
              -65.34013,-24.204322,0
              -65.341716,-24.20472,0
              -65.342156,-24.204909,0
              -65.342546,-24.20514,0
              -65.34296,-24.205635,0
              -65.343704,-24.206762,0
              -65.34486,-24.208166,0
              -65.346328,-24.20935,0
              -65.347369,-24.209947,0
              -65.348696,-24.210417,0
              -65.349446,-24.209665,0
              -65.34977,-24.209317,0
              -65.349963,-24.209151,0
              -65.350186,-24.209329,0
              -65.350559,-24.209663,0
              -65.350714,-24.209747,0
              -65.351021,-24.209849,0
              -65.351401,-24.209933,0
              -65.351637,-24.209982,0
              -65.351733,-24.210021,0
              -65.351873,-24.210109,0
              -65.352233,-24.210309,0
              -65.353252,-24.210729,0
              -65.353383,-24.210816,0
              -65.353432,-24.21091,0
              -65.353472,-24.211008,0
              -65.354143,-24.211116,0
              -65.354803,-24.211342,0
              -65.355045,-24.211568,0
              -65.355335,-24.211552,0
              -65.356046,-24.211688,0
              -65.356207,-24.211693,0
              -65.356358,-24.211705,0
              -65.35646,-24.211724,0
              -65.356537,-24.211768,0
              -65.356815,-24.211956,0
              -65.357014,-24.212121,0
              -65.357083,-24.212223,0
              -65.357166,-24.212362,0
              -65.357366,-24.212565,0
              -65.357583,-24.212784,0
              -65.357703,-24.212903,0
              -65.357861,-24.213016,0
              -65.358019,-24.213103,0
              -65.358202,-24.213178,0
              -65.358381,-24.213267,0
              -65.358502,-24.213354,0
              -65.358694,-24.213474,0
              -65.358859,-24.213634,0
              -65.359025,-24.213804,0
              -65.359197,-24.213969,0
              -65.359542,-24.214304,0
              -65.35972,-24.214463,0
              -65.359882,-24.2146,0
              -65.360085,-24.214774,0
              -65.360251,-24.214991,0
              -65.360383,-24.215131,0
              -65.360503,-24.215217,0
              -65.36063,-24.215295,0
              -65.36072,-24.215363,0
              -65.360807,-24.215498,0
              -65.360861,-24.215639,0
              -65.360916,-24.215783,0
              -65.360987,-24.215914,0
              -65.361123,-24.216174,0
              -65.361187,-24.21633,0
              -65.361253,-24.216468,0
              -65.361344,-24.216602,0
              -65.361433,-24.216725,0
              -65.361535,-24.216858,0
              -65.361694,-24.217002,0
              -65.361931,-24.217173,0
              -65.362173,-24.217366,0
              -65.362296,-24.217483,0
              -65.362424,-24.217593,0
              -65.362535,-24.217693,0
              -65.362631,-24.217811,0
              -65.362797,-24.218027,0
              -65.363114,-24.218474,0
              -65.363222,-24.219138,0
              -65.363256,-24.219411,0
              -65.363316,-24.219625,0
              -65.363334,-24.219961,0
              -65.363379,-24.220398,0
              -65.363497,-24.220623,0
              -65.363722,-24.220956,0
              -65.363883,-24.221132,0
              -65.364012,-24.221376,0
              -65.364173,-24.221777,0
              -65.364356,-24.221914,0
              -65.364677,-24.222032,0
              -65.364999,-24.222149,0
              -65.365214,-24.222306,0
              -65.365986,-24.22303,0
              -65.366308,-24.223245,0
              -65.367295,-24.223568,0
              -65.367756,-24.223744,0
              -65.36795,-24.223881,0
              -65.36855,-24.22436,0
              -65.368958,-24.224742,0
              -65.369269,-24.22483,0
              -65.369398,-24.224977,0
              -65.369591,-24.225212,0
              -65.369752,-24.225241,0
              -65.369892,-24.225182,0
              -65.370885,-24.226586,0
              -65.37082,-24.228584,0
              -65.371852,-24.231807,0
              -65.371852,-24.23374,0
              -65.372496,-24.235158,0
              -65.372303,-24.236576,0
              -65.372754,-24.237543,0
              -65.372524,-24.238534,0
              -65.372632,-24.238908,0
              -65.372638,-24.239195,0
              -65.372689,-24.239283,0
              -65.372879,-24.239378,0
              -65.37294,-24.239454,0
              -65.372937,-24.239749,0
              -65.37302,-24.240025,0
              -65.373432,-24.24046,0
              -65.373431,-24.240556,0
              -65.37337,-24.240636,0
              -65.372934,-24.240917,0
              -65.37285,-24.241095,0
              -65.372867,-24.241284,0
              -65.373025,-24.241535,0
              -65.373116,-24.241581,0
              -65.37351,-24.241713,0
              -65.374041,-24.241729,0
              -65.374104,-24.2418,0
              -65.374278,-24.242139,0
              -65.374614,-24.242511,0
              -65.37465,-24.242803,0
              -65.374564,-24.243172,0
              -65.374594,-24.243365,0
              -65.374683,-24.243541,0
              -65.374839,-24.243674,0
              -65.375091,-24.243718,0
              -65.375276,-24.24383,0
              -65.375379,-24.243863,0
              -65.375794,-24.243785,0
              -65.375996,-24.243818,0
              -65.376236,-24.244007,0
              -65.376327,-24.24417,0
              -65.376476,-24.244312,0
              -65.376788,-24.244378,0
              -65.377161,-24.244528,0
              -65.377371,-24.244507,0
              -65.377746,-24.244344,0
              -65.377836,-24.244395,0
              -65.377928,-24.244657,0
              -65.377986,-24.245041,0
              -65.377975,-24.245634,0
              -65.378018,-24.245824,0
              -65.378394,-24.247969,0
              -65.377943,-24.249258,0
              -65.378072,-24.250031,0
              -65.376793,-24.250623,0
              -65.37674,-24.250543,0
              -65.37671,-24.250452,0
              -65.376691,-24.250357,0
              -65.376672,-24.250252,0
              -65.376648,-24.250158,0
              -65.376612,-24.250071,0
              -65.376559,-24.249984,0
              -65.376498,-24.249907,0
              -65.376434,-24.249818,0
              -65.376356,-24.249745,0
              -65.376278,-24.249683,0
              -65.376202,-24.249622,0
              -65.376114,-24.249576,0
              -65.376016,-24.24951,0
              -65.375913,-24.249438,0
              -65.375827,-24.249382,0
              -65.375724,-24.249324,0
              -65.375623,-24.249269,0
              -65.37553,-24.249215,0
              -65.375432,-24.249146,0
              -65.375347,-24.249091,0
              -65.375252,-24.249022,0
              -65.375157,-24.248948,0
              -65.375089,-24.248864,0
              -65.37503,-24.248769,0
              -65.374969,-24.248679,0
              -65.374899,-24.2486,0
              -65.374796,-24.248545,0
              -65.374699,-24.248506,0
              -65.374621,-24.24844,0
              -65.374537,-24.24836,0
              -65.374441,-24.248326,0
              -65.374339,-24.248357,0
              -65.374238,-24.248386,0
              -65.374118,-24.248417,0
              -65.374023,-24.248447,0
              -65.373904,-24.248464,0
              -65.373798,-24.248476,0
              -65.373683,-24.248476,0
              -65.373566,-24.248477,0
              -65.373448,-24.248465,0
              -65.373353,-24.248439,0
              -65.373255,-24.248416,0
              -65.373147,-24.248413,0
              -65.373029,-24.248413,0
              -65.372908,-24.248414,0
              -65.372803,-24.248432,0
              -65.372691,-24.248474,0
              -65.37259,-24.24852,0
              -65.37249,-24.24858,0
              -65.372403,-24.248629,0
              -65.372309,-24.248659,0
              -65.372207,-24.248669,0
              -65.372101,-24.248667,0
              -65.372001,-24.248642,0
              -65.371896,-24.248623,0
              -65.371796,-24.248612,0
              -65.37169,-24.248598,0
              -65.371579,-24.248551,0
              -65.371456,-24.248512,0
              -65.371363,-24.248483,0
              -65.371253,-24.248448,0
              -65.371157,-24.248424,0
              -65.371059,-24.248414,0
              -65.370955,-24.248408,0
              -65.370842,-24.248361,0
              -65.370754,-24.248301,0
              -65.370672,-24.248234,0
              -65.370591,-24.248173,0
              -65.370484,-24.24812,0
              -65.370379,-24.248065,0
              -65.3703,-24.248006,0
              -65.370213,-24.24794,0
              -65.370112,-24.247891,0
              -65.370003,-24.247852,0
              -65.3699,-24.247819,0
              -65.369798,-24.247794,0
              -65.36969,-24.247763,0
              -65.369569,-24.247717,0
              -65.369472,-24.247671,0
              -65.369357,-24.247622,0
              -65.369238,-24.247592,0
              -65.369128,-24.247556,0
              -65.369013,-24.247517,0
              -65.368894,-24.247482,0
              -65.368785,-24.24744,0
              -65.368672,-24.247395,0
              -65.368559,-24.24736,0
              -65.36846,-24.247332,0
              -65.368372,-24.247284,0
              -65.368255,-24.247203,0
              -65.368163,-24.24716,0
              -65.368065,-24.24714,0
              -65.367962,-24.24714,0
              -65.367858,-24.24714,0
              -65.367792,-24.247071,0
              -65.367792,-24.246969,0
              -65.367796,-24.246875,0
              -65.367796,-24.246776,0
              -65.367737,-24.2467,0
              -65.367659,-24.246756,0
              -65.3676,-24.24684,0
              -65.367496,-24.246851,0
              -65.367428,-24.246762,0
              -65.367379,-24.246667,0
              -65.367354,-24.246564,0
              -65.367251,-24.246534,0
              -65.367152,-24.246598,0
              -65.367073,-24.246657,0
              -65.366959,-24.246654,0
              -65.366865,-24.246604,0
              -65.36682,-24.246516,0
              -65.366785,-24.246418,0
              -65.366674,-24.246416,0
              -65.366576,-24.246465,0
              -65.366491,-24.246519,0
              -65.366404,-24.246585,0
              -65.366333,-24.246647,0
              -65.366238,-24.246706,0
              -65.36615,-24.246767,0
              -65.366064,-24.246815,0
              -65.365952,-24.246859,0
              -65.36586,-24.246906,0
              -65.365799,-24.246982,0
              -65.365702,-24.246926,0
              -65.365676,-24.246838,0
              -65.365575,-24.246799,0
              -65.365463,-24.246821,0
              -65.365363,-24.246827,0
              -65.365263,-24.246823,0
              -65.365165,-24.246798,0
              -65.365072,-24.246764,0
              -65.364976,-24.24674,0
              -65.364855,-24.246727,0
              -65.364744,-24.246698,0
              -65.364653,-24.246662,0
              -65.364554,-24.246638,0
              -65.364434,-24.246647,0
              -65.364328,-24.246667,0
              -65.364218,-24.246689,0
              -65.36409,-24.246711,0
              -65.364013,-24.246782,0
              -65.363967,-24.246876,0
              -65.363939,-24.246971,0
              -65.363882,-24.247046,0
              -65.363812,-24.247123,0
              -65.363718,-24.247093,0
              -65.36369,-24.246999,0
              -65.363735,-24.246917,0
              -65.363822,-24.246852,0
              -65.363855,-24.246763,0
              -65.363801,-24.246686,0
              -65.363699,-24.246712,0
              -65.36365,-24.246795,0
              -65.363617,-24.246894,0
              -65.363518,-24.246943,0
              -65.363426,-24.246908,0
              -65.363423,-24.246805,0
              -65.363428,-24.246713,0
              -65.363395,-24.246626,0
              -65.363294,-24.246638,0
              -65.363221,-24.246705,0
              -65.363163,-24.246788,0
              -65.363095,-24.246866,0
              -65.363027,-24.246799,0
              -65.36294,-24.246847,0
              -65.362893,-24.246934,0
              -65.362848,-24.247023,0
              -65.362756,-24.247057,0
              -65.36272,-24.246951,0
              -65.362723,-24.246847,0
              -65.362723,-24.246744,0
              -65.362742,-24.246638,0
              -65.362754,-24.246538,0
              -65.362726,-24.246449,0
              -65.36262,-24.246424,0
              -65.362513,-24.246432,0
              -65.362475,-24.246521,0
              -65.362443,-24.246625,0
              -65.362439,-24.246732,0
              -65.362406,-24.24683,0
              -65.362324,-24.246892,0
              -65.36222,-24.246871,0
              -65.362137,-24.246795,0
              -65.362083,-24.246707,0
              -65.362045,-24.246623,0
              -65.362017,-24.246532,0
              -65.361995,-24.246429,0
              -65.361937,-24.246346,0
              -65.361834,-24.246328,0
              -65.361736,-24.246389,0
              -65.361653,-24.246455,0
              -65.361578,-24.246533,0
              -65.361512,-24.24662,0
              -65.361429,-24.246694,0
              -65.361332,-24.24673,0
              -65.361224,-24.246738,0
              -65.361128,-24.246704,0
              -65.361028,-24.246659,0
              -65.360931,-24.246635,0
              -65.360831,-24.246621,0
              -65.36073,-24.246604,0
              -65.360627,-24.24658,0
              -65.360518,-24.246549,0
              -65.360411,-24.246556,0
              -65.360312,-24.246601,0
              -65.360256,-24.246692,0
              -65.360263,-24.246796,0
              -65.360236,-24.246886,0
              -65.360136,-24.246922,0
              -65.360041,-24.246865,0
              -65.359962,-24.24681,0
              -65.359865,-24.246758,0
              -65.359754,-24.246751,0
              -65.359669,-24.246698,0
              -65.359606,-24.24661,0
              -65.359511,-24.246559,0
              -65.359413,-24.246595,0
              -65.359311,-24.246667,0
              -65.359246,-24.246752,0
              -65.3592,-24.246834,0
              -65.359094,-24.246817,0
              -65.359069,-24.246723,0
              -65.359094,-24.246633,0
              -65.358987,-24.246609,0
              -65.358899,-24.246657,0
              -65.358793,-24.246704,0
              -65.358696,-24.246731,0
              -65.358588,-24.246756,0
              -65.358484,-24.246756,0
              -65.35838,-24.246757,0
              -65.358266,-24.246766,0
              -65.358154,-24.246765,0
              -65.358041,-24.246752,0
              -65.35793,-24.246737,0
              -65.357823,-24.246707,0
              -65.357725,-24.246695,0
              -65.357632,-24.246647,0
              -65.357589,-24.246554,0
              -65.357573,-24.246452,0
              -65.357548,-24.246353,0
              -65.357513,-24.246257,0
              -65.35742,-24.246224,0
              -65.35731,-24.246268,0
              -65.35723,-24.246335,0
              -65.357131,-24.246367,0
              -65.357031,-24.246389,0
              -65.356926,-24.246406,0
              -65.356923,-24.246509,0
              -65.356959,-24.246595,0
              -65.356988,-24.246684,0
              -65.356946,-24.246781,0
              -65.356842,-24.246805,0
              -65.356747,-24.24677,0
              -65.356634,-24.246778,0
              -65.356523,-24.246802,0
              -65.356414,-24.246826,0
              -65.356304,-24.246844,0
              -65.356205,-24.246847,0
              -65.356092,-24.246848,0
              -65.35598,-24.246858,0
              -65.355862,-24.246883,0
              -65.355754,-24.246892,0
              -65.355645,-24.24686,0
              -65.355538,-24.246822,0
              -65.355431,-24.246785,0
              -65.355329,-24.246774,0
              -65.355256,-24.246842,0
              -65.355225,-24.246943,0
              -65.355213,-24.247037,0
              -65.355177,-24.247134,0
              -65.355082,-24.247187,0
              -65.354995,-24.247251,0
              -65.354927,-24.24733,0
              -65.354852,-24.247399,0
              -65.354744,-24.247421,0
              -65.354628,-24.247401,0
              -65.354518,-24.247376,0
              -65.354408,-24.247342,0
              -65.354302,-24.247326,0
              -65.354224,-24.247388,0
              -65.354268,-24.24748,0
              -65.35428,-24.247579,0
              -65.354227,-24.247662,0
              -65.35415,-24.247735,0
              -65.354069,-24.247796,0
              -65.353973,-24.247768,0
              -65.353903,-24.247703,0
              -65.35382,-24.247769,0
              -65.35381,-24.247869,0
              -65.353791,-24.247961,0
              -65.353688,-24.247969,0
              -65.353624,-24.247897,0
              -65.353562,-24.247808,0
              -65.353482,-24.247744,0
              -65.353402,-24.247687,0
              -65.353362,-24.247597,0
              -65.353289,-24.247529,0
              -65.353182,-24.24755,0
              -65.353077,-24.247564,0
              -65.352981,-24.247545,0
              -65.352884,-24.247559,0
              -65.352822,-24.247648,0
              -65.35279,-24.247741,0
              -65.352757,-24.247834,0
              -65.352697,-24.247925,0
              -65.352645,-24.248016,0
              -65.352617,-24.248117,0
              -65.352566,-24.248209,0
              -65.352521,-24.248304,0
              -65.352499,-24.248393,0
              -65.352538,-24.248491,0
              -65.352637,-24.248518,0
              -65.352702,-24.248586,0
              -65.352736,-24.24868,0
              -65.35267,-24.248762,0
              -65.352565,-24.248783,0
              -65.352473,-24.248818,0
              -65.352416,-24.248902,0
              -65.352416,-24.249002,0
              -65.352377,-24.249093,0
              -65.352287,-24.249162,0
              -65.352192,-24.249214,0
              -65.352121,-24.24928,0
              -65.352033,-24.249337,0
              -65.351932,-24.249374,0
              -65.351828,-24.24941,0
              -65.351736,-24.249446,0
              -65.351619,-24.249667,0
              -65.351569,-24.24967,0
              -65.351479,-24.249719,0
              -65.351401,-24.249797,0
              -65.351338,-24.249868,0
              -65.351282,-24.249946,0
              -65.351227,-24.250038,0
              -65.351169,-24.250119,0
              -65.351095,-24.250193,0
              -65.351021,-24.250259,0
              -65.350922,-24.2503,0
              -65.350836,-24.250346,0
              -65.35075,-24.250393,0
              -65.350664,-24.250457,0
              -65.350617,-24.250554,0
              -65.350618,-24.250649,0
              -65.35064,-24.250746,0
              -65.350689,-24.250833,0
              -65.350738,-24.250924,0
              -65.350766,-24.251023,0
              -65.3508,-24.251123,0
              -65.350837,-24.251219,0
              -65.350856,-24.251308,0
              -65.350817,-24.251398,0
              -65.350762,-24.251483,0
              -65.350717,-24.251578,0
              -65.350685,-24.251665,0
              -65.350653,-24.251763,0
              -65.350622,-24.251852,0
              -65.350549,-24.251921,0
              -65.350452,-24.25194,0
              -65.35036,-24.251981,0
              -65.350284,-24.252049,0
              -65.35022,-24.252123,0
              -65.350164,-24.252199,0
              -65.350109,-24.252275,0
              -65.350011,-24.252325,0
              -65.349932,-24.252382,0
              -65.349854,-24.252438,0
              -65.349772,-24.252505,0
              -65.349727,-24.252589,0
              -65.349716,-24.252688,0
              -65.349754,-24.252786,0
              -65.349801,-24.252871,0
              -65.349882,-24.25293,0
              -65.349969,-24.252988,0
              -65.350048,-24.253053,0
              -65.350105,-24.253144,0
              -65.350096,-24.253237,0
              -65.350038,-24.253326,0
              -65.349972,-24.253394,0
              -65.349959,-24.253485,0
              -65.349935,-24.253581,0
              -65.349866,-24.253664,0
              -65.349788,-24.253723,0
              -65.349747,-24.253753,0
              -65.349698,-24.253768,0
              -65.349595,-24.253789,0
              -65.349502,-24.253838,0
              -65.349408,-24.253888,0
              -65.34933,-24.253949,0
              -65.349249,-24.254019,0
              -65.34919,-24.254094,0
              -65.349133,-24.254172,0
              -65.349028,-24.254255,0
              -65.348935,-24.254291,0
              -65.348845,-24.25434,0
              -65.348751,-24.254372,0
              -65.348663,-24.254414,0
              -65.348572,-24.25447,0
              -65.348547,-24.254562,0
              -65.348543,-24.254657,0
              -65.348545,-24.254748,0
              -65.348545,-24.254853,0
              -65.348547,-24.254954,0
              -65.348584,-24.25505,0
              -65.348642,-24.255093,0
              -65.348721,-24.25515,0
              -65.348706,-24.255247,0
              -65.348685,-24.25534,0
              -65.348676,-24.255423,0
              -65.348654,-24.255426,0
              -65.348613,-24.255509,0
              -65.34856,-24.255585,0
              -65.348463,-24.255612,0
              -65.348359,-24.255616,0
              -65.348255,-24.255619,0
              -65.348157,-24.25562,0
              -65.348118,-24.255623,0
              -65.348088,-24.255543,0
              -65.347536,-24.255364,0
              -65.346853,-24.255613,0
              -65.346627,-24.255109,0
              -65.346742,-24.254794,0
              -65.345646,-24.254557,0
              -65.344964,-24.255565,0
              -65.34407,-24.255977,0
              -65.342156,-24.256521,0
              -65.340224,-24.257152,0
              -65.33857,-24.258037,0
              -65.337705,-24.258107,0
              -65.335945,-24.258572,0
              -65.334253,-24.25901,0
              -65.333551,-24.258879,0
              -65.333407,-24.258524,0
              -65.333243,-24.258519,0
            </coordinates>
          </LinearRing>
        </outerBoundaryIs>
      </Polygon>
    </Placemark>
  </Document>
</kml>
