<?xml version="1.0" encoding="UTF-8"?>
<kml xmlns="http://www.opengis.net/kml/2.2">
  <Document>
    <name>Cria 59°</name>
    <Style id="poly-000000-1200-77-normal">
      <LineStyle>
        <color>ff000000</color>
        <width>1.2</width>
      </LineStyle>
      <PolyStyle>
        <color>4d000000</color>
        <fill>1</fill>
        <outline>1</outline>
      </PolyStyle>
    </Style>
    <Style id="poly-000000-1200-77-highlight">
      <LineStyle>
        <color>ff000000</color>
        <width>1.8</width>
      </LineStyle>
      <PolyStyle>
        <color>4d000000</color>
        <fill>1</fill>
        <outline>1</outline>
      </PolyStyle>
    </Style>
    <StyleMap id="poly-000000-1200-77">
      <Pair>
        <key>normal</key>
        <styleUrl>#poly-000000-1200-77-normal</styleUrl>
      </Pair>
      <Pair>
        <key>highlight</key>
        <styleUrl>#poly-000000-1200-77-highlight</styleUrl>
      </Pair>
    </StyleMap>
    <Placemark>
      <name>Cria 59°</name>
      <description><![CDATA[Descripción: <br>osm_id: 157310300<br>Georeferen: 59]]></description>
      <styleUrl>#poly-000000-1200-77</styleUrl>
      <ExtendedData>
        <Data name="Descripción">
          <value/>
        </Data>
        <Data name="osm_id">
          <value>157310300</value>
        </Data>
        <Data name="Georeferen">
          <value>59</value>
        </Data>
      </ExtendedData>
      <MultiGeometry>
        <Polygon>
          <outerBoundaryIs>
            <LinearRing>
              <tessellate>1</tessellate>
              <coordinates>
                -65.296696,-24.202923,0
                -65.297815,-24.201795,0
                -65.298002,-24.201596,0
                -65.298413,-24.201178,0
                -65.299718,-24.202262,0
                -65.300013,-24.201966,0
                -65.300036,-24.201832,0
                -65.300635,-24.201847,0
                -65.300622,-24.202133,0
                -65.30126,-24.202168,0
                -65.301852,-24.202197,0
                -65.302468,-24.202235,0
                -65.303051,-24.202269,0
                -65.303653,-24.202293,0
                -65.30429,-24.202319,0
                -65.304879,-24.202343,0
                -65.305499,-24.202368,0
                -65.306166,-24.202395,0
                -65.306099,-24.202089,0
                -65.306745,-24.202098,0
                -65.307415,-24.202096,0
                -65.307523,-24.202189,0
                -65.307546,-24.202209,0
                -65.307586,-24.202212,0
                -65.307629,-24.202198,0
                -65.307685,-24.202171,0
                -65.307891,-24.202032,0
                -65.308099,-24.201873,0
                -65.308503,-24.201553,0
                -65.308697,-24.201365,0
                -65.308935,-24.201163,0
                -65.309139,-24.200997,0
                -65.30954,-24.200651,0
                -65.309982,-24.200417,0
                -65.310101,-24.200591,0
                -65.310227,-24.200771,0
                -65.310286,-24.200875,0
                -65.310408,-24.200829,0
                -65.310488,-24.200791,0
                -65.310551,-24.200764,0
                -65.310641,-24.200722,0
                -65.310713,-24.200691,0
                -65.310856,-24.200626,0
                -65.310933,-24.200587,0
                -65.311006,-24.20055,0
                -65.311062,-24.200521,0
                -65.31114,-24.200479,0
                -65.311374,-24.20036,0
                -65.31161,-24.200245,0
                -65.31184,-24.200131,0
                -65.312109,-24.200002,0
                -65.312384,-24.199868,0
                -65.312593,-24.199761,0
                -65.312883,-24.200955,0
                -65.313342,-24.202964,0
                -65.313844,-24.204328,0
                -65.314533,-24.205289,0
                -65.314677,-24.20572,0
                -65.314318,-24.207959,0
                -65.315279,-24.209581,0
                -65.316255,-24.211992,0
                -65.316427,-24.214862,0
                -65.317116,-24.217273,0
                -65.318082,-24.219227,0
                -65.315589,-24.218957,0
                -65.314148,-24.21825,0
                -65.31256,-24.218418,0
                -65.309783,-24.217984,0
                -65.308939,-24.217852,0
                -65.30893,-24.21785,0
                -65.308924,-24.217854,0
                -65.308832,-24.217892,0
                -65.308719,-24.217893,0
                -65.308613,-24.217876,0
                -65.308513,-24.217864,0
                -65.308403,-24.217856,0
                -65.308308,-24.217828,0
                -65.308204,-24.217824,0
                -65.308091,-24.21783,0
                -65.307989,-24.217847,0
                -65.307896,-24.217881,0
                -65.307805,-24.217916,0
                -65.307708,-24.217954,0
                -65.307619,-24.217997,0
                -65.307515,-24.218002,0
                -65.307415,-24.218004,0
                -65.307302,-24.217992,0
                -65.307208,-24.217963,0
                -65.307111,-24.217926,0
                -65.30702,-24.217876,0
                -65.306922,-24.217824,0
                -65.30682,-24.217806,0
                -65.306707,-24.217808,0
                -65.306598,-24.217836,0
                -65.306513,-24.217895,0
                -65.30641,-24.217902,0
                -65.306293,-24.217895,0
                -65.306203,-24.217967,0
                -65.306143,-24.218056,0
                -65.306076,-24.21813,0
                -65.306064,-24.218227,0
                -65.306069,-24.218319,0
                -65.305977,-24.21838,0
                -65.305862,-24.218376,0
                -65.30575,-24.218374,0
                -65.305651,-24.21839,0
                -65.305569,-24.218452,0
                -65.305553,-24.218547,0
                -65.305508,-24.21863,0
                -65.305407,-24.218636,0
                -65.305305,-24.218637,0
                -65.305208,-24.218674,0
                -65.305129,-24.218732,0
                -65.305054,-24.218792,0
                -65.304957,-24.218808,0
                -65.304858,-24.218798,0
                -65.304758,-24.218804,0
                -65.304658,-24.218842,0
                -65.304569,-24.218883,0
                -65.30449,-24.218938,0
                -65.304383,-24.218943,0
                -65.304266,-24.218934,0
                -65.304167,-24.218915,0
                -65.304066,-24.218909,0
                -65.30396,-24.218922,0
                -65.303859,-24.218971,0
                -65.303771,-24.219024,0
                -65.303706,-24.219096,0
                -65.303614,-24.219054,0
                -65.303602,-24.218954,0
                -65.303579,-24.218855,0
                -65.303517,-24.218776,0
                -65.303419,-24.218809,0
                -65.303324,-24.218861,0
                -65.303231,-24.218898,0
                -65.303136,-24.218934,0
                -65.303044,-24.218978,0
                -65.302964,-24.219048,0
                -65.302877,-24.219097,0
                -65.302762,-24.219125,0
                -65.302665,-24.219142,0
                -65.30256,-24.219176,0
                -65.302483,-24.219256,0
                -65.302419,-24.219329,0
                -65.302362,-24.219408,0
                -65.302294,-24.219487,0
                -65.302209,-24.219534,0
                -65.302107,-24.219571,0
                -65.301995,-24.219597,0
                -65.301891,-24.219599,0
                -65.301791,-24.219586,0
                -65.301685,-24.21954,0
                -65.301593,-24.219493,0
                -65.301487,-24.219474,0
                -65.301387,-24.219503,0
                -65.301314,-24.219568,0
                -65.301239,-24.219647,0
                -65.301173,-24.219727,0
                -65.301091,-24.219779,0
                -65.300986,-24.219776,0
                -65.300886,-24.219767,0
                -65.300788,-24.219733,0
                -65.300701,-24.219682,0
                -65.300615,-24.219628,0
                -65.300505,-24.219605,0
                -65.300397,-24.219568,0
                -65.300309,-24.21952,0
                -65.300223,-24.219468,0
                -65.300119,-24.21945,0
                -65.300016,-24.219442,0
                -65.299916,-24.219422,0
                -65.299803,-24.219409,0
                -65.299697,-24.219388,0
                -65.299596,-24.219355,0
                -65.299489,-24.21932,0
                -65.29939,-24.219295,0
                -65.29929,-24.219294,0
                -65.299186,-24.219267,0
                -65.29908,-24.21925,0
                -65.298984,-24.219229,0
                -65.298883,-24.219211,0
                -65.298785,-24.219207,0
                -65.298674,-24.219198,0
                -65.298566,-24.219178,0
                -65.298464,-24.219151,0
                -65.298405,-24.219066,0
                -65.298334,-24.218999,0
                -65.298232,-24.218971,0
                -65.29815,-24.219023,0
                -65.295701,-24.216682,0
                -65.293175,-24.214873,0
                -65.291485,-24.213033,0
                -65.290434,-24.211851,0
                -65.290498,-24.211753,0
                -65.29053,-24.211688,0
                -65.290557,-24.211627,0
                -65.290946,-24.211238,0
                -65.291076,-24.211132,0
                -65.291214,-24.211058,0
                -65.291874,-24.210678,0
                -65.292402,-24.210406,0
                -65.292592,-24.210287,0
                -65.292855,-24.210183,0
                -65.293122,-24.210073,0
                -65.293425,-24.209947,0
                -65.293778,-24.209793,0
                -65.294333,-24.209556,0
                -65.294811,-24.209342,0
                -65.295344,-24.209096,0
                -65.295807,-24.208879,0
                -65.296007,-24.208784,0
                -65.296256,-24.208664,0
                -65.296587,-24.208504,0
                -65.297038,-24.208293,0
                -65.297051,-24.207717,0
                -65.297042,-24.207496,0
                -65.297047,-24.207033,0
                -65.297044,-24.20692,0
                -65.297052,-24.206538,0
                -65.297036,-24.20649,0
                -65.29656,-24.206216,0
                -65.296254,-24.206005,0
                -65.296194,-24.205955,0
                -65.296158,-24.20592,0
                -65.296126,-24.20588,0
                -65.296086,-24.205791,0
                -65.296009,-24.205623,0
                -65.295947,-24.205536,0
                -65.295909,-24.205433,0
                -65.295863,-24.205326,0
                -65.295816,-24.205251,0
                -65.295797,-24.205228,0
                -65.29575,-24.205174,0
                -65.295691,-24.20512,0
                -65.29564,-24.205073,0
                -65.295548,-24.205011,0
                -65.29542,-24.204924,0
                -65.295389,-24.204879,0
                -65.295346,-24.204791,0
                -65.295196,-24.204506,0
                -65.295199,-24.204447,0
                -65.295693,-24.203954,0
                -65.295755,-24.20389,0
                -65.295817,-24.203824,0
                -65.296319,-24.2033,0
                -65.296639,-24.202981,0
                -65.296696,-24.202923,0
              </coordinates>
            </LinearRing>
          </outerBoundaryIs>
        </Polygon>
        <Polygon>
          <outerBoundaryIs>
            <LinearRing>
              <tessellate>1</tessellate>
              <coordinates>
                -65.297815,-24.201795,0
                -65.29773,-24.201886,0
                -65.297251,-24.202363,0
                -65.297149,-24.202465,0
                -65.297815,-24.201795,0
              </coordinates>
            </LinearRing>
          </outerBoundaryIs>
        </Polygon>
        <Polygon>
          <outerBoundaryIs>
            <LinearRing>
              <tessellate>1</tessellate>
              <coordinates>
                -65.297149,-24.202465,0
                -65.296696,-24.202923,0
                -65.29704,-24.202574,0
                -65.297149,-24.202465,0
              </coordinates>
            </LinearRing>
          </outerBoundaryIs>
        </Polygon>
      </MultiGeometry>
    </Placemark>
  </Document>
</kml>
