<?xml version="1.0" encoding="UTF-8"?>
<kml xmlns="http://www.opengis.net/kml/2.2">
  <Document>
    <name>Cria 61°</name>
    <Style id="poly-000000-1200-77-normal">
      <LineStyle>
        <color>ff000000</color>
        <width>1.2</width>
      </LineStyle>
      <PolyStyle>
        <color>4d000000</color>
        <fill>1</fill>
        <outline>1</outline>
      </PolyStyle>
    </Style>
    <Style id="poly-000000-1200-77-highlight">
      <LineStyle>
        <color>ff000000</color>
        <width>1.8</width>
      </LineStyle>
      <PolyStyle>
        <color>4d000000</color>
        <fill>1</fill>
        <outline>1</outline>
      </PolyStyle>
    </Style>
    <StyleMap id="poly-000000-1200-77">
      <Pair>
        <key>normal</key>
        <styleUrl>#poly-000000-1200-77-normal</styleUrl>
      </Pair>
      <Pair>
        <key>highlight</key>
        <styleUrl>#poly-000000-1200-77-highlight</styleUrl>
      </Pair>
    </StyleMap>
    <Placemark>
      <name>Cria 61°</name>
      <description><![CDATA[Descripción: <br>nombre: Río Xibi Xibi<br>osm_id: 443608285<br>Georeferen: 61]]></description>
      <styleUrl>#poly-000000-1200-77</styleUrl>
      <ExtendedData>
        <Data name="Descripción">
          <value/>
        </Data>
        <Data name="nombre">
          <value>Río Xibi Xibi</value>
        </Data>
        <Data name="osm_id">
          <value>443608285</value>
        </Data>
        <Data name="Georeferen">
          <value>61</value>
        </Data>
      </ExtendedData>
      <Polygon>
        <outerBoundaryIs>
          <LinearRing>
            <tessellate>1</tessellate>
            <coordinates>
              -65.30151,-24.182294,0
              -65.300338,-24.182714,0
              -65.298833,-24.183276,0
              -65.298079,-24.183566,0
              -65.297286,-24.183907,0
              -65.297236,-24.183929,0
              -65.296628,-24.184192,0
              -65.296367,-24.184304,0
              -65.295546,-24.184659,0
              -65.295332,-24.184751,0
              -65.295035,-24.18488,0
              -65.294727,-24.185013,0
              -65.294237,-24.185225,0
              -65.294068,-24.185313,0
              -65.293921,-24.185392,0
              -65.293771,-24.185481,0
              -65.293659,-24.185557,0
              -65.29354,-24.185639,0
              -65.293367,-24.185772,0
              -65.293325,-24.185804,0
              -65.293253,-24.185859,0
              -65.293168,-24.185947,0
              -65.292944,-24.186183,0
              -65.292865,-24.186282,0
              -65.29273,-24.186451,0
              -65.292686,-24.186518,0
              -65.292521,-24.186776,0
              -65.292338,-24.187148,0
              -65.292323,-24.187192,0
              -65.29222,-24.187497,0
              -65.292207,-24.187535,0
              -65.292177,-24.18765,0
              -65.292116,-24.187892,0
              -65.292097,-24.188005,0
              -65.292075,-24.188166,0
              -65.292074,-24.188219,0
              -65.292071,-24.188406,0
              -65.292067,-24.188594,0
              -65.292097,-24.188834,0
              -65.292134,-24.189135,0
              -65.292193,-24.18935,0
              -65.292219,-24.189422,0
              -65.292428,-24.189963,0
              -65.292565,-24.190313,0
              -65.292521,-24.190304,0
              -65.292475,-24.190283,0
              -65.292436,-24.190244,0
              -65.292386,-24.190224,0
              -65.292328,-24.190222,0
              -65.292279,-24.190238,0
              -65.292228,-24.190265,0
              -65.292112,-24.190272,0
              -65.292013,-24.190265,0
              -65.291924,-24.190234,0
              -65.291831,-24.190163,0
              -65.291789,-24.19014,0
              -65.291744,-24.190126,0
              -65.291666,-24.190124,0
              -65.291642,-24.190151,0
              -65.291601,-24.190162,0
              -65.29155,-24.190153,0
              -65.291513,-24.190121,0
              -65.291488,-24.190072,0
              -65.291465,-24.190038,0
              -65.291424,-24.190003,0
              -65.29136,-24.189979,0
              -65.291317,-24.189976,0
              -65.291279,-24.189981,0
              -65.291211,-24.190013,0
              -65.291163,-24.190042,0
              -65.291107,-24.190048,0
              -65.291052,-24.190044,0
              -65.29096,-24.18998,0
              -65.290928,-24.189938,0
              -65.290884,-24.189905,0
              -65.29081,-24.189879,0
              -65.290741,-24.189878,0
              -65.290686,-24.189893,0
              -65.290594,-24.189934,0
              -65.290516,-24.189923,0
              -65.290385,-24.189856,0
              -65.290295,-24.189759,0
              -65.290199,-24.189697,0
              -65.290135,-24.189667,0
              -65.290083,-24.189649,0
              -65.290019,-24.189632,0
              -65.289914,-24.189617,0
              -65.289818,-24.189617,0
              -65.289701,-24.189573,0
              -65.289641,-24.189525,0
              -65.289604,-24.189499,0
              -65.289547,-24.189484,0
              -65.289436,-24.189454,0
              -65.289314,-24.189352,0
              -65.289199,-24.189292,0
              -65.289165,-24.189245,0
              -65.289098,-24.189199,0
              -65.28899,-24.189168,0
              -65.288887,-24.189072,0
              -65.288846,-24.189034,0
              -65.288785,-24.189012,0
              -65.288673,-24.189004,0
              -65.288608,-24.188945,0
              -65.288574,-24.18891,0
              -65.288508,-24.188855,0
              -65.288431,-24.188794,0
              -65.288319,-24.188751,0
              -65.28821,-24.188752,0
              -65.288139,-24.188735,0
              -65.288083,-24.188721,0
              -65.288018,-24.188682,0
              -65.28799,-24.188633,0
              -65.287972,-24.188588,0
              -65.287948,-24.188546,0
              -65.287899,-24.188499,0
              -65.287835,-24.188459,0
              -65.287739,-24.18844,0
              -65.287638,-24.188453,0
              -65.287578,-24.188448,0
              -65.287529,-24.188416,0
              -65.287445,-24.188341,0
              -65.287432,-24.188291,0
              -65.287393,-24.188237,0
              -65.287339,-24.188206,0
              -65.287256,-24.188196,0
              -65.287176,-24.188198,0
              -65.287049,-24.188175,0
              -65.286931,-24.18813,0
              -65.286855,-24.188065,0
              -65.286788,-24.187998,0
              -65.286722,-24.187918,0
              -65.286612,-24.18785,0
              -65.286504,-24.18783,0
              -65.286406,-24.187847,0
              -65.286248,-24.187866,0
              -65.286176,-24.187855,0
              -65.286102,-24.187824,0
              -65.285972,-24.187753,0
              -65.285853,-24.187718,0
              -65.285202,-24.187199,0
              -65.285125,-24.187181,0
              -65.284909,-24.187077,0
              -65.284815,-24.187004,0
              -65.284756,-24.186921,0
              -65.284636,-24.186787,0
              -65.284574,-24.186671,0
              -65.284554,-24.186582,0
              -65.284567,-24.186535,0
              -65.284606,-24.186464,0
              -65.284606,-24.186403,0
              -65.284584,-24.186353,0
              -65.284388,-24.186153,0
              -65.283799,-24.185419,0
              -65.285398,-24.184697,0
              -65.28744,-24.183775,0
              -65.287763,-24.183629,0
              -65.289102,-24.183063,0
              -65.291194,-24.182178,0
              -65.292874,-24.181467,0
              -65.29316,-24.181368,0
              -65.293428,-24.181227,0
              -65.295034,-24.18053,0
              -65.299579,-24.178556,0
              -65.300015,-24.179401,0
              -65.300093,-24.17955,0
              -65.300424,-24.180187,0
              -65.300819,-24.180946,0
              -65.301262,-24.181802,0
              -65.30151,-24.182294,0
            </coordinates>
          </LinearRing>
        </outerBoundaryIs>
      </Polygon>
    </Placemark>
  </Document>
</kml>
