<?xml version="1.0" encoding="UTF-8"?>
<kml xmlns="http://www.opengis.net/kml/2.2">
  <Document>
    <name>Cria 44°</name>
    <Style id="poly-000000-1200-77-normal">
      <LineStyle>
        <color>ff000000</color>
        <width>1.2</width>
      </LineStyle>
      <PolyStyle>
        <color>4d000000</color>
        <fill>1</fill>
        <outline>1</outline>
      </PolyStyle>
    </Style>
    <Style id="poly-000000-1200-77-highlight">
      <LineStyle>
        <color>ff000000</color>
        <width>1.8</width>
      </LineStyle>
      <PolyStyle>
        <color>4d000000</color>
        <fill>1</fill>
        <outline>1</outline>
      </PolyStyle>
    </Style>
    <StyleMap id="poly-000000-1200-77">
      <Pair>
        <key>normal</key>
        <styleUrl>#poly-000000-1200-77-normal</styleUrl>
      </Pair>
      <Pair>
        <key>highlight</key>
        <styleUrl>#poly-000000-1200-77-highlight</styleUrl>
      </Pair>
    </StyleMap>
    <Placemark>
      <name>Cria 44°</name>
      <description><![CDATA[Descripción: <br>nombre: FC Belgrano<br>osm_id: 98030404<br>Georeferen: 44]]></description>
      <styleUrl>#poly-000000-1200-77</styleUrl>
      <ExtendedData>
        <Data name="Descripción">
          <value/>
        </Data>
        <Data name="nombre">
          <value>FC Belgrano</value>
        </Data>
        <Data name="osm_id">
          <value>98030404</value>
        </Data>
        <Data name="Georeferen">
          <value>44</value>
        </Data>
      </ExtendedData>
      <Polygon>
        <outerBoundaryIs>
          <LinearRing>
            <tessellate>1</tessellate>
            <coordinates>
              -65.29961,-24.178542,0
              -65.300434,-24.178186,0
              -65.30132,-24.177803,0
              -65.304526,-24.176421,0
              -65.306581,-24.17571,0
              -65.30694,-24.175606,0
              -65.307703,-24.175385,0
              -65.308094,-24.175272,0
              -65.310038,-24.17498,0
              -65.311171,-24.174872,0
              -65.312377,-24.174772,0
              -65.313556,-24.174743,0
              -65.313949,-24.174734,0
              -65.315046,-24.17483,0
              -65.315555,-24.174909,0
              -65.316511,-24.175058,0
              -65.317699,-24.175329,0
              -65.318825,-24.175662,0
              -65.320523,-24.176301,0
              -65.32158,-24.176622,0
              -65.322419,-24.17684,0
              -65.322773,-24.176899,0
              -65.322832,-24.177107,0
              -65.322962,-24.177568,0
              -65.323007,-24.177736,0
              -65.323255,-24.177724,0
              -65.323463,-24.177704,0
              -65.323652,-24.177707,0
              -65.323765,-24.177725,0
              -65.323877,-24.177764,0
              -65.323976,-24.177827,0
              -65.324061,-24.177912,0
              -65.324126,-24.178008,0
              -65.324153,-24.178051,0
              -65.324178,-24.178109,0
              -65.324181,-24.178135,0
              -65.324178,-24.178169,0
              -65.324155,-24.178284,0
              -65.323978,-24.17882,0
              -65.324009,-24.178924,0
              -65.323237,-24.178974,0
              -65.322856,-24.179004,0
              -65.322009,-24.179066,0
              -65.321817,-24.179077,0
              -65.319918,-24.179252,0
              -65.31949,-24.179285,0
              -65.318561,-24.179353,0
              -65.317607,-24.179424,0
              -65.31669,-24.17949,0
              -65.316279,-24.179506,0
              -65.315938,-24.179528,0
              -65.315396,-24.179573,0
              -65.31495,-24.17962,0
              -65.314885,-24.179624,0
              -65.314704,-24.179634,0
              -65.314411,-24.179646,0
              -65.313831,-24.179681,0
              -65.313647,-24.179697,0
              -65.31322,-24.179736,0
              -65.313067,-24.179744,0
              -65.312752,-24.179778,0
              -65.31226,-24.179836,0
              -65.312106,-24.179854,0
              -65.311398,-24.179958,0
              -65.311036,-24.180011,0
              -65.310968,-24.180021,0
              -65.310108,-24.180148,0
              -65.309901,-24.180188,0
              -65.309535,-24.180259,0
              -65.309337,-24.18029,0
              -65.308874,-24.180387,0
              -65.308777,-24.180466,0
              -65.308444,-24.180552,0
              -65.307624,-24.18073,0
              -65.307147,-24.180828,0
              -65.307137,-24.18083,0
              -65.307091,-24.180841,0
              -65.306728,-24.180894,0
              -65.305798,-24.18111,0
              -65.305747,-24.181121,0
              -65.305603,-24.181153,0
              -65.305492,-24.181176,0
              -65.3048,-24.181332,0
              -65.304348,-24.181442,0
              -65.303665,-24.181606,0
              -65.303351,-24.181678,0
              -65.302981,-24.181763,0
              -65.302544,-24.1819,0
              -65.30208,-24.182081,0
              -65.301646,-24.182245,0
              -65.30151,-24.182294,0
              -65.301262,-24.181802,0
              -65.300819,-24.180946,0
              -65.300424,-24.180187,0
              -65.300093,-24.17955,0
              -65.300015,-24.179401,0
              -65.299579,-24.178556,0
              -65.29961,-24.178542,0
            </coordinates>
          </LinearRing>
        </outerBoundaryIs>
      </Polygon>
    </Placemark>
  </Document>
</kml>
