<?xml version="1.0" encoding="UTF-8"?>
<kml xmlns="http://www.opengis.net/kml/2.2">
  <Document>
    <name>Cria 5°</name>
    <Style id="poly-000000-1200-77-normal">
      <LineStyle>
        <color>ff000000</color>
        <width>1.2</width>
      </LineStyle>
      <PolyStyle>
        <color>4d000000</color>
        <fill>1</fill>
        <outline>1</outline>
      </PolyStyle>
    </Style>
    <Style id="poly-000000-1200-77-highlight">
      <LineStyle>
        <color>ff000000</color>
        <width>1.8</width>
      </LineStyle>
      <PolyStyle>
        <color>4d000000</color>
        <fill>1</fill>
        <outline>1</outline>
      </PolyStyle>
    </Style>
    <StyleMap id="poly-000000-1200-77">
      <Pair>
        <key>normal</key>
        <styleUrl>#poly-000000-1200-77-normal</styleUrl>
      </Pair>
      <Pair>
        <key>highlight</key>
        <styleUrl>#poly-000000-1200-77-highlight</styleUrl>
      </Pair>
    </StyleMap>
    <Placemark>
      <name>Cria 5°</name>
      <description><![CDATA[Descripción: <br>nombre: Río Xibi Xibi<br>osm_id: 443608284<br>Georeferen: 5]]></description>
      <styleUrl>#poly-000000-1200-77</styleUrl>
      <ExtendedData>
        <Data name="Descripción">
          <value/>
        </Data>
        <Data name="nombre">
          <value>Río Xibi Xibi</value>
        </Data>
        <Data name="osm_id">
          <value>443608284</value>
        </Data>
        <Data name="Georeferen">
          <value>5</value>
        </Data>
      </ExtendedData>
      <Polygon>
        <outerBoundaryIs>
          <LinearRing>
            <tessellate>1</tessellate>
            <coordinates>
              -65.310274,-24.189308,0
              -65.310247,-24.189226,0
              -65.310234,-24.18919,0
              -65.310201,-24.18909,0
              -65.310145,-24.188939,0
              -65.310099,-24.188818,0
              -65.31026,-24.188669,0
              -65.310429,-24.188471,0
              -65.310606,-24.188258,0
              -65.310792,-24.188125,0
              -65.310991,-24.187748,0
              -65.311279,-24.187243,0
              -65.311646,-24.186767,0
              -65.311944,-24.186602,0
              -65.311879,-24.186461,0
              -65.31194,-24.186445,0
              -65.312373,-24.186243,0
              -65.313017,-24.185945,0
              -65.313986,-24.185554,0
              -65.314594,-24.1853,0
              -65.315352,-24.185034,0
              -65.31573,-24.184853,0
              -65.316158,-24.184643,0
              -65.317212,-24.184164,0
              -65.317251,-24.184138,0
              -65.317331,-24.184095,0
              -65.317408,-24.184056,0
              -65.317508,-24.184002,0
              -65.317612,-24.183944,0
              -65.317674,-24.183907,0
              -65.318032,-24.183688,0
              -65.318127,-24.183655,0
              -65.318162,-24.183637,0
              -65.318161,-24.183584,0
              -65.318171,-24.183528,0
              -65.318203,-24.183444,0
              -65.318247,-24.183354,0
              -65.318318,-24.18327,0
              -65.318455,-24.183173,0
              -65.318707,-24.183046,0
              -65.318882,-24.182955,0
              -65.319632,-24.182572,0
              -65.319751,-24.182532,0
              -65.320001,-24.182424,0
              -65.320299,-24.182275,0
              -65.3204,-24.18221,0
              -65.32049,-24.182143,0
              -65.320748,-24.181967,0
              -65.320919,-24.181865,0
              -65.320979,-24.181822,0
              -65.321211,-24.181672,0
              -65.321425,-24.181516,0
              -65.321457,-24.181443,0
              -65.321452,-24.181404,0
              -65.321432,-24.181361,0
              -65.321397,-24.181337,0
              -65.321541,-24.18127,0
              -65.321699,-24.181194,0
              -65.321937,-24.181059,0
              -65.322259,-24.180826,0
              -65.322446,-24.180681,0
              -65.322853,-24.18039,0
              -65.323329,-24.180162,0
              -65.323569,-24.180053,0
              -65.323861,-24.179928,0
              -65.324151,-24.179833,0
              -65.324908,-24.179586,0
              -65.325313,-24.17949,0
              -65.326447,-24.179251,0
              -65.326597,-24.179221,0
              -65.326994,-24.179159,0
              -65.3274,-24.179102,0
              -65.327699,-24.17907,0
              -65.328492,-24.17898,0
              -65.328493,-24.179016,0
              -65.328505,-24.179148,0
              -65.328578,-24.179335,0
              -65.328669,-24.179433,0
              -65.328798,-24.179503,0
              -65.328952,-24.179599,0
              -65.329047,-24.179691,0
              -65.329458,-24.180069,0
              -65.32957,-24.18019,0
              -65.329934,-24.180585,0
              -65.329976,-24.180633,0
              -65.330258,-24.180947,0
              -65.330419,-24.181126,0
              -65.33045,-24.18116,0
              -65.330476,-24.18119,0
              -65.330983,-24.181735,0
              -65.331316,-24.182103,0
              -65.33135,-24.182141,0
              -65.331491,-24.182296,0
              -65.331986,-24.182833,0
              -65.332056,-24.182905,0
              -65.332397,-24.183255,0
              -65.332529,-24.18339,0
              -65.332574,-24.183436,0
              -65.332703,-24.183568,0
              -65.33357,-24.184511,0
              -65.333635,-24.184572,0
              -65.33355,-24.184744,0
              -65.333527,-24.184764,0
              -65.33363,-24.184787,0
              -65.333905,-24.184836,0
              -65.334217,-24.184872,0
              -65.334274,-24.18488,0
              -65.334372,-24.184908,0
              -65.334411,-24.18494,0
              -65.334446,-24.184987,0
              -65.334565,-24.18522,0
              -65.33457,-24.185272,0
              -65.334561,-24.185334,0
              -65.334549,-24.185366,0
              -65.334518,-24.18545,0
              -65.334385,-24.185692,0
              -65.33424,-24.185881,0
              -65.334092,-24.186016,0
              -65.334102,-24.186155,0
              -65.334385,-24.1867,0
              -65.334454,-24.186825,0
              -65.334503,-24.187052,0
              -65.334546,-24.187395,0
              -65.334568,-24.187532,0
              -65.334349,-24.187618,0
              -65.334143,-24.187721,0
              -65.334023,-24.187866,0
              -65.333924,-24.188057,0
              -65.333769,-24.188223,0
              -65.333596,-24.188325,0
              -65.333376,-24.188343,0
              -65.333199,-24.188243,0
              -65.33311,-24.188104,0
              -65.333034,-24.188011,0
              -65.332963,-24.187979,0
              -65.332885,-24.187979,0
              -65.332804,-24.188015,0
              -65.332675,-24.18809,0
              -65.332574,-24.18814,0
              -65.332252,-24.188237,0
              -65.33168,-24.188305,0
              -65.331322,-24.188374,0
              -65.33106,-24.188462,0
              -65.330697,-24.188619,0
              -65.330431,-24.188857,0
              -65.330198,-24.189087,0
              -65.33,-24.189248,0
              -65.329807,-24.189365,0
              -65.329678,-24.189433,0
              -65.329009,-24.189913,0
              -65.328695,-24.190251,0
              -65.328453,-24.190742,0
              -65.328369,-24.190912,0
              -65.328248,-24.191065,0
              -65.328159,-24.191141,0
              -65.327946,-24.19121,0
              -65.327781,-24.191407,0
              -65.327777,-24.191552,0
              -65.327744,-24.191665,0
              -65.327652,-24.191737,0
              -65.327636,-24.191806,0
              -65.327627,-24.191882,0
              -65.327587,-24.191947,0
              -65.327567,-24.192007,0
              -65.327567,-24.192084,0
              -65.327563,-24.192173,0
              -65.327537,-24.19224,0
              -65.327377,-24.192186,0
              -65.326619,-24.192009,0
              -65.325894,-24.191493,0
              -65.324895,-24.191251,0
              -65.323818,-24.191748,0
              -65.323373,-24.191786,0
              -65.323016,-24.191622,0
              -65.322311,-24.191553,0
              -65.321371,-24.191429,0
              -65.320849,-24.19151,0
              -65.320545,-24.191557,0
              -65.320144,-24.191544,0
              -65.319574,-24.191379,0
              -65.319511,-24.191347,0
              -65.319437,-24.19132,0
              -65.319362,-24.191308,0
              -65.319296,-24.191308,0
              -65.31923,-24.191319,0
              -65.319184,-24.191322,0
              -65.319142,-24.191315,0
              -65.31902,-24.191291,0
              -65.318983,-24.191267,0
              -65.318933,-24.191245,0
              -65.318889,-24.191246,0
              -65.318847,-24.191236,0
              -65.318821,-24.191216,0
              -65.318782,-24.191202,0
              -65.318758,-24.191196,0
              -65.318733,-24.191202,0
              -65.318716,-24.191218,0
              -65.318697,-24.191225,0
              -65.318664,-24.191218,0
              -65.318648,-24.191195,0
              -65.318645,-24.191178,0
              -65.318643,-24.191173,0
              -65.318631,-24.191156,0
              -65.31862,-24.191147,0
              -65.318594,-24.191135,0
              -65.318566,-24.191134,0
              -65.318538,-24.191144,0
              -65.318512,-24.19115,0
              -65.318476,-24.191154,0
              -65.318443,-24.191145,0
              -65.31842,-24.191127,0
              -65.318399,-24.1911,0
              -65.318359,-24.191068,0
              -65.318297,-24.191043,0
              -65.318222,-24.191044,0
              -65.318177,-24.191042,0
              -65.318114,-24.191045,0
              -65.31805,-24.191029,0
              -65.31801,-24.190998,0
              -65.317963,-24.19097,0
              -65.31792,-24.190949,0
              -65.317863,-24.19093,0
              -65.317828,-24.190921,0
              -65.3178,-24.190916,0
              -65.317732,-24.190913,0
              -65.317684,-24.190919,0
              -65.317634,-24.190914,0
              -65.317582,-24.190897,0
              -65.317544,-24.190863,0
              -65.317506,-24.190849,0
              -65.317466,-24.190837,0
              -65.317426,-24.190832,0
              -65.317392,-24.190828,0
              -65.317355,-24.190827,0
              -65.317325,-24.190835,0
              -65.317277,-24.190842,0
              -65.317233,-24.190837,0
              -65.317157,-24.190821,0
              -65.317087,-24.190776,0
              -65.317056,-24.190762,0
              -65.317023,-24.190752,0
              -65.316983,-24.190746,0
              -65.316942,-24.190746,0
              -65.316872,-24.190749,0
              -65.31683,-24.190738,0
              -65.316805,-24.190706,0
              -65.316752,-24.190686,0
              -65.316655,-24.190656,0
              -65.316533,-24.190637,0
              -65.316445,-24.19063,0
              -65.316338,-24.190613,0
              -65.316232,-24.190577,0
              -65.316143,-24.190549,0
              -65.316079,-24.190506,0
              -65.316019,-24.190472,0
              -65.315953,-24.190458,0
              -65.315851,-24.190442,0
              -65.315804,-24.190437,0
              -65.315763,-24.190428,0
              -65.315727,-24.190413,0
              -65.31569,-24.190375,0
              -65.315641,-24.190342,0
              -65.315598,-24.190336,0
              -65.315553,-24.190329,0
              -65.315512,-24.190319,0
              -65.315478,-24.190301,0
              -65.315403,-24.190249,0
              -65.315309,-24.190249,0
              -65.315263,-24.190244,0
              -65.315223,-24.190237,0
              -65.315131,-24.1902,0
              -65.315071,-24.190178,0
              -65.314987,-24.190167,0
              -65.314923,-24.190175,0
              -65.314851,-24.190154,0
              -65.314778,-24.190154,0
              -65.314732,-24.190162,0
              -65.314648,-24.190152,0
              -65.314562,-24.190133,0
              -65.314518,-24.190096,0
              -65.314472,-24.190064,0
              -65.314421,-24.190048,0
              -65.314377,-24.190048,0
              -65.314323,-24.190063,0
              -65.314228,-24.190067,0
              -65.314175,-24.190042,0
              -65.313993,-24.190032,0
              -65.313894,-24.190038,0
              -65.313778,-24.190051,0
              -65.313635,-24.190073,0
              -65.313543,-24.190069,0
              -65.313502,-24.19005,0
              -65.313457,-24.190035,0
              -65.313377,-24.190023,0
              -65.313305,-24.190027,0
              -65.313264,-24.190034,0
              -65.313227,-24.190043,0
              -65.313166,-24.190044,0
              -65.313115,-24.190033,0
              -65.313083,-24.190019,0
              -65.313061,-24.190006,0
              -65.312982,-24.189992,0
              -65.312926,-24.189982,0
              -65.312863,-24.189987,0
              -65.312768,-24.19,0
              -65.312721,-24.189986,0
              -65.312665,-24.189974,0
              -65.312593,-24.189967,0
              -65.312541,-24.189967,0
              -65.312485,-24.189971,0
              -65.312434,-24.189979,0
              -65.312406,-24.189988,0
              -65.312376,-24.189984,0
              -65.312321,-24.18997,0
              -65.312261,-24.189968,0
              -65.31221,-24.189974,0
              -65.312165,-24.189986,0
              -65.312127,-24.19,0
              -65.31207,-24.190003,0
              -65.311993,-24.189995,0
              -65.311864,-24.189983,0
              -65.31176,-24.190008,0
              -65.311648,-24.190004,0
              -65.311529,-24.189973,0
              -65.311402,-24.189957,0
              -65.311296,-24.189958,0
              -65.311188,-24.189962,0
              -65.311144,-24.189959,0
              -65.311113,-24.189946,0
              -65.311014,-24.189882,0
              -65.310942,-24.189858,0
              -65.310867,-24.189854,0
              -65.310802,-24.189858,0
              -65.310751,-24.18985,0
              -65.310703,-24.189833,0
              -65.310587,-24.18983,0
              -65.31046,-24.189808,0
              -65.310274,-24.189308,0
            </coordinates>
          </LinearRing>
        </outerBoundaryIs>
      </Polygon>
    </Placemark>
  </Document>
</kml>
