<?xml version="1.0" encoding="UTF-8"?>
<kml xmlns="http://www.opengis.net/kml/2.2">
  <Document>
    <name>Cria 54°</name>
    <Style id="poly-000000-1200-77-normal">
      <LineStyle>
        <color>ff000000</color>
        <width>1.2</width>
      </LineStyle>
      <PolyStyle>
        <color>4d000000</color>
        <fill>1</fill>
        <outline>1</outline>
      </PolyStyle>
    </Style>
    <Style id="poly-000000-1200-77-highlight">
      <LineStyle>
        <color>ff000000</color>
        <width>1.8</width>
      </LineStyle>
      <PolyStyle>
        <color>4d000000</color>
        <fill>1</fill>
        <outline>1</outline>
      </PolyStyle>
    </Style>
    <StyleMap id="poly-000000-1200-77">
      <Pair>
        <key>normal</key>
        <styleUrl>#poly-000000-1200-77-normal</styleUrl>
      </Pair>
      <Pair>
        <key>highlight</key>
        <styleUrl>#poly-000000-1200-77-highlight</styleUrl>
      </Pair>
    </StyleMap>
    <Placemark>
      <name>Cria 54°</name>
      <description><![CDATA[Descripción: <br>nombre: Yungas<br>Georeferen: 54]]></description>
      <styleUrl>#poly-000000-1200-77</styleUrl>
      <ExtendedData>
        <Data name="Descripción">
          <value/>
        </Data>
        <Data name="nombre">
          <value>Yungas</value>
        </Data>
        <Data name="Georeferen">
          <value>54</value>
        </Data>
      </ExtendedData>
      <Polygon>
        <outerBoundaryIs>
          <LinearRing>
            <tessellate>1</tessellate>
            <coordinates>
              -65.408051,-24.097899,0
              -65.407897,-24.098738,0
              -65.40752,-24.098777,0
              -65.407431,-24.101275,0
              -65.407045,-24.104068,0
              -65.406659,-24.106576,0
              -65.406596,-24.106899,0
              -65.406458,-24.107656,0
              -65.40625,-24.108913,0
              -65.405331,-24.113491,0
              -65.405213,-24.115843,0
              -65.405969,-24.117126,0
              -65.406219,-24.11755,0
              -65.406375,-24.117876,0
              -65.407051,-24.117879,0
              -65.407363,-24.117975,0
              -65.407675,-24.117976,0
              -65.407987,-24.118072,0
              -65.409236,-24.118077,0
              -65.409862,-24.117889,0
              -65.41028,-24.117796,0
              -65.411529,-24.117801,0
              -65.41262,-24.117995,0
              -65.416162,-24.118008,0
              -65.416474,-24.117915,0
              -65.416787,-24.117722,0
              -65.417413,-24.117535,0
              -65.417725,-24.117536,0
              -65.418038,-24.117442,0
              -65.419287,-24.117447,0
              -65.419911,-24.117639,0
              -65.420535,-24.117641,0
              -65.420951,-24.117548,0
              -65.421679,-24.117551,0
              -65.421992,-24.117457,0
              -65.423035,-24.117461,0
              -65.423347,-24.117368,0
              -65.423764,-24.11708,0
              -65.424181,-24.116892,0
              -65.424494,-24.116799,0
              -65.42668,-24.116807,0
              -65.426991,-24.116903,0
              -65.428397,-24.117192,0
              -65.428709,-24.117194,0
              -65.429021,-24.117294,0
              -65.429333,-24.117295,0
              -65.429645,-24.117391,0
              -65.430998,-24.117396,0
              -65.431311,-24.117203,0
              -65.431729,-24.117205,0
              -65.432145,-24.117017,0
              -65.432458,-24.116828,0
              -65.437246,-24.116846,0
              -65.437559,-24.116653,0
              -65.437979,-24.11637,0
              -65.438292,-24.116182,0
              -65.439128,-24.115038,0
              -65.439235,-24.114655,0
              -65.439549,-24.114367,0
              -65.439643,-24.11411,0
              -65.439639,-24.114083,0
              -65.439967,-24.113796,0
              -65.440071,-24.113512,0
              -65.440384,-24.113323,0
              -65.440386,-24.113034,0
              -65.440698,-24.112941,0
              -65.440909,-24.112558,0
              -65.441222,-24.112369,0
              -65.441433,-24.112081,0
              -65.441849,-24.111988,0
              -65.441888,-24.111897,0
              -65.442403,-24.111408,0
              -65.443304,-24.110898,0
              -65.444098,-24.110604,0
              -65.445942,-24.110526,0
              -65.447702,-24.110624,0
              -65.447788,-24.111212,0
              -65.447208,-24.111486,0
              -65.446651,-24.111878,0
              -65.446329,-24.112446,0
              -65.445878,-24.11272,0
              -65.445343,-24.11268,0
              -65.44472,-24.112778,0
              -65.443884,-24.11319,0
              -65.442939,-24.11364,0
              -65.44221,-24.114326,0
              -65.441783,-24.114708,0
              -65.442043,-24.115428,0
              -65.44204,-24.116002,0
              -65.441414,-24.116383,0
              -65.440788,-24.11657,0
              -65.440578,-24.116858,0
              -65.440265,-24.117047,0
              -65.44013,-24.117171,0
              -65.44141,-24.11714,0
              -65.441587,-24.117571,0
              -65.441838,-24.11778,0
              -65.442033,-24.117721,0
              -65.443282,-24.117726,0
              -65.444218,-24.118018,0
              -65.44484,-24.1184,0
              -65.445152,-24.118595,0
              -65.445464,-24.118691,0
              -65.445775,-24.118882,0
              -65.446399,-24.119078,0
              -65.447022,-24.11946,0
              -65.447333,-24.11975,0
              -65.447748,-24.120035,0
              -65.448163,-24.120132,0
              -65.448786,-24.120518,0
              -65.449203,-24.120709,0
              -65.449515,-24.120904,0
              -65.449827,-24.120905,0
              -65.450139,-24.121001,0
              -65.450451,-24.121002,0
              -65.450969,-24.121194,0
              -65.451593,-24.12139,0
              -65.451904,-24.121581,0
              -65.452112,-24.121866,0
              -65.452008,-24.122154,0
              -65.452006,-24.122439,0
              -65.451694,-24.122537,0
              -65.451381,-24.122725,0
              -65.449713,-24.122719,0
              -65.44909,-24.122528,0
              -65.448571,-24.122332,0
              -65.447948,-24.12214,0
              -65.445865,-24.122132,0
              -65.445654,-24.122416,0
              -65.445342,-24.122514,0
              -65.445029,-24.122513,0
              -65.444717,-24.122606,0
              -65.444404,-24.122605,0
              -65.444092,-24.122604,0
              -65.44378,-24.122508,0
              -65.442843,-24.122505,0
              -65.442217,-24.122882,0
              -65.442425,-24.123171,0
              -65.442736,-24.123457,0
              -65.443048,-24.123458,0
              -65.443671,-24.123844,0
              -65.443836,-24.124459,0
              -65.444472,-24.12461,0
              -65.444598,-24.125685,0
              -65.445377,-24.126405,0
              -65.445374,-24.127118,0
              -65.444202,-24.127353,0
              -65.443682,-24.126995,0
              -65.443425,-24.126159,0
              -65.442645,-24.126273,0
              -65.441861,-24.126632,0
              -65.441733,-24.126153,0
              -65.441827,-24.124844,0
              -65.441741,-24.124794,0
              -65.441534,-24.124504,0
              -65.441222,-24.124219,0
              -65.4406,-24.123833,0
              -65.439663,-24.123829,0
              -65.43904,-24.123443,0
              -65.438626,-24.122869,0
              -65.438522,-24.122584,0
              -65.438317,-24.122294,0
              -65.438212,-24.122009,0
              -65.437901,-24.121814,0
              -65.437488,-24.121239,0
              -65.436716,-24.121234,0
              -65.435346,-24.121227,0
              -65.434558,-24.121183,0
              -65.433708,-24.121153,0
              -65.43258,-24.121094,0
              -65.431408,-24.121064,0
              -65.430191,-24.121123,0
              -65.429063,-24.121227,0
              -65.428321,-24.121316,0
              -65.427838,-24.121385,0
              -65.428315,-24.122624,0
              -65.428158,-24.12277,0
              -65.427729,-24.122575,0
              -65.427482,-24.121835,0
              -65.427297,-24.12145,0
              -65.426066,-24.12142,0
              -65.425558,-24.121395,0
              -65.425236,-24.121537,0
              -65.424351,-24.121625,0
              -65.423493,-24.121737,0
              -65.422286,-24.121669,0
              -65.421315,-24.121835,0
              -65.420471,-24.121781,0
              -65.41948,-24.121757,0
              -65.41816,-24.121703,0
              -65.416744,-24.121546,0
              -65.415483,-24.12161,0
              -65.413241,-24.121346,0
              -65.411106,-24.121277,0
              -65.410688,-24.121463,0
              -65.407254,-24.121874,0
              -65.40565,-24.121995,0
              -65.405499,-24.122251,0
              -65.40456,-24.123742,0
              -65.404539,-24.128233,0
              -65.403591,-24.131651,0
              -65.403576,-24.134856,0
              -65.400989,-24.140191,0
              -65.397699,-24.146168,0
              -65.39301,-24.152135,0
              -65.388333,-24.155967,0
              -65.387393,-24.157674,0
              -65.385788,-24.156597,0
              -65.385744,-24.15633,0
              -65.385666,-24.156048,0
              -65.385316,-24.156388,0
              -65.385138,-24.156581,0
              -65.384906,-24.156829,0
              -65.384585,-24.157185,0
              -65.383976,-24.15781,0
              -65.383739,-24.158054,0
              -65.382413,-24.159457,0
              -65.380822,-24.158784,0
              -65.378683,-24.158328,0
              -65.375364,-24.1582,0
              -65.373952,-24.156954,0
              -65.372953,-24.155573,0
              -65.373324,-24.15538,0
              -65.373977,-24.154594,0
              -65.374333,-24.154312,0
              -65.374619,-24.154384,0
              -65.374693,-24.154414,0
              -65.374845,-24.154419,0
              -65.375051,-24.154425,0
              -65.375593,-24.154257,0
              -65.375926,-24.15402,0
              -65.37616,-24.153593,0
              -65.376801,-24.152817,0
              -65.377429,-24.152064,0
              -65.378846,-24.15104,0
              -65.379685,-24.15031,0
              -65.381026,-24.149157,0
              -65.382753,-24.148005,0
              -65.385178,-24.146523,0
              -65.38608,-24.145439,0
              -65.38651,-24.144523,0
              -65.387285,-24.143514,0
              -65.387072,-24.142222,0
              -65.386897,-24.141817,0
              -65.386745,-24.141338,0
              -65.386509,-24.140598,0
              -65.386295,-24.139284,0
              -65.386388,-24.138191,0
              -65.386725,-24.136822,0
              -65.387566,-24.134482,0
              -65.388192,-24.13229,0
              -65.38893,-24.130301,0
              -65.389504,-24.130003,0
              -65.390274,-24.129746,0
              -65.390402,-24.129441,0
              -65.39024,-24.128888,0
              -65.390384,-24.12819,0
              -65.390392,-24.127762,0
              -65.390332,-24.127128,0
              -65.390264,-24.126592,0
              -65.39026,-24.126057,0
              -65.390338,-24.125183,0
              -65.390688,-24.124237,0
              -65.391066,-24.123539,0
              -65.3911,-24.123292,0
              -65.391242,-24.123006,0
              -65.391423,-24.122781,0
              -65.391576,-24.122372,0
              -65.391558,-24.122158,0
              -65.39165,-24.12177,0
              -65.391985,-24.121366,0
              -65.392355,-24.12093,0
              -65.3926,-24.120664,0
              -65.392747,-24.120309,0
              -65.39302,-24.12005,0
              -65.393288,-24.119932,0
              -65.393405,-24.11958,0
              -65.393865,-24.11916,0
              -65.394192,-24.118817,0
              -65.394647,-24.118709,0
              -65.395082,-24.118376,0
              -65.395588,-24.118087,0
              -65.396072,-24.117955,0
              -65.396901,-24.117505,0
              -65.397278,-24.117387,0
              -65.39761,-24.117074,0
              -65.398007,-24.116496,0
              -65.398223,-24.11602,0
              -65.398363,-24.115603,0
              -65.398446,-24.115054,0
              -65.398508,-24.114445,0
              -65.398508,-24.114307,0
              -65.398502,-24.107648,0
              -65.398187,-24.107138,0
              -65.397954,-24.106658,0
              -65.397657,-24.105571,0
              -65.397171,-24.104898,0
              -65.396758,-24.104071,0
              -65.395835,-24.102882,0
              -65.395428,-24.101847,0
              -65.39519,-24.100864,0
              -65.394922,-24.09971,0
              -65.395256,-24.099731,0
              -65.395875,-24.099601,0
              -65.396723,-24.099601,0
              -65.398124,-24.09921,0
              -65.399558,-24.09934,0
              -65.401123,-24.099014,0
              -65.402646,-24.098933,0
              -65.403355,-24.098778,0
              -65.403917,-24.098753,0
              -65.404406,-24.09877,0
              -65.405042,-24.098599,0
              -65.405498,-24.098468,0
              -65.405567,-24.09833,0
              -65.40573,-24.098195,0
              -65.405881,-24.098154,0
              -65.40606,-24.098179,0
              -65.406101,-24.098175,0
              -65.406394,-24.098118,0
              -65.406561,-24.098102,0
              -65.406903,-24.098053,0
              -65.407197,-24.09804,0
              -65.407539,-24.098045,0
              -65.407739,-24.098016,0
              -65.407975,-24.097918,0
              -65.408051,-24.097899,0
            </coordinates>
          </LinearRing>
        </outerBoundaryIs>
      </Polygon>
    </Placemark>
  </Document>
</kml>
