<?xml version="1.0" encoding="UTF-8"?>
<kml xmlns="http://www.opengis.net/kml/2.2">
  <Document>
    <name>Cria 1°</name>
    <Style id="poly-000000-1200-77-normal">
      <LineStyle>
        <color>ff000000</color>
        <width>1.2</width>
      </LineStyle>
      <PolyStyle>
        <color>4d000000</color>
        <fill>1</fill>
        <outline>1</outline>
      </PolyStyle>
    </Style>
    <Style id="poly-000000-1200-77-highlight">
      <LineStyle>
        <color>ff000000</color>
        <width>1.8</width>
      </LineStyle>
      <PolyStyle>
        <color>4d000000</color>
        <fill>1</fill>
        <outline>1</outline>
      </PolyStyle>
    </Style>
    <StyleMap id="poly-000000-1200-77">
      <Pair>
        <key>normal</key>
        <styleUrl>#poly-000000-1200-77-normal</styleUrl>
      </Pair>
      <Pair>
        <key>highlight</key>
        <styleUrl>#poly-000000-1200-77-highlight</styleUrl>
      </Pair>
    </StyleMap>
    <Placemark>
      <name>Cria 1°</name>
      <description><![CDATA[Descripción: <br>nombre: FC Belgrano<br>osm_id: 98030397<br>Georeferen: 1]]></description>
      <styleUrl>#poly-000000-1200-77</styleUrl>
      <ExtendedData>
        <Data name="Descripción">
          <value/>
        </Data>
        <Data name="nombre">
          <value>FC Belgrano</value>
        </Data>
        <Data name="osm_id">
          <value>98030397</value>
        </Data>
        <Data name="Georeferen">
          <value>1</value>
        </Data>
      </ExtendedData>
      <Polygon>
        <outerBoundaryIs>
          <LinearRing>
            <tessellate>1</tessellate>
            <coordinates>
              -65.292116,-24.187892,0
              -65.292177,-24.18765,0
              -65.292207,-24.187535,0
              -65.29222,-24.187497,0
              -65.292323,-24.187192,0
              -65.292338,-24.187148,0
              -65.292521,-24.186776,0
              -65.292686,-24.186518,0
              -65.29273,-24.186451,0
              -65.292865,-24.186282,0
              -65.292944,-24.186183,0
              -65.293168,-24.185947,0
              -65.293253,-24.185859,0
              -65.293325,-24.185804,0
              -65.293367,-24.185772,0
              -65.29354,-24.185639,0
              -65.293659,-24.185557,0
              -65.293771,-24.185481,0
              -65.293921,-24.185392,0
              -65.294068,-24.185313,0
              -65.294237,-24.185225,0
              -65.294727,-24.185013,0
              -65.295035,-24.18488,0
              -65.295332,-24.184751,0
              -65.295546,-24.184659,0
              -65.296367,-24.184304,0
              -65.296628,-24.184192,0
              -65.297236,-24.183929,0
              -65.297286,-24.183907,0
              -65.298079,-24.183566,0
              -65.298833,-24.183276,0
              -65.300338,-24.182714,0
              -65.301646,-24.182245,0
              -65.30208,-24.182081,0
              -65.302544,-24.1819,0
              -65.302981,-24.181763,0
              -65.303351,-24.181678,0
              -65.303665,-24.181606,0
              -65.304348,-24.181442,0
              -65.3048,-24.181332,0
              -65.305492,-24.181176,0
              -65.305603,-24.181153,0
              -65.305747,-24.181121,0
              -65.305798,-24.18111,0
              -65.306728,-24.180894,0
              -65.307091,-24.180841,0
              -65.307137,-24.18083,0
              -65.307147,-24.180828,0
              -65.307624,-24.18073,0
              -65.308444,-24.180552,0
              -65.308777,-24.180466,0
              -65.308874,-24.180387,0
              -65.309337,-24.18029,0
              -65.309535,-24.180259,0
              -65.309901,-24.180188,0
              -65.310108,-24.180148,0
              -65.310968,-24.180021,0
              -65.311036,-24.180011,0
              -65.311398,-24.179958,0
              -65.312106,-24.179854,0
              -65.31226,-24.179836,0
              -65.312752,-24.179778,0
              -65.313067,-24.179744,0
              -65.31322,-24.179736,0
              -65.313647,-24.179697,0
              -65.313831,-24.179681,0
              -65.314411,-24.179646,0
              -65.314704,-24.179634,0
              -65.314885,-24.179624,0
              -65.31495,-24.17962,0
              -65.315396,-24.179573,0
              -65.315938,-24.179528,0
              -65.316279,-24.179506,0
              -65.31669,-24.17949,0
              -65.317607,-24.179424,0
              -65.318561,-24.179353,0
              -65.31949,-24.179285,0
              -65.319918,-24.179252,0
              -65.321817,-24.179077,0
              -65.322856,-24.179004,0
              -65.323237,-24.178974,0
              -65.324009,-24.178924,0
              -65.324081,-24.179189,0
              -65.324094,-24.179268,0
              -65.324119,-24.179402,0
              -65.324092,-24.179637,0
              -65.324151,-24.179833,0
              -65.323861,-24.179928,0
              -65.323569,-24.180053,0
              -65.323329,-24.180162,0
              -65.322853,-24.18039,0
              -65.322446,-24.180681,0
              -65.322259,-24.180826,0
              -65.321937,-24.181059,0
              -65.321699,-24.181194,0
              -65.321541,-24.18127,0
              -65.321397,-24.181337,0
              -65.321432,-24.181361,0
              -65.321452,-24.181404,0
              -65.321457,-24.181443,0
              -65.321425,-24.181516,0
              -65.321211,-24.181672,0
              -65.320979,-24.181822,0
              -65.320919,-24.181865,0
              -65.320748,-24.181967,0
              -65.32049,-24.182143,0
              -65.3204,-24.18221,0
              -65.320299,-24.182275,0
              -65.320001,-24.182424,0
              -65.319751,-24.182532,0
              -65.319632,-24.182572,0
              -65.318882,-24.182955,0
              -65.318707,-24.183046,0
              -65.318455,-24.183173,0
              -65.318318,-24.18327,0
              -65.318247,-24.183354,0
              -65.318203,-24.183444,0
              -65.318171,-24.183528,0
              -65.318161,-24.183584,0
              -65.318162,-24.183637,0
              -65.318127,-24.183655,0
              -65.318032,-24.183688,0
              -65.317674,-24.183907,0
              -65.317612,-24.183944,0
              -65.317508,-24.184002,0
              -65.317408,-24.184056,0
              -65.317331,-24.184095,0
              -65.317251,-24.184138,0
              -65.317212,-24.184164,0
              -65.316158,-24.184643,0
              -65.31573,-24.184853,0
              -65.315352,-24.185034,0
              -65.314594,-24.1853,0
              -65.313986,-24.185554,0
              -65.313017,-24.185945,0
              -65.312373,-24.186243,0
              -65.31194,-24.186445,0
              -65.311879,-24.186461,0
              -65.311944,-24.186602,0
              -65.311646,-24.186767,0
              -65.311279,-24.187243,0
              -65.310991,-24.187748,0
              -65.310792,-24.188125,0
              -65.310606,-24.188258,0
              -65.310429,-24.188471,0
              -65.31026,-24.188669,0
              -65.310099,-24.188818,0
              -65.310145,-24.188939,0
              -65.310201,-24.18909,0
              -65.310234,-24.18919,0
              -65.310247,-24.189226,0
              -65.310274,-24.189308,0
              -65.31046,-24.189808,0
              -65.310356,-24.18979,0
              -65.309895,-24.189875,0
              -65.309686,-24.189873,0
              -65.309393,-24.189769,0
              -65.308782,-24.189583,0
              -65.30833,-24.189432,0
              -65.308024,-24.189335,0
              -65.307655,-24.189378,0
              -65.307285,-24.189459,0
              -65.306954,-24.189446,0
              -65.306637,-24.189466,0
              -65.306301,-24.189434,0
              -65.306062,-24.189388,0
              -65.305868,-24.189376,0
              -65.305604,-24.189319,0
              -65.305245,-24.189306,0
              -65.304882,-24.189378,0
              -65.304669,-24.189373,0
              -65.304381,-24.189444,0
              -65.304039,-24.189416,0
              -65.303695,-24.189436,0
              -65.303527,-24.189448,0
              -65.30339,-24.189484,0
              -65.303214,-24.189497,0
              -65.303056,-24.189535,0
              -65.302783,-24.189478,0
              -65.302582,-24.189487,0
              -65.302262,-24.189501,0
              -65.301966,-24.189482,0
              -65.301795,-24.189491,0
              -65.301629,-24.189437,0
              -65.301436,-24.189473,0
              -65.301175,-24.189416,0
              -65.300989,-24.189426,0
              -65.300775,-24.189425,0
              -65.300489,-24.189451,0
              -65.300285,-24.189499,0
              -65.300136,-24.189581,0
              -65.29988,-24.189594,0
              -65.299607,-24.189521,0
              -65.299524,-24.189501,0
              -65.299398,-24.189512,0
              -65.299295,-24.189483,0
              -65.299138,-24.189486,0
              -65.299056,-24.189504,0
              -65.298959,-24.189463,0
              -65.298862,-24.189464,0
              -65.298589,-24.189498,0
              -65.298404,-24.189514,0
              -65.298301,-24.1895,0
              -65.297997,-24.189426,0
              -65.29783,-24.189441,0
              -65.29771,-24.189425,0
              -65.297516,-24.189401,0
              -65.297369,-24.189369,0
              -65.297272,-24.189339,0
              -65.297148,-24.189366,0
              -65.297038,-24.189348,0
              -65.296915,-24.189352,0
              -65.296811,-24.189388,0
              -65.29668,-24.189406,0
              -65.296526,-24.189389,0
              -65.296357,-24.189371,0
              -65.296277,-24.189355,0
              -65.295924,-24.189487,0
              -65.295732,-24.189559,0
              -65.29536,-24.189675,0
              -65.295277,-24.189746,0
              -65.295061,-24.189806,0
              -65.29491,-24.189829,0
              -65.294837,-24.189875,0
              -65.29467,-24.189907,0
              -65.294478,-24.189877,0
              -65.294384,-24.189923,0
              -65.294248,-24.189967,0
              -65.29413,-24.18998,0
              -65.293926,-24.190031,0
              -65.293839,-24.190113,0
              -65.293738,-24.190125,0
              -65.293642,-24.190134,0
              -65.293556,-24.19023,0
              -65.293395,-24.190246,0
              -65.293263,-24.190288,0
              -65.293018,-24.190304,0
              -65.292813,-24.19027,0
              -65.292788,-24.190274,0
              -65.292766,-24.190283,0
              -65.292716,-24.190295,0
              -65.292669,-24.190311,0
              -65.292596,-24.190318,0
              -65.292565,-24.190313,0
              -65.292428,-24.189963,0
              -65.292219,-24.189422,0
              -65.292193,-24.18935,0
              -65.292134,-24.189135,0
              -65.292097,-24.188834,0
              -65.292067,-24.188594,0
              -65.292071,-24.188406,0
              -65.292074,-24.188219,0
              -65.292075,-24.188166,0
              -65.292097,-24.188005,0
              -65.292116,-24.187892,0
            </coordinates>
          </LinearRing>
        </outerBoundaryIs>
      </Polygon>
    </Placemark>
  </Document>
</kml>
