<?xml version="1.0" encoding="UTF-8"?>
<kml xmlns="http://www.opengis.net/kml/2.2">
  <Document>
    <name>Cria 49°</name>
    <Style id="poly-000000-1200-77-normal">
      <LineStyle>
        <color>ff000000</color>
        <width>1.2</width>
      </LineStyle>
      <PolyStyle>
        <color>4d000000</color>
        <fill>1</fill>
        <outline>1</outline>
      </PolyStyle>
    </Style>
    <Style id="poly-000000-1200-77-highlight">
      <LineStyle>
        <color>ff000000</color>
        <width>1.8</width>
      </LineStyle>
      <PolyStyle>
        <color>4d000000</color>
        <fill>1</fill>
        <outline>1</outline>
      </PolyStyle>
    </Style>
    <StyleMap id="poly-000000-1200-77">
      <Pair>
        <key>normal</key>
        <styleUrl>#poly-000000-1200-77-normal</styleUrl>
      </Pair>
      <Pair>
        <key>highlight</key>
        <styleUrl>#poly-000000-1200-77-highlight</styleUrl>
      </Pair>
    </StyleMap>
    <Placemark>
      <name>Cria 49°</name>
      <description><![CDATA[Descripción: <br>nombre: Félix de Olazábal<br>osm_id: 154230792<br>Georeferen: 49]]></description>
      <styleUrl>#poly-000000-1200-77</styleUrl>
      <ExtendedData>
        <Data name="Descripción">
          <value/>
        </Data>
        <Data name="nombre">
          <value>Félix de Olazábal</value>
        </Data>
        <Data name="osm_id">
          <value>154230792</value>
        </Data>
        <Data name="Georeferen">
          <value>49</value>
        </Data>
      </ExtendedData>
      <Polygon>
        <outerBoundaryIs>
          <LinearRing>
            <tessellate>1</tessellate>
            <coordinates>
              -65.358227,-24.167427,0
              -65.358321,-24.167452,0
              -65.35869,-24.167617,0
              -65.358856,-24.167696,0
              -65.359059,-24.167784,0
              -65.359699,-24.168041,0
              -65.359974,-24.168171,0
              -65.360325,-24.168356,0
              -65.360449,-24.168516,0
              -65.360562,-24.16876,0
              -65.360772,-24.168823,0
              -65.361113,-24.168956,0
              -65.361351,-24.169102,0
              -65.361457,-24.169324,0
              -65.361474,-24.169358,0
              -65.361626,-24.169549,0
              -65.361723,-24.169672,0
              -65.361846,-24.169716,0
              -65.362042,-24.1697,0
              -65.362267,-24.169587,0
              -65.36248,-24.16965,0
              -65.362759,-24.169752,0
              -65.363047,-24.169902,0
              -65.36323,-24.170086,0
              -65.363332,-24.170256,0
              -65.363354,-24.170415,0
              -65.363392,-24.170576,0
              -65.363437,-24.17072,0
              -65.363506,-24.170889,0
              -65.363724,-24.171036,0
              -65.363888,-24.171144,0
              -65.364182,-24.171197,0
              -65.364356,-24.171288,0
              -65.364539,-24.171426,0
              -65.364811,-24.171817,0
              -65.365056,-24.171876,0
              -65.365365,-24.171875,0
              -65.365594,-24.171948,0
              -65.365747,-24.171952,0
              -65.365972,-24.172073,0
              -65.366181,-24.172081,0
              -65.366568,-24.172177,0
              -65.366986,-24.172221,0
              -65.367201,-24.172074,0
              -65.367613,-24.172067,0
              -65.367841,-24.171999,0
              -65.368214,-24.171944,0
              -65.368556,-24.172054,0
              -65.368977,-24.172048,0
              -65.369152,-24.172148,0
              -65.369508,-24.17216,0
              -65.370044,-24.172176,0
              -65.370111,-24.172191,0
              -65.37027,-24.172191,0
              -65.370371,-24.172227,0
              -65.370523,-24.172227,0
              -65.370795,-24.172202,0
              -65.371268,-24.172078,0
              -65.371625,-24.171938,0
              -65.371834,-24.171866,0
              -65.371951,-24.171761,0
              -65.372021,-24.171665,0
              -65.372109,-24.171582,0
              -65.372499,-24.171377,0
              -65.372759,-24.1712,0
              -65.373308,-24.171142,0
              -65.373778,-24.170993,0
              -65.373864,-24.170947,0
              -65.373952,-24.1709,0
              -65.374128,-24.170876,0
              -65.374505,-24.17073,0
              -65.374803,-24.170852,0
              -65.375252,-24.17088,0
              -65.375463,-24.170957,0
              -65.375656,-24.17095,0
              -65.375865,-24.170994,0
              -65.376384,-24.171004,0
              -65.376579,-24.170963,0
              -65.376794,-24.170926,0
              -65.376999,-24.17092,0
              -65.377126,-24.170989,0
              -65.377332,-24.171126,0
              -65.377503,-24.171273,0
              -65.377637,-24.171448,0
              -65.37797,-24.17163,0
              -65.378139,-24.171692,0
              -65.378647,-24.171586,0
              -65.378885,-24.171602,0
              -65.379537,-24.171932,0
              -65.379573,-24.172018,0
              -65.378826,-24.172501,0
              -65.377778,-24.172711,0
              -65.377086,-24.172936,0
              -65.376989,-24.173323,0
              -65.377053,-24.173662,0
              -65.375877,-24.174113,0
              -65.375055,-24.174693,0
              -65.374797,-24.175015,0
              -65.373879,-24.175482,0
              -65.373331,-24.175821,0
              -65.372719,-24.176095,0
              -65.371832,-24.17632,0
              -65.371285,-24.176208,0
              -65.370705,-24.176272,0
              -65.370173,-24.176498,0
              -65.370205,-24.176739,0
              -65.370153,-24.176904,0
              -65.369991,-24.176965,0
              -65.369931,-24.177001,0
              -65.369673,-24.177058,0
              -65.369436,-24.177154,0
              -65.369242,-24.177287,0
              -65.369137,-24.177424,0
              -65.369041,-24.177726,0
              -65.369017,-24.17794,0
              -65.368884,-24.17794,0
              -65.368779,-24.178041,0
              -65.368658,-24.178061,0
              -65.368485,-24.178061,0
              -65.368344,-24.178016,0
              -65.368283,-24.177936,0
              -65.367623,-24.178556,0
              -65.36639,-24.179185,0
              -65.365842,-24.179426,0
              -65.365512,-24.179869,0
              -65.365182,-24.180288,0
              -65.364642,-24.180498,0
              -65.364058,-24.18074,0
              -65.363026,-24.181118,0
              -65.362309,-24.18161,0
              -65.361624,-24.181827,0
              -65.36123,-24.181908,0
              -65.360899,-24.182013,0
              -65.359787,-24.182528,0
              -65.359207,-24.18285,0
              -65.358498,-24.18306,0
              -65.358241,-24.183269,0
              -65.357757,-24.183398,0
              -65.357258,-24.183592,0
              -65.356903,-24.183608,0
              -65.356532,-24.183672,0
              -65.355775,-24.184059,0
              -65.355163,-24.184252,0
              -65.354099,-24.184849,0
              -65.352649,-24.185139,0
              -65.352037,-24.184945,0
              -65.351441,-24.185139,0
              -65.351038,-24.185219,0
              -65.35078,-24.185219,0
              -65.350103,-24.18559,0
              -65.3497,-24.18567,0
              -65.348927,-24.185316,0
              -65.348701,-24.184897,0
              -65.348105,-24.184865,0
              -65.347348,-24.185106,0
              -65.346913,-24.185396,0
              -65.345865,-24.185832,0
              -65.345398,-24.18625,0
              -65.344528,-24.186347,0
              -65.34369,-24.186718,0
              -65.342771,-24.186992,0
              -65.34195,-24.18704,0
              -65.340338,-24.187233,0
              -65.339742,-24.187459,0
              -65.339065,-24.187523,0
              -65.338308,-24.187769,0
              -65.337446,-24.188132,0
              -65.336664,-24.187781,0
              -65.336213,-24.187781,0
              -65.335649,-24.187685,0
              -65.335295,-24.187813,0
              -65.334839,-24.187769,0
              -65.334638,-24.187713,0
              -65.334568,-24.187532,0
              -65.334546,-24.187395,0
              -65.334503,-24.187052,0
              -65.334454,-24.186825,0
              -65.334385,-24.1867,0
              -65.334102,-24.186155,0
              -65.334092,-24.186016,0
              -65.33424,-24.185881,0
              -65.334385,-24.185692,0
              -65.334518,-24.18545,0
              -65.334549,-24.185366,0
              -65.334561,-24.185334,0
              -65.33457,-24.185272,0
              -65.334565,-24.18522,0
              -65.334446,-24.184987,0
              -65.334411,-24.18494,0
              -65.334372,-24.184908,0
              -65.334274,-24.18488,0
              -65.334217,-24.184872,0
              -65.333905,-24.184836,0
              -65.33363,-24.184787,0
              -65.333527,-24.184764,0
              -65.33355,-24.184744,0
              -65.333635,-24.184572,0
              -65.33357,-24.184511,0
              -65.332703,-24.183568,0
              -65.332574,-24.183436,0
              -65.332529,-24.18339,0
              -65.332397,-24.183255,0
              -65.332056,-24.182905,0
              -65.331986,-24.182833,0
              -65.331491,-24.182296,0
              -65.33135,-24.182141,0
              -65.331316,-24.182103,0
              -65.330983,-24.181735,0
              -65.330476,-24.18119,0
              -65.33045,-24.18116,0
              -65.330419,-24.181126,0
              -65.330258,-24.180947,0
              -65.329976,-24.180633,0
              -65.329934,-24.180585,0
              -65.32957,-24.18019,0
              -65.329458,-24.180069,0
              -65.329047,-24.179691,0
              -65.328952,-24.179599,0
              -65.328798,-24.179503,0
              -65.328669,-24.179433,0
              -65.328578,-24.179335,0
              -65.328505,-24.179148,0
              -65.328493,-24.179016,0
              -65.328492,-24.17898,0
              -65.327699,-24.17907,0
              -65.3274,-24.179102,0
              -65.326994,-24.179159,0
              -65.326597,-24.179221,0
              -65.326447,-24.179251,0
              -65.325313,-24.17949,0
              -65.324908,-24.179586,0
              -65.324151,-24.179833,0
              -65.324092,-24.179637,0
              -65.324119,-24.179402,0
              -65.324094,-24.179268,0
              -65.324081,-24.179189,0
              -65.324009,-24.178924,0
              -65.323978,-24.17882,0
              -65.324155,-24.178284,0
              -65.324178,-24.178169,0
              -65.324181,-24.178135,0
              -65.324178,-24.178109,0
              -65.324153,-24.178051,0
              -65.324126,-24.178008,0
              -65.324061,-24.177912,0
              -65.323976,-24.177827,0
              -65.323877,-24.177764,0
              -65.323765,-24.177725,0
              -65.323652,-24.177707,0
              -65.323463,-24.177704,0
              -65.323255,-24.177724,0
              -65.323007,-24.177736,0
              -65.322962,-24.177568,0
              -65.322832,-24.177107,0
              -65.322773,-24.176899,0
              -65.323761,-24.177062,0
              -65.326576,-24.177163,0
              -65.32831,-24.177077,0
              -65.329998,-24.176965,0
              -65.330838,-24.176881,0
              -65.33265,-24.176676,0
              -65.334215,-24.176455,0
              -65.335891,-24.176119,0
              -65.337374,-24.175628,0
              -65.338973,-24.174965,0
              -65.339861,-24.174505,0
              -65.340843,-24.174038,0
              -65.343255,-24.172979,0
              -65.344188,-24.17257,0
              -65.347024,-24.171991,0
              -65.347806,-24.171985,0
              -65.348357,-24.171758,0
              -65.348929,-24.171542,0
              -65.350073,-24.170968,0
              -65.350487,-24.170484,0
              -65.350902,-24.169969,0
              -65.351291,-24.169478,0
              -65.352071,-24.169031,0
              -65.352132,-24.169002,0
              -65.354566,-24.168139,0
              -65.356664,-24.166572,0
              -65.357781,-24.167171,0
              -65.357981,-24.167326,0
              -65.358142,-24.167412,0
              -65.358227,-24.167427,0
            </coordinates>
          </LinearRing>
        </outerBoundaryIs>
      </Polygon>
    </Placemark>
  </Document>
</kml>
