<?xml version="1.0" encoding="UTF-8"?>
<kml xmlns="http://www.opengis.net/kml/2.2">
  <Document>
    <name>Cria 50°</name>
    <Style id="poly-000000-1200-77-normal">
      <LineStyle>
        <color>ff000000</color>
        <width>1.2</width>
      </LineStyle>
      <PolyStyle>
        <color>4d000000</color>
        <fill>1</fill>
        <outline>1</outline>
      </PolyStyle>
    </Style>
    <Style id="poly-000000-1200-77-highlight">
      <LineStyle>
        <color>ff000000</color>
        <width>1.8</width>
      </LineStyle>
      <PolyStyle>
        <color>4d000000</color>
        <fill>1</fill>
        <outline>1</outline>
      </PolyStyle>
    </Style>
    <StyleMap id="poly-000000-1200-77">
      <Pair>
        <key>normal</key>
        <styleUrl>#poly-000000-1200-77-normal</styleUrl>
      </Pair>
      <Pair>
        <key>highlight</key>
        <styleUrl>#poly-000000-1200-77-highlight</styleUrl>
      </Pair>
    </StyleMap>
    <Placemark>
      <name>Cria 50°</name>
      <description><![CDATA[Descripción: <br>nombre: Río Grande<br>osm_id: 443622693<br>Georeferen: 50]]></description>
      <styleUrl>#poly-000000-1200-77</styleUrl>
      <ExtendedData>
        <Data name="Descripción">
          <value/>
        </Data>
        <Data name="nombre">
          <value>Río Grande</value>
        </Data>
        <Data name="osm_id">
          <value>443622693</value>
        </Data>
        <Data name="Georeferen">
          <value>50</value>
        </Data>
      </ExtendedData>
      <Polygon>
        <outerBoundaryIs>
          <LinearRing>
            <tessellate>1</tessellate>
            <coordinates>
              -65.262884,-24.19918,0
              -65.259832,-24.202787,0
              -65.25918,-24.203073,0
              -65.258653,-24.202536,0
              -65.257518,-24.201361,0
              -65.257314,-24.201145,0
              -65.256739,-24.200461,0
              -65.256632,-24.200255,0
              -65.256654,-24.20003,0
              -65.256788,-24.199717,0
              -65.25696,-24.199266,0
              -65.257008,-24.198777,0
              -65.256713,-24.197896,0
              -65.25411,-24.194525,0
              -65.253719,-24.194331,0
              -65.252714,-24.192988,0
              -65.252191,-24.192473,0
              -65.253689,-24.191412,0
              -65.259012,-24.187373,0
              -65.253889,-24.179328,0
              -65.255524,-24.17602,0
              -65.258265,-24.174484,0
              -65.261355,-24.171352,0
              -65.262823,-24.168133,0
              -65.267535,-24.16728,0
              -65.269595,-24.169629,0
              -65.27253,-24.173943,0
              -65.273469,-24.173678,0
              -65.275923,-24.179614,0
              -65.276211,-24.17947,0
              -65.277598,-24.177011,0
              -65.277764,-24.17691,0
              -65.277845,-24.176566,0
              -65.279614,-24.176079,0
              -65.281009,-24.175287,0
              -65.281156,-24.173551,0
              -65.281726,-24.17272,0
              -65.283642,-24.172351,0
              -65.284868,-24.172853,0
              -65.287741,-24.172158,0
              -65.287,-24.171941,0
              -65.286404,-24.17199,0
              -65.285493,-24.171715,0
              -65.284956,-24.17134,0
              -65.282969,-24.169368,0
              -65.282221,-24.16735,0
              -65.281914,-24.165769,0
              -65.283548,-24.164799,0
              -65.283744,-24.163528,0
              -65.284861,-24.161047,0
              -65.284789,-24.161027,0
              -65.284273,-24.159367,0
              -65.284644,-24.158578,0
              -65.284902,-24.157579,0
              -65.285208,-24.156435,0
              -65.286175,-24.156853,0
              -65.286774,-24.157115,0
              -65.288105,-24.157736,0
              -65.288718,-24.158297,0
              -65.289205,-24.159541,0
              -65.288675,-24.161021,0
              -65.287714,-24.163278,0
              -65.287956,-24.165967,0
              -65.288532,-24.166151,0
              -65.288989,-24.162046,0
              -65.290464,-24.161119,0
              -65.290437,-24.158594,0
              -65.289965,-24.156992,0
              -65.288572,-24.15623,0
              -65.289992,-24.155459,0
              -65.288351,-24.151663,0
              -65.28751,-24.151166,0
              -65.287897,-24.151168,0
              -65.28816,-24.151274,0
              -65.288332,-24.151401,0
              -65.288606,-24.151351,0
              -65.288751,-24.151392,0
              -65.28894,-24.151366,0
              -65.289078,-24.151477,0
              -65.289245,-24.151506,0
              -65.289317,-24.151596,0
              -65.289412,-24.151613,0
              -65.289893,-24.15212,0
              -65.29016,-24.152124,0
              -65.290215,-24.152106,0
              -65.290442,-24.152034,0
              -65.290908,-24.151972,0
              -65.290934,-24.15216,0
              -65.290954,-24.15251,0
              -65.290957,-24.152727,0
              -65.290995,-24.153002,0
              -65.291016,-24.1532,0
              -65.291044,-24.153415,0
              -65.291024,-24.153595,0
              -65.291178,-24.153763,0
              -65.291268,-24.153843,0
              -65.29132,-24.154149,0
              -65.291319,-24.154226,0
              -65.291341,-24.154378,0
              -65.291297,-24.154517,0
              -65.291277,-24.154631,0
              -65.291305,-24.154796,0
              -65.291307,-24.154948,0
              -65.2914,-24.155343,0
              -65.291415,-24.155514,0
              -65.291455,-24.155712,0
              -65.291494,-24.155856,0
              -65.291526,-24.15593,0
              -65.291557,-24.156004,0
              -65.29166,-24.156148,0
              -65.291758,-24.156246,0
              -65.29181,-24.156422,0
              -65.291873,-24.156611,0
              -65.291862,-24.156711,0
              -65.291812,-24.156885,0
              -65.29177,-24.157014,0
              -65.291751,-24.157107,0
              -65.291782,-24.157547,0
              -65.291701,-24.15773,0
              -65.291699,-24.157888,0
              -65.291913,-24.158404,0
              -65.29204,-24.158755,0
              -65.292058,-24.159151,0
              -65.292014,-24.1594,0
              -65.292274,-24.159606,0
              -65.292214,-24.159927,0
              -65.292395,-24.160159,0
              -65.29266,-24.160464,0
              -65.292892,-24.160701,0
              -65.292969,-24.160856,0
              -65.293002,-24.161084,0
              -65.292998,-24.161213,0
              -65.293325,-24.161782,0
              -65.293442,-24.162085,0
              -65.293719,-24.162228,0
              -65.293796,-24.162268,0
              -65.293887,-24.16241,0
              -65.293983,-24.162558,0
              -65.294041,-24.162851,0
              -65.294174,-24.163029,0
              -65.294227,-24.16319,0
              -65.294477,-24.163456,0
              -65.294578,-24.163852,0
              -65.294686,-24.164244,0
              -65.294697,-24.164281,0
              -65.29469,-24.164446,0
              -65.294683,-24.165118,0
              -65.294758,-24.165185,0
              -65.294762,-24.165329,0
              -65.294892,-24.165606,0
              -65.294783,-24.165821,0
              -65.294884,-24.16626,0
              -65.294856,-24.166667,0
              -65.294777,-24.166853,0
              -65.294793,-24.16713,0
              -65.294844,-24.167305,0
              -65.294828,-24.167507,0
              -65.294769,-24.167837,0
              -65.294801,-24.168396,0
              -65.294647,-24.169286,0
              -65.294475,-24.169774,0
              -65.294369,-24.170293,0
              -65.294309,-24.170572,0
              -65.293961,-24.171314,0
              -65.293956,-24.1715,0
              -65.293884,-24.171871,0
              -65.293784,-24.172031,0
              -65.293708,-24.172396,0
              -65.293667,-24.172621,0
              -65.293558,-24.173213,0
              -65.293519,-24.1734,0
              -65.293445,-24.173744,0
              -65.293358,-24.173906,0
              -65.293073,-24.173985,0
              -65.292955,-24.174331,0
              -65.292818,-24.17455,0
              -65.292739,-24.174675,0
              -65.292719,-24.174818,0
              -65.29258,-24.175157,0
              -65.292588,-24.175523,0
              -65.292742,-24.176322,0
              -65.292828,-24.176695,0
              -65.29281,-24.177062,0
              -65.292943,-24.177612,0
              -65.293102,-24.177902,0
              -65.293126,-24.178601,0
              -65.293145,-24.179572,0
              -65.29318,-24.179854,0
              -65.293096,-24.180339,0
              -65.293221,-24.180896,0
              -65.293174,-24.181254,0
              -65.29316,-24.181368,0
              -65.292874,-24.181467,0
              -65.291194,-24.182178,0
              -65.289102,-24.183063,0
              -65.287763,-24.183629,0
              -65.28744,-24.183775,0
              -65.285398,-24.184697,0
              -65.283799,-24.185419,0
              -65.282397,-24.186053,0
              -65.281848,-24.186277,0
              -65.281456,-24.186453,0
              -65.281023,-24.186614,0
              -65.28032,-24.186902,0
              -65.279802,-24.187114,0
              -65.278618,-24.187598,0
              -65.277955,-24.187869,0
              -65.276244,-24.18861,0
              -65.276013,-24.188716,0
              -65.275267,-24.188896,0
              -65.274809,-24.189232,0
              -65.273852,-24.189646,0
              -65.270207,-24.191843,0
              -65.267865,-24.193937,0
              -65.26768,-24.194103,0
              -65.267352,-24.194396,0
              -65.2666,-24.195069,0
              -65.264804,-24.196898,0
              -65.264373,-24.197336,0
              -65.263869,-24.19796,0
              -65.262884,-24.19918,0
            </coordinates>
          </LinearRing>
        </outerBoundaryIs>
      </Polygon>
    </Placemark>
  </Document>
</kml>
