<?xml version="1.0" encoding="UTF-8"?>
<kml xmlns="http://www.opengis.net/kml/2.2">
  <Document>
    <name>Cria 6°</name>
    <Style id="poly-000000-1200-77-normal">
      <LineStyle>
        <color>ff000000</color>
        <width>1.2</width>
      </LineStyle>
      <PolyStyle>
        <color>4d000000</color>
        <fill>1</fill>
        <outline>1</outline>
      </PolyStyle>
    </Style>
    <Style id="poly-000000-1200-77-highlight">
      <LineStyle>
        <color>ff000000</color>
        <width>1.8</width>
      </LineStyle>
      <PolyStyle>
        <color>4d000000</color>
        <fill>1</fill>
        <outline>1</outline>
      </PolyStyle>
    </Style>
    <StyleMap id="poly-000000-1200-77">
      <Pair>
        <key>normal</key>
        <styleUrl>#poly-000000-1200-77-normal</styleUrl>
      </Pair>
      <Pair>
        <key>highlight</key>
        <styleUrl>#poly-000000-1200-77-highlight</styleUrl>
      </Pair>
    </StyleMap>
    <Placemark>
      <name>Cria 6°</name>
      <description><![CDATA[Descripción: <br>nombre: FC Belgrano<br>osm_id: 98030399<br>Georeferen: 6]]></description>
      <styleUrl>#poly-000000-1200-77</styleUrl>
      <ExtendedData>
        <Data name="Descripción">
          <value/>
        </Data>
        <Data name="nombre">
          <value>FC Belgrano</value>
        </Data>
        <Data name="osm_id">
          <value>98030399</value>
        </Data>
        <Data name="Georeferen">
          <value>6</value>
        </Data>
      </ExtendedData>
      <Polygon>
        <outerBoundaryIs>
          <LinearRing>
            <tessellate>1</tessellate>
            <coordinates>
              -65.293005,-24.192209,0
              -65.293006,-24.192266,0
              -65.293003,-24.192541,0
              -65.292981,-24.192748,0
              -65.292966,-24.192888,0
              -65.292868,-24.193315,0
              -65.292837,-24.193451,0
              -65.292745,-24.193698,0
              -65.292703,-24.193811,0
              -65.292519,-24.194179,0
              -65.292408,-24.194403,0
              -65.29203,-24.194932,0
              -65.291982,-24.195,0
              -65.291193,-24.195964,0
              -65.290865,-24.196418,0
              -65.29064,-24.196729,0
              -65.290403,-24.197057,0
              -65.29034,-24.197141,0
              -65.289803,-24.197861,0
              -65.289094,-24.198814,0
              -65.288748,-24.199278,0
              -65.288522,-24.199582,0
              -65.288377,-24.199776,0
              -65.288159,-24.200069,0
              -65.288104,-24.200146,0
              -65.288068,-24.2002,0
              -65.287765,-24.200634,0
              -65.287521,-24.200984,0
              -65.287358,-24.201194,0
              -65.287129,-24.20149,0
              -65.28689,-24.201871,0
              -65.286635,-24.202279,0
              -65.286525,-24.202454,0
              -65.286319,-24.202786,0
              -65.286142,-24.203071,0
              -65.286046,-24.203226,0
              -65.285857,-24.203542,0
              -65.285446,-24.20423,0
              -65.28543,-24.204256,0
              -65.284975,-24.205002,0
              -65.284795,-24.205296,0
              -65.284662,-24.205517,0
              -65.284568,-24.20567,0
              -65.284533,-24.205725,0
              -65.2845,-24.205783,0
              -65.284242,-24.206227,0
              -65.283846,-24.206909,0
              -65.283382,-24.207709,0
              -65.282617,-24.208992,0
              -65.282583,-24.209046,0
              -65.282098,-24.209867,0
              -65.281882,-24.210228,0
              -65.28165,-24.210618,0
              -65.281175,-24.211434,0
              -65.281086,-24.211586,0
              -65.280579,-24.212423,0
              -65.280169,-24.213059,0
              -65.28004,-24.21323,0
              -65.279985,-24.213303,0
              -65.279827,-24.213159,0
              -65.278932,-24.21228,0
              -65.278547,-24.211931,0
              -65.27822,-24.211584,0
              -65.278088,-24.211399,0
              -65.276888,-24.210229,0
              -65.275924,-24.209316,0
              -65.274561,-24.208026,0
              -65.27462,-24.207926,0
              -65.275039,-24.207171,0
              -65.275445,-24.2064,0
              -65.275901,-24.205618,0
              -65.275952,-24.205544,0
              -65.275996,-24.205464,0
              -65.27628,-24.204938,0
              -65.276553,-24.20444,0
              -65.276594,-24.204341,0
              -65.27679,-24.203971,0
              -65.276946,-24.203683,0
              -65.277188,-24.203273,0
              -65.277342,-24.203008,0
              -65.277683,-24.202404,0
              -65.278022,-24.201844,0
              -65.278251,-24.201472,0
              -65.278372,-24.201267,0
              -65.278413,-24.20119,0
              -65.278591,-24.200881,0
              -65.27868,-24.200724,0
              -65.278828,-24.200463,0
              -65.278941,-24.200274,0
              -65.279212,-24.199825,0
              -65.279385,-24.199538,0
              -65.279407,-24.1995,0
              -65.279579,-24.199204,0
              -65.279762,-24.198895,0
              -65.279947,-24.198581,0
              -65.280032,-24.198474,0
              -65.281297,-24.197315,0
              -65.282042,-24.196651,0
              -65.282768,-24.19601,0
              -65.28288,-24.195909,0
              -65.282978,-24.19582,0
              -65.282675,-24.195556,0
              -65.283157,-24.195565,0
              -65.283345,-24.195286,0
              -65.28357,-24.194941,0
              -65.283836,-24.194549,0
              -65.28427,-24.193892,0
              -65.28405,-24.193679,0
              -65.283594,-24.193462,0
              -65.283466,-24.193398,0
              -65.283634,-24.193095,0
              -65.283616,-24.193013,0
              -65.28349,-24.192863,0
              -65.283875,-24.192185,0
              -65.283783,-24.192137,0
              -65.284573,-24.191413,0
              -65.285304,-24.190829,0
              -65.285376,-24.190809,0
              -65.285408,-24.190772,0
              -65.285551,-24.190603,0
              -65.28569,-24.190395,0
              -65.285845,-24.190149,0
              -65.285988,-24.189898,0
              -65.286295,-24.189962,0
              -65.286831,-24.189238,0
              -65.286566,-24.189048,0
              -65.286897,-24.188651,0
              -65.287339,-24.188206,0
              -65.287393,-24.188237,0
              -65.287432,-24.188291,0
              -65.287445,-24.188341,0
              -65.287529,-24.188416,0
              -65.287578,-24.188448,0
              -65.287638,-24.188453,0
              -65.287739,-24.18844,0
              -65.287835,-24.188459,0
              -65.287899,-24.188499,0
              -65.287948,-24.188546,0
              -65.287972,-24.188588,0
              -65.28799,-24.188633,0
              -65.288018,-24.188682,0
              -65.288083,-24.188721,0
              -65.288139,-24.188735,0
              -65.28821,-24.188752,0
              -65.288319,-24.188751,0
              -65.288431,-24.188794,0
              -65.288508,-24.188855,0
              -65.288574,-24.18891,0
              -65.288608,-24.188945,0
              -65.288673,-24.189004,0
              -65.288785,-24.189012,0
              -65.288846,-24.189034,0
              -65.288887,-24.189072,0
              -65.28899,-24.189168,0
              -65.289098,-24.189199,0
              -65.289165,-24.189245,0
              -65.289199,-24.189292,0
              -65.289314,-24.189352,0
              -65.289436,-24.189454,0
              -65.289547,-24.189484,0
              -65.289604,-24.189499,0
              -65.289641,-24.189525,0
              -65.289701,-24.189573,0
              -65.289818,-24.189617,0
              -65.289914,-24.189617,0
              -65.290019,-24.189632,0
              -65.290083,-24.189649,0
              -65.290135,-24.189667,0
              -65.290199,-24.189697,0
              -65.290295,-24.189759,0
              -65.290385,-24.189856,0
              -65.290516,-24.189923,0
              -65.290594,-24.189934,0
              -65.290686,-24.189893,0
              -65.290741,-24.189878,0
              -65.29081,-24.189879,0
              -65.290884,-24.189905,0
              -65.290928,-24.189938,0
              -65.29096,-24.18998,0
              -65.291052,-24.190044,0
              -65.291107,-24.190048,0
              -65.291163,-24.190042,0
              -65.291211,-24.190013,0
              -65.291279,-24.189981,0
              -65.291317,-24.189976,0
              -65.29136,-24.189979,0
              -65.291424,-24.190003,0
              -65.291465,-24.190038,0
              -65.291488,-24.190072,0
              -65.291513,-24.190121,0
              -65.29155,-24.190153,0
              -65.291601,-24.190162,0
              -65.291642,-24.190151,0
              -65.291666,-24.190124,0
              -65.291744,-24.190126,0
              -65.291789,-24.19014,0
              -65.291831,-24.190163,0
              -65.291924,-24.190234,0
              -65.292013,-24.190265,0
              -65.292112,-24.190272,0
              -65.292228,-24.190265,0
              -65.292279,-24.190238,0
              -65.292328,-24.190222,0
              -65.292386,-24.190224,0
              -65.292436,-24.190244,0
              -65.292475,-24.190283,0
              -65.292521,-24.190304,0
              -65.292565,-24.190313,0
              -65.292786,-24.190878,0
              -65.292856,-24.191158,0
              -65.292944,-24.191599,0
              -65.292979,-24.191834,0
              -65.292995,-24.192037,0
              -65.293003,-24.192147,0
              -65.293005,-24.192209,0
            </coordinates>
          </LinearRing>
        </outerBoundaryIs>
      </Polygon>
    </Placemark>
  </Document>
</kml>
