<?xml version="1.0" encoding="UTF-8"?>
<kml xmlns="http://www.opengis.net/kml/2.2">
  <Document>
    <name>Cria 3°</name>
    <Style id="poly-000000-1200-77-normal">
      <LineStyle>
        <color>ff000000</color>
        <width>1.2</width>
      </LineStyle>
      <PolyStyle>
        <color>4d000000</color>
        <fill>1</fill>
        <outline>1</outline>
      </PolyStyle>
    </Style>
    <Style id="poly-000000-1200-77-highlight">
      <LineStyle>
        <color>ff000000</color>
        <width>1.8</width>
      </LineStyle>
      <PolyStyle>
        <color>4d000000</color>
        <fill>1</fill>
        <outline>1</outline>
      </PolyStyle>
    </Style>
    <StyleMap id="poly-000000-1200-77">
      <Pair>
        <key>normal</key>
        <styleUrl>#poly-000000-1200-77-normal</styleUrl>
      </Pair>
      <Pair>
        <key>highlight</key>
        <styleUrl>#poly-000000-1200-77-highlight</styleUrl>
      </Pair>
    </StyleMap>
    <Placemark>
      <name>Cria 3°</name>
      <description><![CDATA[Descripción: <br>osm_id: 626267778<br>Georeferen: 3]]></description>
      <styleUrl>#poly-000000-1200-77</styleUrl>
      <ExtendedData>
        <Data name="Descripción">
          <value/>
        </Data>
        <Data name="osm_id">
          <value>626267778</value>
        </Data>
        <Data name="Georeferen">
          <value>3</value>
        </Data>
      </ExtendedData>
      <Polygon>
        <outerBoundaryIs>
          <LinearRing>
            <tessellate>1</tessellate>
            <coordinates>
              -65.29316,-24.181368,0
              -65.293174,-24.181254,0
              -65.293221,-24.180896,0
              -65.293096,-24.180339,0
              -65.29318,-24.179854,0
              -65.293145,-24.179572,0
              -65.293126,-24.178601,0
              -65.293102,-24.177902,0
              -65.292943,-24.177612,0
              -65.29281,-24.177062,0
              -65.292828,-24.176695,0
              -65.292742,-24.176322,0
              -65.292588,-24.175523,0
              -65.29258,-24.175157,0
              -65.292719,-24.174818,0
              -65.292739,-24.174675,0
              -65.292818,-24.17455,0
              -65.292955,-24.174331,0
              -65.293073,-24.173985,0
              -65.293358,-24.173906,0
              -65.293445,-24.173744,0
              -65.293519,-24.1734,0
              -65.293558,-24.173213,0
              -65.293667,-24.172621,0
              -65.293708,-24.172396,0
              -65.293784,-24.172031,0
              -65.293884,-24.171871,0
              -65.293956,-24.1715,0
              -65.293961,-24.171314,0
              -65.294309,-24.170572,0
              -65.294369,-24.170293,0
              -65.294475,-24.169774,0
              -65.294647,-24.169286,0
              -65.294801,-24.168396,0
              -65.294769,-24.167837,0
              -65.294828,-24.167507,0
              -65.294844,-24.167305,0
              -65.294793,-24.16713,0
              -65.294777,-24.166853,0
              -65.294856,-24.166667,0
              -65.294884,-24.16626,0
              -65.294783,-24.165821,0
              -65.294892,-24.165606,0
              -65.294762,-24.165329,0
              -65.294758,-24.165185,0
              -65.294683,-24.165118,0
              -65.29469,-24.164446,0
              -65.294697,-24.164281,0
              -65.294686,-24.164244,0
              -65.294578,-24.163852,0
              -65.294477,-24.163456,0
              -65.294227,-24.16319,0
              -65.294174,-24.163029,0
              -65.294041,-24.162851,0
              -65.293983,-24.162558,0
              -65.293887,-24.16241,0
              -65.293796,-24.162268,0
              -65.293719,-24.162228,0
              -65.293442,-24.162085,0
              -65.293325,-24.161782,0
              -65.292998,-24.161213,0
              -65.293002,-24.161084,0
              -65.292969,-24.160856,0
              -65.292892,-24.160701,0
              -65.29266,-24.160464,0
              -65.292395,-24.160159,0
              -65.292214,-24.159927,0
              -65.292274,-24.159606,0
              -65.292014,-24.1594,0
              -65.292058,-24.159151,0
              -65.29204,-24.158755,0
              -65.291913,-24.158404,0
              -65.291699,-24.157888,0
              -65.291701,-24.15773,0
              -65.291782,-24.157547,0
              -65.291751,-24.157107,0
              -65.29177,-24.157014,0
              -65.291812,-24.156885,0
              -65.291862,-24.156711,0
              -65.291873,-24.156611,0
              -65.29181,-24.156422,0
              -65.291758,-24.156246,0
              -65.29166,-24.156148,0
              -65.291557,-24.156004,0
              -65.291526,-24.15593,0
              -65.291494,-24.155856,0
              -65.291455,-24.155712,0
              -65.291415,-24.155514,0
              -65.2914,-24.155343,0
              -65.291307,-24.154948,0
              -65.291305,-24.154796,0
              -65.291277,-24.154631,0
              -65.291297,-24.154517,0
              -65.291341,-24.154378,0
              -65.291319,-24.154226,0
              -65.29132,-24.154149,0
              -65.291268,-24.153843,0
              -65.291178,-24.153763,0
              -65.291024,-24.153595,0
              -65.291044,-24.153415,0
              -65.291016,-24.1532,0
              -65.290995,-24.153002,0
              -65.290957,-24.152727,0
              -65.290954,-24.15251,0
              -65.290934,-24.15216,0
              -65.290908,-24.151972,0
              -65.291143,-24.151912,0
              -65.291562,-24.152041,0
              -65.292578,-24.152122,0
              -65.293238,-24.152202,0
              -65.293996,-24.152234,0
              -65.294463,-24.152154,0
              -65.295107,-24.15217,0
              -65.295747,-24.152511,0
              -65.29474,-24.153637,0
              -65.294924,-24.154076,0
              -65.295744,-24.155427,0
              -65.297576,-24.157569,0
              -65.297576,-24.161015,0
              -65.297407,-24.166413,0
              -65.297499,-24.166455,0
              -65.297563,-24.166513,0
              -65.297713,-24.166557,0
              -65.297906,-24.166596,0
              -65.298148,-24.166641,0
              -65.298287,-24.166709,0
              -65.298436,-24.166752,0
              -65.298498,-24.166713,0
              -65.298554,-24.166642,0
              -65.298635,-24.166436,0
              -65.298747,-24.166277,0
              -65.29875,-24.166162,0
              -65.298801,-24.165991,0
              -65.298906,-24.165834,0
              -65.299002,-24.165768,0
              -65.299112,-24.165751,0
              -65.299238,-24.165766,0
              -65.299351,-24.165582,0
              -65.29941,-24.165578,0
              -65.299488,-24.165536,0
              -65.299648,-24.16536,0
              -65.299716,-24.165291,0
              -65.29986,-24.165254,0
              -65.299994,-24.165262,0
              -65.30022,-24.165303,0
              -65.300324,-24.165264,0
              -65.300603,-24.165071,0
              -65.300713,-24.165049,0
              -65.300858,-24.165051,0
              -65.30099,-24.165073,0
              -65.301054,-24.165064,0
              -65.301035,-24.164945,0
              -65.301035,-24.164773,0
              -65.301059,-24.164559,0
              -65.301104,-24.16437,0
              -65.301329,-24.163868,0
              -65.301503,-24.16344,0
              -65.301584,-24.163019,0
              -65.30161,-24.162529,0
              -65.301678,-24.162272,0
              -65.301793,-24.161927,0
              -65.301814,-24.161607,0
              -65.302013,-24.161448,0
              -65.302321,-24.161306,0
              -65.302482,-24.161149,0
              -65.302573,-24.160936,0
              -65.302767,-24.160824,0
              -65.303029,-24.16075,0
              -65.303204,-24.160674,0
              -65.303362,-24.160547,0
              -65.303539,-24.160412,0
              -65.303802,-24.160398,0
              -65.304024,-24.160366,0
              -65.304086,-24.160292,0
              -65.3041,-24.160187,0
              -65.304142,-24.160043,0
              -65.304261,-24.159832,0
              -65.304405,-24.159598,0
              -65.304422,-24.15947,0
              -65.30444,-24.159199,0
              -65.304483,-24.159115,0
              -65.304633,-24.158866,0
              -65.304792,-24.158567,0
              -65.304834,-24.158447,0
              -65.304759,-24.158315,0
              -65.304727,-24.158124,0
              -65.304741,-24.157997,0
              -65.304792,-24.157796,0
              -65.304845,-24.157747,0
              -65.304966,-24.157806,0
              -65.305124,-24.15788,0
              -65.305301,-24.157865,0
              -65.305599,-24.157836,0
              -65.305795,-24.157738,0
              -65.306058,-24.157483,0
              -65.306253,-24.157348,0
              -65.306532,-24.157199,0
              -65.306658,-24.157055,0
              -65.306739,-24.156954,0
              -65.306734,-24.157246,0
              -65.306728,-24.157451,0
              -65.306827,-24.157652,0
              -65.306886,-24.157926,0
              -65.307053,-24.158146,0
              -65.307163,-24.158225,0
              -65.307241,-24.158389,0
              -65.307401,-24.158479,0
              -65.307624,-24.158577,0
              -65.307876,-24.158851,0
              -65.308075,-24.159057,0
              -65.308152,-24.159333,0
              -65.308246,-24.159446,0
              -65.308496,-24.159686,0
              -65.308761,-24.159771,0
              -65.307973,-24.16162,0
              -65.307969,-24.161874,0
              -65.307858,-24.162423,0
              -65.307649,-24.162946,0
              -65.307508,-24.163621,0
              -65.307316,-24.16407,0
              -65.307093,-24.164276,0
              -65.306826,-24.164514,0
              -65.306501,-24.164777,0
              -65.30648,-24.165216,0
              -65.306541,-24.165542,0
              -65.306536,-24.165868,0
              -65.306479,-24.1663,0
              -65.306404,-24.166667,0
              -65.306305,-24.167046,0
              -65.306323,-24.167453,0
              -65.306324,-24.167485,0
              -65.306365,-24.167618,0
              -65.306543,-24.167816,0
              -65.306619,-24.167979,0
              -65.306601,-24.168096,0
              -65.306583,-24.168372,0
              -65.306673,-24.168627,0
              -65.306771,-24.168763,0
              -65.306822,-24.169005,0
              -65.306877,-24.16926,0
              -65.306886,-24.16956,0
              -65.307053,-24.169971,0
              -65.307131,-24.170426,0
              -65.307258,-24.170819,0
              -65.30724,-24.170929,0
              -65.307093,-24.17102,0
              -65.307077,-24.171342,0
              -65.307146,-24.171598,0
              -65.307223,-24.171767,0
              -65.307404,-24.172115,0
              -65.307534,-24.172421,0
              -65.307647,-24.172832,0
              -65.307618,-24.173016,0
              -65.307512,-24.173232,0
              -65.307353,-24.173443,0
              -65.307352,-24.173456,0
              -65.307311,-24.173803,0
              -65.307306,-24.173817,0
              -65.307215,-24.17391,0
              -65.30721,-24.174036,0
              -65.307267,-24.174204,0
              -65.307299,-24.174334,0
              -65.307258,-24.17454,0
              -65.307191,-24.174731,0
              -65.30694,-24.175606,0
              -65.306581,-24.17571,0
              -65.304526,-24.176421,0
              -65.30132,-24.177803,0
              -65.300434,-24.178186,0
              -65.29961,-24.178542,0
              -65.295034,-24.18053,0
              -65.293428,-24.181227,0
              -65.29316,-24.181368,0
            </coordinates>
          </LinearRing>
        </outerBoundaryIs>
      </Polygon>
    </Placemark>
  </Document>
</kml>
