<?xml version="1.0" encoding="UTF-8"?>
<kml xmlns="http://www.opengis.net/kml/2.2">
  <Document>
    <name>Cria 32°</name>
    <Style id="poly-000000-1200-77-normal">
      <LineStyle>
        <color>ff000000</color>
        <width>1.2</width>
      </LineStyle>
      <PolyStyle>
        <color>4d000000</color>
        <fill>1</fill>
        <outline>1</outline>
      </PolyStyle>
    </Style>
    <Style id="poly-000000-1200-77-highlight">
      <LineStyle>
        <color>ff000000</color>
        <width>1.8</width>
      </LineStyle>
      <PolyStyle>
        <color>4d000000</color>
        <fill>1</fill>
        <outline>1</outline>
      </PolyStyle>
    </Style>
    <StyleMap id="poly-000000-1200-77">
      <Pair>
        <key>normal</key>
        <styleUrl>#poly-000000-1200-77-normal</styleUrl>
      </Pair>
      <Pair>
        <key>highlight</key>
        <styleUrl>#poly-000000-1200-77-highlight</styleUrl>
      </Pair>
    </StyleMap>
    <Placemark>
      <name>Cria 32°</name>
      <description><![CDATA[Descripción: <br>nombre: FC Belgrano<br>osm_id: 527563252<br>Georeferen: 32]]></description>
      <styleUrl>#poly-000000-1200-77</styleUrl>
      <ExtendedData>
        <Data name="Descripción">
          <value/>
        </Data>
        <Data name="nombre">
          <value>FC Belgrano</value>
        </Data>
        <Data name="osm_id">
          <value>527563252</value>
        </Data>
        <Data name="Georeferen">
          <value>32</value>
        </Data>
      </ExtendedData>
      <Polygon>
        <outerBoundaryIs>
          <LinearRing>
            <tessellate>1</tessellate>
            <coordinates>
              -65.276439,-24.217561,0
              -65.274931,-24.217991,0
              -65.274711,-24.218049,0
              -65.273724,-24.21836,0
              -65.27269,-24.21865,0
              -65.272472,-24.218714,0
              -65.272297,-24.218772,0
              -65.272109,-24.21884,0
              -65.271895,-24.218921,0
              -65.271549,-24.219083,0
              -65.271287,-24.219232,0
              -65.271064,-24.219376,0
              -65.270882,-24.219512,0
              -65.270314,-24.219966,0
              -65.269967,-24.22024,0
              -65.269767,-24.220391,0
              -65.269564,-24.22054,0
              -65.269165,-24.220836,0
              -65.268373,-24.221431,0
              -65.268201,-24.221562,0
              -65.267668,-24.221942,0
              -65.26751,-24.222054,0
              -65.26235,-24.225886,0
              -65.257169,-24.229786,0
              -65.257113,-24.229828,0
              -65.257043,-24.22974,0
              -65.25701,-24.229721,0
              -65.256689,-24.229668,0
              -65.256565,-24.229623,0
              -65.256458,-24.229596,0
              -65.256236,-24.229541,0
              -65.255946,-24.22957,0
              -65.255657,-24.229631,0
              -65.255453,-24.229577,0
              -65.255224,-24.229426,0
              -65.255238,-24.229165,0
              -65.25523,-24.228992,0
              -65.255187,-24.2289,0
              -65.255042,-24.228804,0
              -65.254811,-24.228715,0
              -65.254566,-24.228546,0
              -65.254374,-24.228289,0
              -65.254232,-24.228186,0
              -65.253981,-24.228142,0
              -65.253479,-24.228075,0
              -65.25321,-24.228054,0
              -65.252874,-24.228009,0
              -65.252582,-24.228058,0
              -65.252363,-24.228256,0
              -65.252166,-24.228405,0
              -65.251947,-24.228546,0
              -65.251848,-24.228602,0
              -65.251622,-24.228582,0
              -65.251397,-24.228553,0
              -65.251119,-24.228484,0
              -65.250923,-24.228399,0
              -65.250776,-24.228288,0
              -65.250539,-24.228024,0
              -65.250432,-24.227936,0
              -65.250292,-24.227819,0
              -65.250162,-24.227725,0
              -65.250009,-24.227658,0
              -65.24981,-24.22764,0
              -65.249645,-24.227584,0
              -65.249476,-24.227496,0
              -65.2491,-24.227287,0
              -65.24898,-24.227099,0
              -65.248928,-24.226959,0
              -65.2489,-24.226826,0
              -65.248822,-24.22653,0
              -65.248713,-24.226383,0
              -65.248594,-24.226276,0
              -65.248393,-24.226215,0
              -65.248157,-24.226167,0
              -65.247911,-24.226147,0
              -65.247722,-24.226063,0
              -65.24741,-24.226092,0
              -65.24687,-24.226244,0
              -65.246538,-24.226311,0
              -65.246237,-24.226303,0
              -65.245988,-24.226201,0
              -65.245699,-24.226007,0
              -65.24536,-24.225972,0
              -65.244887,-24.226043,0
              -65.244635,-24.226093,0
              -65.244402,-24.226019,0
              -65.244203,-24.225862,0
              -65.24408,-24.225696,0
              -65.244039,-24.225581,0
              -65.244084,-24.225438,0
              -65.244116,-24.225261,0
              -65.244102,-24.225187,0
              -65.244032,-24.22504,0
              -65.244005,-24.224931,0
              -65.243955,-24.22482,0
              -65.243909,-24.224664,0
              -65.243881,-24.224571,0
              -65.243753,-24.224238,0
              -65.243651,-24.223847,0
              -65.243565,-24.223582,0
              -65.243506,-24.223426,0
              -65.24342,-24.223353,0
              -65.243227,-24.223299,0
              -65.243087,-24.22323,0
              -65.24298,-24.223157,0
              -65.242868,-24.223015,0
              -65.242674,-24.222775,0
              -65.242498,-24.222604,0
              -65.242294,-24.222497,0
              -65.242052,-24.222404,0
              -65.241741,-24.222404,0
              -65.241344,-24.222506,0
              -65.235793,-24.217032,0
              -65.235638,-24.216962,0
              -65.235533,-24.216819,0
              -65.235527,-24.216682,0
              -65.235833,-24.216407,0
              -65.23636,-24.215915,0
              -65.237864,-24.215261,0
              -65.238868,-24.214964,0
              -65.239497,-24.21443,0
              -65.240604,-24.214126,0
              -65.241921,-24.21319,0
              -65.242365,-24.212874,0
              -65.243384,-24.212149,0
              -65.24399,-24.211655,0
              -65.24527,-24.210793,0
              -65.247869,-24.209492,0
              -65.248947,-24.209053,0
              -65.250179,-24.2084,0
              -65.253122,-24.206657,0
              -65.254092,-24.206,0
              -65.254869,-24.205557,0
              -65.255926,-24.205005,0
              -65.257078,-24.203994,0
              -65.259832,-24.202787,0
              -65.262884,-24.19918,0
              -65.264603,-24.19912,0
              -65.264786,-24.199137,0
              -65.264936,-24.199172,0
              -65.265188,-24.199284,0
              -65.265462,-24.199458,0
              -65.265947,-24.199876,0
              -65.267697,-24.201566,0
              -65.2686,-24.202424,0
              -65.273446,-24.206988,0
              -65.274549,-24.208014,0
              -65.275924,-24.209316,0
              -65.276888,-24.210229,0
              -65.278088,-24.211399,0
              -65.27822,-24.211584,0
              -65.278547,-24.211931,0
              -65.278932,-24.21228,0
              -65.279827,-24.213159,0
              -65.279987,-24.213304,0
              -65.279898,-24.213419,0
              -65.279737,-24.213615,0
              -65.279606,-24.213776,0
              -65.27931,-24.21409,0
              -65.279241,-24.214162,0
              -65.27919,-24.214205,0
              -65.278844,-24.214493,0
              -65.278469,-24.214793,0
              -65.278444,-24.214813,0
              -65.278243,-24.21495,0
              -65.278088,-24.215055,0
              -65.277812,-24.215234,0
              -65.277658,-24.215334,0
              -65.277393,-24.215491,0
              -65.277133,-24.215607,0
              -65.27707,-24.215712,0
              -65.277035,-24.21576,0
              -65.276918,-24.215892,0
              -65.276439,-24.217561,0
            </coordinates>
          </LinearRing>
        </outerBoundaryIs>
      </Polygon>
    </Placemark>
  </Document>
</kml>
