<?xml version="1.0" encoding="UTF-8"?>
<kml xmlns="http://www.opengis.net/kml/2.2">
  <Document>
    <name>Cria 55°</name>
    <Style id="poly-000000-1200-77-normal">
      <LineStyle>
        <color>ff000000</color>
        <width>1.2</width>
      </LineStyle>
      <PolyStyle>
        <color>4d000000</color>
        <fill>1</fill>
        <outline>1</outline>
      </PolyStyle>
    </Style>
    <Style id="poly-000000-1200-77-highlight">
      <LineStyle>
        <color>ff000000</color>
        <width>1.8</width>
      </LineStyle>
      <PolyStyle>
        <color>4d000000</color>
        <fill>1</fill>
        <outline>1</outline>
      </PolyStyle>
    </Style>
    <StyleMap id="poly-000000-1200-77">
      <Pair>
        <key>normal</key>
        <styleUrl>#poly-000000-1200-77-normal</styleUrl>
      </Pair>
      <Pair>
        <key>highlight</key>
        <styleUrl>#poly-000000-1200-77-highlight</styleUrl>
      </Pair>
    </StyleMap>
    <Placemark>
      <name>Cria 55°</name>
      <description><![CDATA[Descripción: <br>nombre: Río Grande<br>osm_id: 443601160<br>Georeferen: 55]]></description>
      <styleUrl>#poly-000000-1200-77</styleUrl>
      <ExtendedData>
        <Data name="Descripción">
          <value/>
        </Data>
        <Data name="nombre">
          <value>Río Grande</value>
        </Data>
        <Data name="osm_id">
          <value>443601160</value>
        </Data>
        <Data name="Georeferen">
          <value>55</value>
        </Data>
      </ExtendedData>
      <Polygon>
        <outerBoundaryIs>
          <LinearRing>
            <tessellate>1</tessellate>
            <coordinates>
              -65.307311,-24.173803,0
              -65.307352,-24.173456,0
              -65.307353,-24.173443,0
              -65.307512,-24.173232,0
              -65.307618,-24.173016,0
              -65.307647,-24.172832,0
              -65.307534,-24.172421,0
              -65.307404,-24.172115,0
              -65.307223,-24.171767,0
              -65.307146,-24.171598,0
              -65.307077,-24.171342,0
              -65.307093,-24.17102,0
              -65.30724,-24.170929,0
              -65.307258,-24.170819,0
              -65.307131,-24.170426,0
              -65.307053,-24.169971,0
              -65.306886,-24.16956,0
              -65.306877,-24.16926,0
              -65.306822,-24.169005,0
              -65.306771,-24.168763,0
              -65.306673,-24.168627,0
              -65.306583,-24.168372,0
              -65.306601,-24.168096,0
              -65.306619,-24.167979,0
              -65.306543,-24.167816,0
              -65.306365,-24.167618,0
              -65.306324,-24.167485,0
              -65.306323,-24.167453,0
              -65.306305,-24.167046,0
              -65.306404,-24.166667,0
              -65.306479,-24.1663,0
              -65.306536,-24.165868,0
              -65.306541,-24.165542,0
              -65.30648,-24.165216,0
              -65.306501,-24.164777,0
              -65.306826,-24.164514,0
              -65.307093,-24.164276,0
              -65.307316,-24.16407,0
              -65.307508,-24.163621,0
              -65.307649,-24.162946,0
              -65.307858,-24.162423,0
              -65.307969,-24.161874,0
              -65.307973,-24.16162,0
              -65.308761,-24.159771,0
              -65.309201,-24.158737,0
              -65.313369,-24.156473,0
              -65.315884,-24.158638,0
              -65.320579,-24.159449,0
              -65.325213,-24.158979,0
              -65.331565,-24.158666,0
              -65.337401,-24.158979,0
              -65.343858,-24.158819,0
              -65.344287,-24.160174,0
              -65.346336,-24.159911,0
              -65.352101,-24.157857,0
              -65.352667,-24.158872,0
              -65.3531,-24.159534,0
              -65.353214,-24.1597,0
              -65.353345,-24.159905,0
              -65.353607,-24.160271,0
              -65.353669,-24.160366,0
              -65.353862,-24.160661,0
              -65.353999,-24.160898,0
              -65.354131,-24.161095,0
              -65.354255,-24.161285,0
              -65.354343,-24.161458,0
              -65.354488,-24.161571,0
              -65.354638,-24.161719,0
              -65.354683,-24.161912,0
              -65.354826,-24.162046,0
              -65.355005,-24.162118,0
              -65.355091,-24.162222,0
              -65.355291,-24.162462,0
              -65.355405,-24.162618,0
              -65.355527,-24.16276,0
              -65.355594,-24.162818,0
              -65.355626,-24.162878,0
              -65.35556,-24.16294,0
              -65.35552,-24.163026,0
              -65.355445,-24.163038,0
              -65.355191,-24.163047,0
              -65.355058,-24.163101,0
              -65.354884,-24.163172,0
              -65.354717,-24.163257,0
              -65.354639,-24.163318,0
              -65.354583,-24.163399,0
              -65.354508,-24.163518,0
              -65.354464,-24.163536,0
              -65.354367,-24.163522,0
              -65.354238,-24.163541,0
              -65.354109,-24.163565,0
              -65.356664,-24.166572,0
              -65.354566,-24.168139,0
              -65.352132,-24.169002,0
              -65.352071,-24.169031,0
              -65.351291,-24.169478,0
              -65.350902,-24.169969,0
              -65.350487,-24.170484,0
              -65.350073,-24.170968,0
              -65.348929,-24.171542,0
              -65.348357,-24.171758,0
              -65.347806,-24.171985,0
              -65.347024,-24.171991,0
              -65.344188,-24.17257,0
              -65.343255,-24.172979,0
              -65.340843,-24.174038,0
              -65.339861,-24.174505,0
              -65.338973,-24.174965,0
              -65.337374,-24.175628,0
              -65.335891,-24.176119,0
              -65.334215,-24.176455,0
              -65.33265,-24.176676,0
              -65.330838,-24.176881,0
              -65.329998,-24.176965,0
              -65.32831,-24.177077,0
              -65.326576,-24.177163,0
              -65.323761,-24.177062,0
              -65.322419,-24.17684,0
              -65.32158,-24.176622,0
              -65.320523,-24.176301,0
              -65.318825,-24.175662,0
              -65.317699,-24.175329,0
              -65.316511,-24.175058,0
              -65.315555,-24.174909,0
              -65.315046,-24.17483,0
              -65.313949,-24.174734,0
              -65.313556,-24.174743,0
              -65.312377,-24.174772,0
              -65.311171,-24.174872,0
              -65.310038,-24.17498,0
              -65.308094,-24.175272,0
              -65.307703,-24.175385,0
              -65.30694,-24.175606,0
              -65.307191,-24.174731,0
              -65.307258,-24.17454,0
              -65.307299,-24.174334,0
              -65.307267,-24.174204,0
              -65.30721,-24.174036,0
              -65.307215,-24.17391,0
              -65.307306,-24.173817,0
              -65.307311,-24.173803,0
            </coordinates>
          </LinearRing>
        </outerBoundaryIs>
      </Polygon>
    </Placemark>
  </Document>
</kml>
