<?xml version="1.0" encoding="UTF-8"?>
<kml xmlns="http://www.opengis.net/kml/2.2">
  <Document>
    <name>Cria 30°</name>
    <Style id="poly-000000-1200-77-normal">
      <LineStyle>
        <color>ff000000</color>
        <width>1.2</width>
      </LineStyle>
      <PolyStyle>
        <color>4d000000</color>
        <fill>1</fill>
        <outline>1</outline>
      </PolyStyle>
    </Style>
    <Style id="poly-000000-1200-77-highlight">
      <LineStyle>
        <color>ff000000</color>
        <width>1.8</width>
      </LineStyle>
      <PolyStyle>
        <color>4d000000</color>
        <fill>1</fill>
        <outline>1</outline>
      </PolyStyle>
    </Style>
    <StyleMap id="poly-000000-1200-77">
      <Pair>
        <key>normal</key>
        <styleUrl>#poly-000000-1200-77-normal</styleUrl>
      </Pair>
      <Pair>
        <key>highlight</key>
        <styleUrl>#poly-000000-1200-77-highlight</styleUrl>
      </Pair>
    </StyleMap>
    <Placemark>
      <name>Cria 30°</name>
      <description><![CDATA[Descripción: <br>nombre: Río San Francisco<br>osm_id: 154327250<br>Georeferen: 30]]></description>
      <styleUrl>#poly-000000-1200-77</styleUrl>
      <ExtendedData>
        <Data name="Descripción">
          <value/>
        </Data>
        <Data name="nombre">
          <value>Río San Francisco</value>
        </Data>
        <Data name="osm_id">
          <value>154327250</value>
        </Data>
        <Data name="Georeferen">
          <value>30</value>
        </Data>
      </ExtendedData>
      <Polygon>
        <outerBoundaryIs>
          <LinearRing>
            <tessellate>1</tessellate>
            <coordinates>
              -65.300635,-24.201847,0
              -65.300036,-24.201832,0
              -65.300013,-24.201966,0
              -65.299718,-24.202262,0
              -65.298413,-24.201178,0
              -65.298552,-24.201032,0
              -65.298987,-24.200597,0
              -65.299094,-24.200492,0
              -65.299154,-24.200431,0
              -65.299522,-24.200055,0
              -65.29957,-24.200008,0
              -65.299983,-24.199587,0
              -65.300015,-24.199557,0
              -65.300432,-24.19916,0
              -65.300504,-24.199095,0
              -65.300586,-24.199033,0
              -65.300595,-24.19897,0
              -65.300452,-24.19842,0
              -65.300308,-24.197831,0
              -65.30029,-24.197743,0
              -65.300179,-24.197159,0
              -65.30015,-24.197028,0
              -65.30004,-24.196524,0
              -65.300033,-24.196484,0
              -65.299987,-24.196248,0
              -65.299945,-24.196042,0
              -65.299918,-24.195904,0
              -65.299858,-24.195611,0
              -65.299776,-24.1952,0
              -65.29972,-24.194943,0
              -65.300353,-24.194536,0
              -65.301383,-24.193953,0
              -65.302334,-24.193397,0
              -65.30261,-24.193216,0
              -65.303062,-24.192993,0
              -65.303845,-24.192588,0
              -65.304802,-24.192297,0
              -65.305814,-24.192014,0
              -65.306368,-24.191901,0
              -65.306838,-24.191836,0
              -65.308122,-24.191613,0
              -65.308254,-24.192083,0
              -65.308321,-24.192384,0
              -65.30834,-24.192474,0
              -65.308336,-24.192557,0
              -65.308402,-24.192834,0
              -65.308542,-24.193144,0
              -65.308583,-24.193507,0
              -65.308755,-24.194044,0
              -65.308841,-24.194366,0
              -65.308982,-24.195086,0
              -65.309071,-24.195451,0
              -65.309229,-24.196151,0
              -65.309336,-24.196659,0
              -65.309387,-24.196844,0
              -65.309462,-24.197256,0
              -65.309577,-24.197735,0
              -65.309662,-24.19811,0
              -65.309699,-24.198252,0
              -65.309826,-24.198857,0
              -65.309923,-24.199257,0
              -65.309934,-24.199392,0
              -65.3099,-24.199455,0
              -65.310188,-24.200126,0
              -65.310103,-24.200211,0
              -65.309982,-24.200417,0
              -65.30954,-24.200651,0
              -65.309139,-24.200997,0
              -65.308935,-24.201163,0
              -65.308697,-24.201365,0
              -65.308503,-24.201553,0
              -65.308099,-24.201873,0
              -65.307891,-24.202032,0
              -65.307685,-24.202171,0
              -65.307629,-24.202198,0
              -65.307586,-24.202212,0
              -65.307546,-24.202209,0
              -65.307523,-24.202189,0
              -65.307415,-24.202096,0
              -65.306745,-24.202098,0
              -65.306099,-24.202089,0
              -65.306166,-24.202395,0
              -65.305499,-24.202368,0
              -65.304879,-24.202343,0
              -65.30429,-24.202319,0
              -65.303653,-24.202293,0
              -65.303051,-24.202269,0
              -65.302468,-24.202235,0
              -65.301852,-24.202197,0
              -65.30126,-24.202168,0
              -65.300622,-24.202133,0
              -65.300635,-24.201847,0
            </coordinates>
          </LinearRing>
        </outerBoundaryIs>
      </Polygon>
    </Placemark>
  </Document>
</kml>
