<?xml version="1.0" encoding="UTF-8"?>
<kml xmlns="http://www.opengis.net/kml/2.2">
  <Document>
    <name>Sub Cria San Fransisco de Alava</name>
    <Style id="poly-000000-1200-77-normal">
      <LineStyle>
        <color>ff000000</color>
        <width>1.2</width>
      </LineStyle>
      <PolyStyle>
        <color>4d000000</color>
        <fill>1</fill>
        <outline>1</outline>
      </PolyStyle>
    </Style>
    <Style id="poly-000000-1200-77-highlight">
      <LineStyle>
        <color>ff000000</color>
        <width>1.8</width>
      </LineStyle>
      <PolyStyle>
        <color>4d000000</color>
        <fill>1</fill>
        <outline>1</outline>
      </PolyStyle>
    </Style>
    <StyleMap id="poly-000000-1200-77">
      <Pair>
        <key>normal</key>
        <styleUrl>#poly-000000-1200-77-normal</styleUrl>
      </Pair>
      <Pair>
        <key>highlight</key>
        <styleUrl>#poly-000000-1200-77-highlight</styleUrl>
      </Pair>
    </StyleMap>
    <Placemark>
      <name>Sub Cria San Fransisco de Alava</name>
      <description><![CDATA[Descripción: <br>nombre: Manco Capac<br>osm_id: 155335336<br>Georeferen: SCSFA]]></description>
      <styleUrl>#poly-000000-1200-77</styleUrl>
      <ExtendedData>
        <Data name="Descripción">
          <value/>
        </Data>
        <Data name="nombre">
          <value>Manco Capac</value>
        </Data>
        <Data name="osm_id">
          <value>155335336</value>
        </Data>
        <Data name="Georeferen">
          <value>SCSFA</value>
        </Data>
      </ExtendedData>
      <Polygon>
        <outerBoundaryIs>
          <LinearRing>
            <tessellate>1</tessellate>
            <coordinates>
              -65.274549,-24.208014,0
              -65.273446,-24.206988,0
              -65.2686,-24.202424,0
              -65.267697,-24.201566,0
              -65.265947,-24.199876,0
              -65.265462,-24.199458,0
              -65.265188,-24.199284,0
              -65.264936,-24.199172,0
              -65.264786,-24.199137,0
              -65.264603,-24.19912,0
              -65.262884,-24.19918,0
              -65.263869,-24.19796,0
              -65.264373,-24.197336,0
              -65.264804,-24.196898,0
              -65.2666,-24.195069,0
              -65.267352,-24.194396,0
              -65.26768,-24.194103,0
              -65.267865,-24.193937,0
              -65.270207,-24.191843,0
              -65.273852,-24.189646,0
              -65.274809,-24.189232,0
              -65.275267,-24.188896,0
              -65.276013,-24.188716,0
              -65.276244,-24.18861,0
              -65.277955,-24.187869,0
              -65.278618,-24.187598,0
              -65.279802,-24.187114,0
              -65.28032,-24.186902,0
              -65.281023,-24.186614,0
              -65.281456,-24.186453,0
              -65.281848,-24.186277,0
              -65.282397,-24.186053,0
              -65.283799,-24.185419,0
              -65.284388,-24.186153,0
              -65.284584,-24.186353,0
              -65.284606,-24.186403,0
              -65.284606,-24.186464,0
              -65.284567,-24.186535,0
              -65.284554,-24.186582,0
              -65.284574,-24.186671,0
              -65.284636,-24.186787,0
              -65.284756,-24.186921,0
              -65.284815,-24.187004,0
              -65.284909,-24.187077,0
              -65.285125,-24.187181,0
              -65.285202,-24.187199,0
              -65.285853,-24.187718,0
              -65.285972,-24.187753,0
              -65.286102,-24.187824,0
              -65.286176,-24.187855,0
              -65.286248,-24.187866,0
              -65.286406,-24.187847,0
              -65.286504,-24.18783,0
              -65.286612,-24.18785,0
              -65.286722,-24.187918,0
              -65.286788,-24.187998,0
              -65.286855,-24.188065,0
              -65.286931,-24.18813,0
              -65.287049,-24.188175,0
              -65.287176,-24.188198,0
              -65.287256,-24.188196,0
              -65.287339,-24.188206,0
              -65.286897,-24.188651,0
              -65.286566,-24.189048,0
              -65.286831,-24.189238,0
              -65.286295,-24.189962,0
              -65.285988,-24.189898,0
              -65.285845,-24.190149,0
              -65.28569,-24.190395,0
              -65.285551,-24.190603,0
              -65.285408,-24.190772,0
              -65.285376,-24.190809,0
              -65.285304,-24.190829,0
              -65.284573,-24.191413,0
              -65.283783,-24.192137,0
              -65.283875,-24.192185,0
              -65.28349,-24.192863,0
              -65.283616,-24.193013,0
              -65.283634,-24.193095,0
              -65.283466,-24.193398,0
              -65.283594,-24.193462,0
              -65.28405,-24.193679,0
              -65.28427,-24.193892,0
              -65.283836,-24.194549,0
              -65.28357,-24.194941,0
              -65.283345,-24.195286,0
              -65.283157,-24.195565,0
              -65.282675,-24.195556,0
              -65.282978,-24.19582,0
              -65.28288,-24.195909,0
              -65.282768,-24.19601,0
              -65.282042,-24.196651,0
              -65.281297,-24.197315,0
              -65.280032,-24.198474,0
              -65.279947,-24.198581,0
              -65.279762,-24.198895,0
              -65.279579,-24.199204,0
              -65.279407,-24.1995,0
              -65.279385,-24.199538,0
              -65.279212,-24.199825,0
              -65.278941,-24.200274,0
              -65.278828,-24.200463,0
              -65.27868,-24.200724,0
              -65.278591,-24.200881,0
              -65.278413,-24.20119,0
              -65.278372,-24.201267,0
              -65.278251,-24.201472,0
              -65.278022,-24.201844,0
              -65.277683,-24.202404,0
              -65.277342,-24.203008,0
              -65.277188,-24.203273,0
              -65.276946,-24.203683,0
              -65.27679,-24.203971,0
              -65.276594,-24.204341,0
              -65.276553,-24.20444,0
              -65.27628,-24.204938,0
              -65.275996,-24.205464,0
              -65.275952,-24.205544,0
              -65.275901,-24.205618,0
              -65.275445,-24.2064,0
              -65.275039,-24.207171,0
              -65.27462,-24.207926,0
              -65.274561,-24.208026,0
              -65.274549,-24.208014,0
            </coordinates>
          </LinearRing>
        </outerBoundaryIs>
      </Polygon>
    </Placemark>
  </Document>
</kml>
