<?xml version="1.0" encoding="UTF-8"?>
<kml xmlns="http://www.opengis.net/kml/2.2">
  <Document>
    <name>Sub Cria Lozano</name>
    <Style id="poly-000000-1200-77-normal">
      <LineStyle>
        <color>ff000000</color>
        <width>1.2</width>
      </LineStyle>
      <PolyStyle>
        <color>4d000000</color>
        <fill>1</fill>
        <outline>1</outline>
      </PolyStyle>
    </Style>
    <Style id="poly-000000-1200-77-highlight">
      <LineStyle>
        <color>ff000000</color>
        <width>1.8</width>
      </LineStyle>
      <PolyStyle>
        <color>4d000000</color>
        <fill>1</fill>
        <outline>1</outline>
      </PolyStyle>
    </Style>
    <StyleMap id="poly-000000-1200-77">
      <Pair>
        <key>normal</key>
        <styleUrl>#poly-000000-1200-77-normal</styleUrl>
      </Pair>
      <Pair>
        <key>highlight</key>
        <styleUrl>#poly-000000-1200-77-highlight</styleUrl>
      </Pair>
    </StyleMap>
    <Placemark>
      <name>Sub Cria Lozano</name>
      <description><![CDATA[Descripción: <br>nombre: Yungas<br>Georeferen: SCL]]></description>
      <styleUrl>#poly-000000-1200-77</styleUrl>
      <ExtendedData>
        <Data name="Descripción">
          <value/>
        </Data>
        <Data name="nombre">
          <value>Yungas</value>
        </Data>
        <Data name="Georeferen">
          <value>SCL</value>
        </Data>
      </ExtendedData>
      <Polygon>
        <outerBoundaryIs>
          <LinearRing>
            <tessellate>1</tessellate>
            <coordinates>
              -65.394922,-24.09971,0
              -65.394732,-24.098893,0
              -65.394497,-24.09721,0
              -65.394372,-24.095554,0
              -65.394306,-24.094321,0
              -65.394189,-24.093427,0
              -65.394299,-24.092508,0
              -65.39431,-24.091692,0
              -65.39449,-24.091186,0
              -65.394469,-24.09029,0
              -65.39426,-24.089817,0
              -65.394071,-24.089451,0
              -65.394047,-24.088815,0
              -65.394248,-24.088472,0
              -65.394334,-24.087886,0
              -65.39425,-24.087327,0
              -65.394157,-24.086284,0
              -65.393957,-24.085183,0
              -65.393853,-24.084042,0
              -65.39387,-24.082181,0
              -65.3942,-24.080389,0
              -65.394558,-24.078983,0
              -65.395016,-24.07785,0
              -65.395303,-24.076794,0
              -65.396483,-24.074737,0
              -65.397813,-24.072739,0
              -65.398957,-24.071146,0
              -65.399507,-24.069194,0
              -65.39989,-24.067356,0
              -65.40038,-24.065674,0
              -65.400857,-24.064871,0
              -65.401141,-24.064224,0
              -65.401426,-24.06345,0
              -65.401968,-24.06201,0
              -65.402292,-24.060865,0
              -65.402745,-24.059504,0
              -65.403112,-24.058157,0
              -65.403359,-24.057248,0
              -65.403558,-24.056441,0
              -65.403768,-24.055967,0
              -65.404574,-24.054835,0
              -65.405266,-24.054141,0
              -65.406055,-24.053546,0
              -65.406824,-24.053108,0
              -65.407369,-24.052693,0
              -65.407695,-24.052143,0
              -65.407837,-24.051643,0
              -65.4077,-24.051162,0
              -65.407456,-24.050508,0
              -65.406675,-24.049834,0
              -65.405084,-24.048238,0
              -65.403075,-24.046616,0
              -65.401526,-24.044818,0
              -65.400591,-24.042154,0
              -65.400152,-24.03839,0
              -65.399292,-24.036185,0
              -65.398104,-24.034503,0
              -65.396636,-24.0324,0
              -65.395449,-24.029886,0
              -65.396894,-24.028834,0
              -65.398222,-24.03055,0
              -65.401576,-24.035811,0
              -65.403951,-24.038333,0
              -65.404396,-24.0405,0
              -65.405583,-24.041123,0
              -65.407096,-24.044921,0
              -65.410323,-24.04445,0
              -65.414992,-24.045531,0
              -65.418644,-24.047214,0
              -65.418927,-24.047291,0
              -65.419253,-24.047436,0
              -65.419515,-24.047581,0
              -65.420517,-24.048184,0
              -65.420523,-24.048013,0
              -65.420536,-24.047832,0
              -65.420516,-24.04759,0
              -65.420366,-24.047385,0
              -65.420226,-24.047146,0
              -65.420114,-24.046952,0
              -65.420112,-24.046531,0
              -65.420386,-24.046016,0
              -65.420511,-24.04547,0
              -65.420702,-24.044864,0
              -65.420838,-24.04438,0
              -65.421291,-24.043619,0
              -65.421578,-24.042989,0
              -65.421611,-24.042852,0
              -65.421696,-24.042501,0
              -65.421831,-24.042192,0
              -65.42204,-24.041809,0
              -65.422279,-24.041324,0
              -65.422366,-24.040964,0
              -65.422329,-24.040511,0
              -65.42253,-24.040006,0
              -65.422814,-24.039634,0
              -65.423016,-24.039129,0
              -65.423631,-24.038029,0
              -65.423914,-24.037272,0
              -65.424295,-24.036544,0
              -65.424908,-24.035737,0
              -65.425765,-24.034797,0
              -65.426618,-24.033955,0
              -65.427103,-24.033372,0
              -65.427341,-24.033067,0
              -65.427379,-24.032916,0
              -65.427325,-24.032675,0
              -65.427427,-24.032549,0
              -65.427889,-24.032124,0
              -65.428066,-24.031928,0
              -65.428079,-24.031597,0
              -65.428203,-24.031158,0
              -65.428693,-24.030501,0
              -65.429561,-24.029634,0
              -65.430477,-24.02841,0
              -65.430943,-24.027746,0
              -65.431523,-24.027083,0
              -65.43403,-24.027831,0
              -65.438162,-24.029266,0
              -65.440518,-24.029928,0
              -65.440481,-24.031554,0
              -65.435425,-24.03349,0
              -65.4321,-24.038334,0
              -65.431996,-24.039311,0
              -65.431142,-24.041397,0
              -65.431396,-24.041623,0
              -65.432104,-24.041682,0
              -65.433112,-24.041878,0
              -65.433434,-24.042329,0
              -65.433048,-24.043269,0
              -65.433434,-24.043936,0
              -65.432802,-24.04438,0
              -65.431417,-24.043171,0
              -65.42977,-24.04265,0
              -65.428065,-24.046134,0
              -65.426975,-24.04762,0
              -65.423991,-24.049848,0
              -65.4226,-24.051705,0
              -65.422206,-24.053367,0
              -65.421661,-24.054819,0
              -65.421,-24.055798,0
              -65.419627,-24.057284,0
              -65.419264,-24.057711,0
              -65.419029,-24.058335,0
              -65.418984,-24.060336,0
              -65.418982,-24.062348,0
              -65.417101,-24.066374,0
              -65.416121,-24.0685,0
              -65.415032,-24.070604,0
              -65.414199,-24.072289,0
              -65.413133,-24.074491,0
              -65.413062,-24.074703,0
              -65.413133,-24.074855,0
              -65.413342,-24.07499,0
              -65.413598,-24.075002,0
              -65.414847,-24.075006,0
              -65.415365,-24.075103,0
              -65.415783,-24.0752,0
              -65.416094,-24.075395,0
              -65.416406,-24.075396,0
              -65.416611,-24.075681,0
              -65.416923,-24.075777,0
              -65.417235,-24.075778,0
              -65.418171,-24.076071,0
              -65.418483,-24.076072,0
              -65.418795,-24.076168,0
              -65.419107,-24.076169,0
              -65.419419,-24.076265,0
              -65.420043,-24.076268,0
              -65.420667,-24.07646,0
              -65.420978,-24.07656,0
              -65.421603,-24.076562,0
              -65.421917,-24.076658,0
              -65.422541,-24.076661,0
              -65.422853,-24.076757,0
              -65.423787,-24.077334,0
              -65.424722,-24.077621,0
              -65.425346,-24.077818,0
              -65.425658,-24.077819,0
              -65.42597,-24.077915,0
              -65.426851,-24.078302,0
              -65.427163,-24.078303,0
              -65.427476,-24.078205,0
              -65.428412,-24.078209,0
              -65.428724,-24.078309,0
              -65.42966,-24.078597,0
              -65.430908,-24.078602,0
              -65.431221,-24.078508,0
              -65.432158,-24.078511,0
              -65.432471,-24.078323,0
              -65.432783,-24.078324,0
              -65.433096,-24.078131,0
              -65.433514,-24.078133,0
              -65.433826,-24.078039,0
              -65.434139,-24.07804,0
              -65.43445,-24.078136,0
              -65.434763,-24.078137,0
              -65.435593,-24.078334,0
              -65.436216,-24.078526,0
              -65.436841,-24.078529,0
              -65.437259,-24.078436,0
              -65.437885,-24.078054,0
              -65.438199,-24.077771,0
              -65.438511,-24.077772,0
              -65.438823,-24.077674,0
              -65.439449,-24.077486,0
              -65.439865,-24.077298,0
              -65.440075,-24.07701,0
              -65.4407,-24.076823,0
              -65.440805,-24.07644,0
              -65.441119,-24.076156,0
              -65.44133,-24.075584,0
              -65.441644,-24.075296,0
              -65.441645,-24.074917,0
              -65.442063,-24.074345,0
              -65.442376,-24.074152,0
              -65.442792,-24.074059,0
              -65.443105,-24.073965,0
              -65.443417,-24.073966,0
              -65.443729,-24.074062,0
              -65.44404,-24.074352,0
              -65.444351,-24.074448,0
              -65.4456,-24.074453,0
              -65.445912,-24.074549,0
              -65.446536,-24.074551,0
              -65.446848,-24.074647,0
              -65.447369,-24.074744,0
              -65.447784,-24.074939,0
              -65.448095,-24.07513,0
              -65.4482,-24.075415,0
              -65.448511,-24.075515,0
              -65.448613,-24.0758,0
              -65.448925,-24.075991,0
              -65.449547,-24.076566,0
              -65.449336,-24.076854,0
              -65.449025,-24.076758,0
              -65.448713,-24.076563,0
              -65.448401,-24.076562,0
              -65.447778,-24.076181,0
              -65.447467,-24.076085,0
              -65.447155,-24.075795,0
              -65.446533,-24.075409,0
              -65.446221,-24.075313,0
              -65.446016,-24.075028,0
              -65.445079,-24.075024,0
              -65.444766,-24.075118,0
              -65.444453,-24.075306,0
              -65.444141,-24.0754,0
              -65.443829,-24.075399,0
              -65.443827,-24.075688,0
              -65.443515,-24.075782,0
              -65.443305,-24.07607,0
              -65.442418,-24.07654,0
              -65.442104,-24.076828,0
              -65.441686,-24.0774,0
              -65.441373,-24.077588,0
              -65.441163,-24.077876,0
              -65.440537,-24.078253,0
              -65.440224,-24.078446,0
              -65.439911,-24.07854,0
              -65.439495,-24.078633,0
              -65.439183,-24.078632,0
              -65.43887,-24.078726,0
              -65.438557,-24.078919,0
              -65.438142,-24.079012,0
              -65.437829,-24.079011,0
              -65.437204,-24.079198,0
              -65.436891,-24.079387,0
              -65.436579,-24.079386,0
              -65.435954,-24.079577,0
              -65.434911,-24.079573,0
              -65.434599,-24.079478,0
              -65.431583,-24.079466,0
              -65.431062,-24.079559,0
              -65.430436,-24.079746,0
              -65.429084,-24.079741,0
              -65.428772,-24.079645,0
              -65.428354,-24.079644,0
              -65.427731,-24.079452,0
              -65.425858,-24.079445,0
              -65.425615,-24.081632,0
              -65.416623,-24.080386,0
              -65.416564,-24.079585,0
              -65.414872,-24.079288,0
              -65.411548,-24.07859,0
              -65.410524,-24.078576,0
              -65.409242,-24.079856,0
              -65.408409,-24.084078,0
              -65.408353,-24.096252,0
              -65.408051,-24.097899,0
              -65.407975,-24.097918,0
              -65.407739,-24.098016,0
              -65.407539,-24.098045,0
              -65.407197,-24.09804,0
              -65.406903,-24.098053,0
              -65.406561,-24.098102,0
              -65.406394,-24.098118,0
              -65.406101,-24.098175,0
              -65.40606,-24.098179,0
              -65.405881,-24.098154,0
              -65.40573,-24.098195,0
              -65.405567,-24.09833,0
              -65.405498,-24.098468,0
              -65.405042,-24.098599,0
              -65.404406,-24.09877,0
              -65.403917,-24.098753,0
              -65.403355,-24.098778,0
              -65.402646,-24.098933,0
              -65.401123,-24.099014,0
              -65.399558,-24.09934,0
              -65.398124,-24.09921,0
              -65.396723,-24.099601,0
              -65.395875,-24.099601,0
              -65.395256,-24.099731,0
              -65.394922,-24.09971,0
            </coordinates>
          </LinearRing>
        </outerBoundaryIs>
      </Polygon>
    </Placemark>
  </Document>
</kml>
